{
"type": "FeatureCollection",
"name": "retail_points",
"crs": { "type": "name", "properties": { "name": "urn:ogc:def:crs:OGC:1.3:CRS84" } },
"features": [
{ "type": "Feature", "properties": { "dba_name": "Breadbelly B12", "full_business_address": "1070 Maryland St Ste 122", "lic_code_description": "RETAIL BAKERIES WITH FOOD PREP", "location_start_date": "2025-02-24T00:00:00", "blklot": "4052001", "site": "Pier 70" }, "geometry": { "type": "Point", "coordinates": [ -122.383863, 37.758753 ] } },
{ "type": "Feature", "properties": { "dba_name": "Breadbelly B12", "full_business_address": "1070 Maryland St Ste 122", "lic_code_description": "RETAIL BAKERIES WITH FOOD PREP", "location_start_date": "2025-02-24T00:00:00", "blklot": "4114010", "site": "Pier 70" }, "geometry": { "type": "Point", "coordinates": [ -122.383863, 37.758753 ] } },
{ "type": "Feature", "properties": { "dba_name": "Via Aurelia", "full_business_address": "300 Toni Stone Xing", "lic_code_description": "RESTAURANT - OVER 2,000 SQFT", "location_start_date": "2025-05-22T00:00:00", "blklot": "8719A008", "site": "Pier 50 / Mission Rock" }, "geometry": { "type": "Point", "coordinates": [ -122.3887815, 37.775547 ] } },
{ "type": "Feature", "properties": { "dba_name": "Bamco Mission Rock Floor 13", "full_business_address": "300 Toni Stone Xing", "lic_code_description": "Multiple", "location_start_date": "2024-03-08T00:00:00", "blklot": "8719A008", "site": "Pier 50 / Mission Rock" }, "geometry": { "type": "Point", "coordinates": [ -122.3887815, 37.775547 ] } },
{ "type": "Feature", "properties": { "dba_name": "Bamco Mission Rock Floor 7", "full_business_address": "300 Toni Stone Xing", "lic_code_description": "EMPLOYEE CAFETERIA LIMITED FOOD PREP", "location_start_date": "2024-03-08T00:00:00", "blklot": "8719A008", "site": "Pier 50 / Mission Rock" }, "geometry": { "type": "Point", "coordinates": [ -122.3887815, 37.775547 ] } },
{ "type": "Feature", "properties": { "dba_name": "Proper Food", "full_business_address": "300 Toni Stone Xing Ste E", "lic_code_description": "TAKE-OUTS", "location_start_date": "2024-04-01T00:00:00", "blklot": "8719A008", "site": "Pier 50 / Mission Rock" }, "geometry": { "type": "Point", "coordinates": [ -122.3887815, 37.775547 ] } },
{ "type": "Feature", "properties": { "dba_name": "Bamco Mission Rock Floor 10", "full_business_address": "300 Toni Stone Xing", "lic_code_description": "EMPLOYEE CAFETERIA LIMITED FOOD PREP", "location_start_date": "2024-03-08T00:00:00", "blklot": "8719A008", "site": "Pier 50 / Mission Rock" }, "geometry": { "type": "Point", "coordinates": [ -122.3887815, 37.775547 ] } },
{ "type": "Feature", "properties": { "dba_name": "Bamco Mission Rock Floor 3", "full_business_address": "300 Toni Stone Xing", "lic_code_description": "Multiple", "location_start_date": "2024-03-08T00:00:00", "blklot": "8719A008", "site": "Pier 50 / Mission Rock" }, "geometry": { "type": "Point", "coordinates": [ -122.3887815, 37.775547 ] } },
{ "type": "Feature", "properties": { "dba_name": "Bamco Mission Rock Floor 11", "full_business_address": "300 Toni Stone Xing", "lic_code_description": "EMPLOYEE CAFETERIA LIMITED FOOD PREP", "location_start_date": "2024-03-08T00:00:00", "blklot": "8719A008", "site": "Pier 50 / Mission Rock" }, "geometry": { "type": "Point", "coordinates": [ -122.3887815, 37.775547 ] } },
{ "type": "Feature", "properties": { "dba_name": "Rh San Francisco", "full_business_address": "590 20th St", "lic_code_description": "POINT OF SALE STATION", "location_start_date": "2022-04-19T00:00:00", "blklot": "4046001", "site": "Pier 70" }, "geometry": { "type": "Point", "coordinates": [ -122.387391, 37.760724 ] } },
{ "type": "Feature", "properties": { "dba_name": "Bamco Mission Rock Floor 5", "full_business_address": "300 Toni Stone Xing", "lic_code_description": "Multiple", "location_start_date": "2024-03-08T00:00:00", "blklot": "8719A008", "site": "Pier 50 / Mission Rock" }, "geometry": { "type": "Point", "coordinates": [ -122.3887815, 37.775547 ] } },
{ "type": "Feature", "properties": { "dba_name": "Quik Dog", "full_business_address": "1023 3rd St Ste E", "lic_code_description": "RESTAURANT - OVER 2,000 SQFT", "location_start_date": "2025-04-23T00:00:00", "blklot": "8719B002", "site": "Pier 50 / Mission Rock" }, "geometry": { "type": "Point", "coordinates": [ -122.389767, 37.775628 ] } },
{ "type": "Feature", "properties": { "dba_name": "Flour + Water Pizza Shop", "full_business_address": "1090 Dr Maya Angelou Lane Ln Ste A", "lic_code_description": "RESTAURANT 1,000 - 2,000 SQFT", "location_start_date": "2025-02-25T00:00:00", "blklot": "8719C003", "site": "Pier 50 / Mission Rock" }, "geometry": { "type": "Point", "coordinates": [ -122.389137, 37.774872 ] } },
{ "type": "Feature", "properties": { "dba_name": "Bamco Mission Rock Floor 12", "full_business_address": "300 Toni Stone Xing", "lic_code_description": "EMPLOYEE CAFETERIA LIMITED FOOD PREP", "location_start_date": "2024-03-08T00:00:00", "blklot": "8719A008", "site": "Pier 50 / Mission Rock" }, "geometry": { "type": "Point", "coordinates": [ -122.3887815, 37.775547 ] } },
{ "type": "Feature", "properties": { "dba_name": "Ikes Love And Sandwiches", "full_business_address": "1090 Dr Maya Angelou Ln Ste G", "lic_code_description": "RESTAURANT 1,000 - 2,000 SQFT", "location_start_date": "2024-04-25T00:00:00", "blklot": "8719C003", "site": "Pier 50 / Mission Rock" }, "geometry": { "type": "Point", "coordinates": [ -122.389137, 37.774872 ] } },
{ "type": "Feature", "properties": { "dba_name": "Sweetgreen", "full_business_address": "1023 3rd St Ste C", "lic_code_description": "RESTAURANT - OVER 2,000 SQFT", "location_start_date": "2025-06-03T00:00:00", "blklot": "8719B002", "site": "Pier 50 / Mission Rock" }, "geometry": { "type": "Point", "coordinates": [ -122.389767, 37.775628 ] } },
{ "type": "Feature", "properties": { "dba_name": "Bamco Mission Rock Floor 6", "full_business_address": "300 Toni Stone Xing", "lic_code_description": "EMPLOYEE CAFETERIA LIMITED FOOD PREP", "location_start_date": "2024-03-08T00:00:00", "blklot": "8719A008", "site": "Pier 50 / Mission Rock" }, "geometry": { "type": "Point", "coordinates": [ -122.3887815, 37.775547 ] } },
{ "type": "Feature", "properties": { "dba_name": "Rh San Francisco F&B", "full_business_address": "590 20th St", "lic_code_description": "RESTAURANT - OVER 2,000 SQFT", "location_start_date": "2020-11-11T00:00:00", "blklot": "4046001", "site": "Pier 70" }, "geometry": { "type": "Point", "coordinates": [ -122.387391, 37.760724 ] } },
{ "type": "Feature", "properties": { "dba_name": "The Canyon", "full_business_address": "1023 3rd St", "lic_code_description": "Multiple", "location_start_date": "2023-05-16T00:00:00", "blklot": "8719B002", "site": "Pier 50 / Mission Rock" }, "geometry": { "type": "Point", "coordinates": [ -122.389767, 37.775628 ] } },
{ "type": "Feature", "properties": { "dba_name": "Bamco Mission Rock Floor 9", "full_business_address": "300 Toni Stone Xing", "lic_code_description": "EMPLOYEE CAFETERIA LIMITED FOOD PREP", "location_start_date": "2024-03-08T00:00:00", "blklot": "8719A008", "site": "Pier 50 / Mission Rock" }, "geometry": { "type": "Point", "coordinates": [ -122.3887815, 37.775547 ] } },
{ "type": "Feature", "properties": { "dba_name": "Bamco Mission Rock Floor 4", "full_business_address": "300 Toni Stone Xing", "lic_code_description": "EMPLOYEE CAFETERIA LIMITED FOOD PREP", "location_start_date": "2024-03-08T00:00:00", "blklot": "8719A008", "site": "Pier 50 / Mission Rock" }, "geometry": { "type": "Point", "coordinates": [ -122.3887815, 37.775547 ] } },
{ "type": "Feature", "properties": { "dba_name": "Bamco Mission Rock Floor 8", "full_business_address": "300 Toni Stone Xing", "lic_code_description": "EMPLOYEE CAFETERIA LIMITED FOOD PREP", "location_start_date": "2024-03-08T00:00:00", "blklot": "8719A008", "site": "Pier 50 / Mission Rock" }, "geometry": { "type": "Point", "coordinates": [ -122.3887815, 37.775547 ] } },
{ "type": "Feature", "properties": { "dba_name": "Arsicault Bakery", "full_business_address": "1070 Bridgeview Way Unit B", "lic_code_description": "RETAIL BAKERIES WITH FOOD PREP", "location_start_date": "2024-07-10T00:00:00", "blklot": "8719C001", "site": "Pier 50 / Mission Rock" }, "geometry": { "type": "Point", "coordinates": [ -122.3883225, 37.775214 ] } },
{ "type": "Feature", "properties": { "dba_name": "Blue Bottle Coffee", "full_business_address": "300 Toni Stone Xing Ste E", "lic_code_description": "Multiple", "location_start_date": "2025-08-05T00:00:00", "blklot": "8719A008", "site": "Pier 50 / Mission Rock" }, "geometry": { "type": "Point", "coordinates": [ -122.3887815, 37.775547 ] } }
]
}
