{
  "type": "FeatureCollection",
  "features": [
    {
      "type": "Feature",
      "properties": {
        "project_name": "700 Indiana St -- MBC BioLabs lab/office building (adjacent to Pier 70)",
        "site": "Pier 70",
        "status": "planned",
        "use": "commercial",
        "geometry_type": "real",
        "digitized_from": "The real DataSF Assessor parcel for blklot 4062007 (700 Indiana St, Dogpatch), taken from DataSF's Assessor parcel data on 2026-09-28. The polygon itself is the real, unmodified Assessor shape.",
        "accuracy_caveat": "REAL Assessor parcel geometry (not approximate).",
        "regulatory_context": "SF Planning Case No. 2023-001074ENX. Planning Commission approved the project 2024-06-13 (Motion No. 21576): a 3-story-plus-basement, ~70,650-72,350 gross sq ft lab/office building (sources give slightly different figures) replacing an existing ~15,068 sq ft one-story building, for MBC BioLabs. A neighborhood appeal of the CEQA general plan evaluation exemption was rejected by the Board of Supervisors 9-1 on 2024-09-24 (Supervisor Walton dissenting), clearing the project to proceed. No DataSF building permit found as of 2026-09-28, so construction has apparently not yet started.",
        "notes": "Developer: Dewey Land Company (purchased the site 2022 for $15M). End tenant: MBC BioLabs. Architect: MBH Architects.",
        "digitization_method": "2026-09-28 -- CREATED using the real, unmodified DataSF Assessor parcel polygon for blklot 4062007 (already cached locally). No trace or approximation involved. 2026-10-02: public-text pass. digitized_from reworded for readers (meaning unchanged; no change to the shape, status, use or geometry_type); previous wording -- digitized_from: 'The real DataSF Assessor parcel for blklot 4062007 (700 Indiana St, Dogpatch), fetched directly from the local data/raw/parcels.geojson cache (already within this project's bounding box) on 2026-09-28. The polygon itself is the real, unmodified Assessor shape.'.",
        "source_doc_urls": [
          "https://ceqanet.lci.ca.gov/2025010779",
          "https://sfyimby.com/2025/02/environmental-streamlining-for-700-indiana-street-in-dogpatch-san-francisco.html"
        ]
      },
      "geometry": {
        "type": "Polygon",
        "coordinates": [
          [
            [
              -122.391931376,
              37.761479797
            ],
            [
              -122.391666861,
              37.761495753
            ],
            [
              -122.391560716,
              37.760401671
            ],
            [
              -122.391830196,
              37.760385415
            ],
            [
              -122.391931376,
              37.761479797
            ]
          ]
        ]
      }
    }
  ]
}