{
  "type": "FeatureCollection",
  "features": [
    {
      "type": "Feature",
      "properties": {
        "project_name": "Pier 70 Building 21 (Substation No. 5, relocated)",
        "site": "Pier 70",
        "status": "existing",
        "use": "mixed",
        "geometry_type": "real",
        "digitized_from": "DataSF Building Footprints dataset (real, surveyed building outlines; not tied to an Assessor parcel), cross-confirmed against ESRI World Imagery satellite tiles. SUPERSEDED 2026-09-17 a long chain of diagram/prose-based approximations (kept below for history) -- see digitization_method. Originally three converging real-world sources: (1) 2011 Port RFI \"Pier 70 Preferred Master Plan\" map (sfport.com/sites/default/files/FileCenter/Documents/939-Pier70_RFI_3-2-11_web.pdf, p.7/11), a scaled map with real street labels (Illinois St, 20th St) showing Building 21 immediately adjacent to Building 12 near the historic core, annotated \"BUILDING 21 PROPOSED TO BE RELOCATED\"; (2) Aug 3 2017 Port Commission memo (sfport.com/sites/default/files/Commission/Item%2011A%20Pier%2070%20Final.pdf, Exhibit F p.68): \"Building 21 (Substation No. 5)... would be relocated approximately 75 feet to the southeast, and in its new location it would front Slipways Commons... sits directly next to the proposed new waterfront arts facility\"; (3) D4D Figure 3.6.1 \"Illustrative Slipways Commons Plan\" (p.56/PDF p.72), a scaled plan with a real 0-50-100ft bar and \"MARYLAND ST\" label, captioned \"the historic node of Buildings 2, 12, and 21.\"",
        "digitization_method": "REFIT 2026-09-13 with src/block_fit.py, on top of two prior corrections. (1) THIS PROJECT'S OWN real Building 12 anchor was wrong: status.csv had Building 12 joined to blklot 4045017 (700 Illinois St), an unrelated residential condo building over 500m from the real Building 12 -- corrected to 1070 Maryland St, blklot 4114010; see status.csv. (2) After correcting the anchor, this polygon (and Elevation Sky Park) was placed as a hand-computed offset rectangle, and a user screenshot showed it still crossing a real street -- the hand-computed street setbacks were not reliable. Replaced with a repeatable tool instead of a third hand computation: src/fetch_streets.py fetches real OSM street centerlines for the whole project area once (cached to data/raw/streets.geojson), and src/block_fit.py polygonizes them (plus the Port jurisdiction boundary, for shoreline-bounded blocks) into real block polygons, then fits a box of the requested size inside the correct one -- checked programmatically against every nearby street, not eyeballed. This building's real block (Maryland/21st/22nd St, the same one Elevation Sky Park occupies) is a real, well-formed small block, so block_fit.py fit it at its full documented 101ft x 75ft size, no shrinking needed, in the southern part of that block (nearer Building 12/22nd St); Elevation Sky Park occupies the rest of the same block to its north/east. ROTATED 2026-09-13: block_fit.py's earlier version always produced a true-north-aligned box, which looked visibly wrong once rendered -- this area's real street grid (Maryland/Louisiana/Delaware St etc.) is rotated relative to true north, and an axis-aligned box in a rotated block wastes space and doesn't match its neighbors' orientation. fit_box now rotates the box to match the bearing of the nearest real street segment before fitting/shrinking it. OVERLAP NOTE 2026-09-14 (project-wide overlap audit, SUPERSEDED 2026-09-16, see below): Fully overlapped Pier 70 Parcel E2 at the time -- expected given this marker's own low-confidence, directional-only placement; not clipped, since doing so would erase the marker entirely rather than usefully correct it. RE-TRACED 2026-09-16 (Pier 70 deep pass, after applying Potrero's GCP-validation lessons to Pier 70's own transform): rather than continue relying on block_fit.py's street-polygon-fit approach (which only guarantees this box sits somewhere inside the right real block, not at a source-verified position), went back to the same source diagram used for this site's numbered parcels -- Figure 6.4.2 (Building Height Maximum), which shows Building 21 directly as one of its labeled gray 'Historic Buildings' boxes -- and pixel-traced its box directly (programmatic pixel-color sampling to find the box's true edges, at x=1551-1651, y=833-909 in the 2376x1836px source image, after an initial visual estimate proved off by ~55-60px on a badly-scaled crop). Converted via this site's validated 6-point affine transform (the same one used for Parcels A-H, residual error 1-8m against 5 real street intersections plus Building 12's real Assessor centroid) -- NOT block_fit.py's separate street-polygonize method. Cross-checked the transform itself against Building 12's real centroid (blklot 4114010) before trusting this result, per the lesson learned from Potrero's mis-measured-GCP incident: the transform reproduces Building 12's real-world position acceptably well, so it is not grossly miscalibrated. RESULT (2026-09-16, later superseded -- see below): this diagram-derived position was initially found to overlap Pier 70 Parcel E1 by 429.8 m2. FALSE ALARM, RESOLVED 2026-09-16 (Pier 70 systematic feature-by-feature pass, later same day): a user-flagged visual check found E1's own traced shape was badly wrong (a misshapen quadrilateral that cut through this very '21' box and the open space beyond it, rather than the real L-shaped 90ft/65ft footprint shown on Figure 6.4.2). E1 was re-traced programmatically from its own two legend colors -- see pier70_e1.geojson's digitization_method -- and the overlap with this file dropped to exactly 0 m2, confirming Building 21's own position here was correct all along; the earlier overlap was entirely an artifact of E1's bad shape. Still overlapped 'Elevation Sky Park' by 275 m2 (unaffected by the E1 fix) -- see accuracy_caveat. RESOLVED 2026-09-17: that separate ESP entry was merged into Pier 70 Parcel E3's own row per an explicit user decision (see pier70_e3.geojson) and is no longer plotted as its own block, so this overlap no longer applies -- kept here for history. UPGRADED TO REAL FOOTPRINT 2026-09-17 (user request: 'building 21 can be more precise by leveraging satellite image, since it's an existing building that will remain'): rather than keep tracing/re-fitting a hand-drawn box, searched DataSF's Building Footprints dataset for real structures near this site (mblr=SF4052001 -- the same giant, largely-unsubdivided Assessor lot found to underlie much of central Pier 70, also covering Building 14; see status.csv's 4052001 row) and rendered all of them directly over ESRI World Imagery satellite tiles. That rendering showed two real, adjacent dark-roofed structures (367.8 and 367.2 sq m, combined 734.96 sq m / ~7,911 sqft) sitting almost exactly under this file's own previously-committed diagram-derived box -- a close match (within 4.4%) to the previously-cited 101ft x 75ft (~703.7 sq m) footprint size. A third, larger nearby footprint (1,879.7 sq m) that a pure diagram-position guess had initially favored turned out, on the satellite image, to actually be a paved section of Maryland St itself (a street mistakenly captured as a 'building' in the source dataset) -- not a structure at all; ruled out once seen against real imagery, exactly the kind of error satellite cross-checking is meant to catch. A small adjacent 49 sq m footprint sits ~9m south of the two main pieces (not touching) -- possibly a small appendage or a separate utility structure; not confirmed, so not included. Replaced the hand-traced diagram box with the union of the two matched real footprints (MultiPolygon, since DataSF's extraction has them as two separate touching-but-unmerged pieces). Checked for overlap against E1, E3, E4, Parcel D, Building 2, and Building 12's real parcel -- zero overlap with all of them at this corrected, smaller, more precisely-positioned footprint.",
        "accuracy_caveat": "REAL, surveyed building footprint (DataSF Building Footprints) as of 2026-09-17 -- high confidence in the outline itself and its match to Building 21: position matches multiple independent prose sources (adjacent to Building 12, fronting Slipways Commons) and its combined size (734.96 sq m) is within 4.4% of the previously-cited 101ft x 75ft (~703.7 sq m) documented footprint. The match rests on position, size, and satellite corroboration, not an explicit building-number tag in the footprint dataset itself (no such attribute exists there). A small 49 sq m footprint ~9m away was not included -- see digitization_method. Superseded history: STATUS CORRECTED 2026-09-13 -- this building's rehabilitation has not started as of the most recent primary sources found (see regulatory_context).",
        "why_no_real_parcel": "This structure has no street address in DataSF's Assessor roll and sits on the same huge, largely-unsubdivided Assessor lot (blklot 4052001) as Building 14 and other structures across central Pier 70 -- no distinct blklot exists to join for Building 21 specifically, so this feature uses the real building footprint instead, matched individually (see digitization_method).",
        "regulatory_context": "Building 21, originally Substation No. 5, was relocated on-site and is one of three historic structures (with Buildings 2 and 12) the Pier 70 Design for Development commits to rehabilitating per the Secretary of the Interior's Standards (Pier 70 D4D S6.6.1). CORRECTED 2026-09-13: an earlier version of this row marked it \"complete,\" inferred (not directly cited) from Building 21 being grouped in the D4D's rehabilitation commitment alongside Buildings 2 and 12. A follow-up research pass found the Port's own 28-acre site page (sfport.com/projects-programs/pier-70-28-acre-site) describes Building 21's rehabilitation as still to come -- the page shows a rendering, not a photo, captioned \"Rendering of Pier 70 Building 21,\" under a \"Rehabilitation of three historic buildings\" heading, implying a future vision rather than a completed project. This is corroborated negatively by the Port's own June 2025 project-update deck (sfport.com/sites/default/files/2025-06/Pier%2070%20Update%20-%20June%202025%20v3.pdf), which documents Building 12 and Building 15's full rehabilitation histories in detail but never mentions Building 21 having been touched. Status corrected from complete to existing (see status.csv for this value's definition) -- a standing historic structure, not yet rehabbed, with no confirmed construction timeline.",
        "notes": "UPGRADED 2026-09-17 to a real, surveyed building footprint (was a hand-traced diagram box) per user request -- see digitization_method. Building identity and footprint are now both well-confirmed.",
        "images": [
          {
            "path": "data/manual/images/building21.jpg",
            "credit": "Photo Credit: Forest City / Shae Rocco, from Pier 70 Design for Development (Port of San Francisco, adopted planning document) -- captioned 'Double Gable Roof at Building 21'"
          },
          {
            "path": "data/manual/images/building21_exterior.jpg",
            "credit": "Photo Credit: Shae Rocco / Forest City, 'Building 21 - Exterior', from Pier 70 Design for Development (Port of San Francisco, adopted planning document)"
          }
        ],
        "source_doc_urls": [
          "https://www.sfport.com/media/8123/download?inline=",
          "https://www.sfport.com/projects-programs/pier-70-28-acre-site",
          "https://www.sfport.com/sites/default/files/2025-06/Pier%2070%20Update%20-%20June%202025%20v3.pdf"
        ]
      },
      "geometry": {
        "type": "MultiPolygon",
        "coordinates": [
          [[[-122.383456981, 37.759536733], [-122.38347724, 37.759747283], [-122.383299893, 37.759758072], [-122.383299871, 37.759758027], [-122.383279614, 37.75954748], [-122.38345696, 37.759536688], [-122.383456981, 37.759536733]]],
          [[[-122.383278546, 37.759546037], [-122.383298356, 37.759758952], [-122.383123222, 37.759769263], [-122.383123201, 37.759769217], [-122.383103399, 37.759556303], [-122.383278525, 37.759545992], [-122.383278546, 37.759546037]]]
        ]
      }
    }
  ]
}