{
  "type": "FeatureCollection",
  "features": [
    {
      "type": "Feature",
      "properties": {
        "project_name": "1700 Owens Street",
        "site": "Mission Bay South",
        "status": "complete",
        "use": "institutional",
        "geometry_type": "real",
        "digitized_from": "DataSF Building Footprints (mblr SF8709007); name/address from OpenStreetMap way 27955297 (1700 Owens St)",
        "digitization_method": "ADDED 2026-09-19 for Mission Bay's third real-buildings pass (remaining uncovered footprints inside the official Mission Bay North/South redevelopment-area boundary): 1700 Owens St, a UCSF-affiliated research building at the west corner of Owens Street housing the UCSF-Bay Area Center for AIDS Research (CFAR) and the Taube-Koret Center for Huntington's Disease Research. 2026-09-29 accuracy audit: tenant sourcing: the CFAR page cited above is only an event-location tag listing CFAR events held at 1700 Owens Street, so it does not show that CFAR is housed there, and 'UCSF-affiliated' rests on those events plus the Assessor/permit record (the permit calls it a research and development building). The Taube-Koret Center for Huntington's Disease Research is a Gladstone Institutes program (established March 2009); Gladstone's own center site has a contact page, undated, that lists it as 'located in the 1700 building' at 1700 Owens Street, now cited; whether it is still there is not confirmed. 2026-10-02: public-text pass. accuracy_caveat, notes reworded for readers (meaning unchanged; no change to the shape, status, use or geometry_type); previous wording -- accuracy_caveat: 'REAL -- surveyed DataSF Building Footprints outline (mblr SF8709007), cross-referenced by position against an OpenStreetMap building/address point (way 27955297) for the name and street address; not a hand trace or plan estimate. Construction date: DBI permit 200412282235 (research and development building at 1700 Owens) completed 2007-10-02 and the Assessor roll for 2009-2021 gives year built 2007; architect not confirmed by any source found in this pass.'; notes: 'Construction: DBI permit 200412282235 completed 2007-10-02 and Assessor year built 2007 (roll years 2009-2021); architect not confirmed by any source found in this pass.'.",
        "accuracy_caveat": "REAL -- surveyed DataSF Building Footprints outline (mblr SF8709007), cross-referenced by position against an OpenStreetMap building/address point (way 27955297) for the name and street address; not a hand trace or plan estimate. Construction date: DBI permit 200412282235 (research and development building at 1700 Owens) completed 2007-10-02 and the Assessor roll for 2009-2021 gives year built 2007; architect not confirmed by any source found.",
        "notes": "Construction: DBI permit 200412282235 completed 2007-10-02 and Assessor year built 2007 (roll years 2009-2021); architect not confirmed by any source found.",
        "source_doc_urls": [
          "https://cfar.ucsf.edu/event-location/1700-owens-street",
          "https://www.openstreetmap.org/way/27955297",
          "https://gladstone.org/sites/default/files/u/sfinkbeiner/taube-koret/Contact_Us.html",
          "https://data.sf.gov/resource/i98e-djp9.json?permit_number=200412282235"
        ]
      },
      "geometry": {
        "type": "Polygon",
        "coordinates": [
          [
            [
              -122.3935257,
              37.7671679
            ],
            [
              -122.3935257,
              37.7671678
            ],
            [
              -122.3935277,
              37.7671663
            ],
            [
              -122.393527,
              37.7671657
            ],
            [
              -122.3934935,
              37.767193
            ],
            [
              -122.3934626,
              37.7671684
            ],
            [
              -122.3934571,
              37.7671727
            ],
            [
              -122.393195,
              37.7669638
            ],
            [
              -122.3931949,
              37.7669637
            ],
            [
              -122.3932003,
              37.7669594
            ],
            [
              -122.3931949,
              37.7669551
            ],
            [
              -122.3931948,
              37.7669549
            ],
            [
              -122.3932035,
              37.7669478
            ],
            [
              -122.3932021,
              37.7669489
            ],
            [
              -122.3931297,
              37.7668908
            ],
            [
              -122.3931297,
              37.7668907
            ],
            [
              -122.3931612,
              37.7668079
            ],
            [
              -122.3932654,
              37.7668018
            ],
            [
              -122.3932655,
              37.7667877
            ],
            [
              -122.3932656,
              37.7667877
            ],
            [
              -122.3932652,
              37.7667834
            ],
            [
              -122.3935158,
              37.7667679
            ],
            [
              -122.3935158,
              37.766768
            ],
            [
              -122.3935163,
              37.7667736
            ],
            [
              -122.393566,
              37.7667708
            ],
            [
              -122.393566,
              37.7667709
            ],
            [
              -122.3935667,
              37.766779
            ],
            [
              -122.3937057,
              37.7667787
            ],
            [
              -122.3937075,
              37.7667711
            ],
            [
              -122.3937556,
              37.7667741
            ],
            [
              -122.3937561,
              37.7667697
            ],
            [
              -122.3937584,
              37.7667698
            ],
            [
              -122.3937589,
              37.7667666
            ],
            [
              -122.3937596,
              37.7667617
            ],
            [
              -122.3937592,
              37.7667562
            ],
            [
              -122.3940708,
              37.7667371
            ],
            [
              -122.3941362,
              37.7667878
            ],
            [
              -122.3941363,
              37.7667877
            ],
            [
              -122.3942219,
              37.7668553
            ],
            [
              -122.3942219,
              37.7668554
            ],
            [
              -122.394155,
              37.7669065
            ],
            [
              -122.3941534,
              37.7669053
            ],
            [
              -122.3940775,
              37.7669646
            ],
            [
              -122.394073,
              37.766961
            ],
            [
              -122.3937795,
              37.7671932
            ],
            [
              -122.3937488,
              37.7671692
            ],
            [
              -122.3937291,
              37.7671838
            ],
            [
              -122.3937629,
              37.7672103
            ],
            [
              -122.3936365,
              37.7673122
            ],
            [
              -122.3935068,
              37.7672109
            ],
            [
              -122.3935428,
              37.7671818
            ],
            [
              -122.3935257,
              37.7671679
            ]
          ]
        ]
      }
    }
  ]
}
