{
  "type": "FeatureCollection",
  "features": [
    {
      "type": "Feature",
      "properties": {
        "project_name": "Channel Mission Bay",
        "site": "Mission Bay South",
        "status": "complete",
        "use": "residential",
        "geometry_type": "real",
        "digitized_from": "DataSF Building Footprints (mblr SF8711023); name/address from OpenStreetMap way 1208613094 (185 Channel St)",
        "digitization_method": "ADDED 2026-09-19 for Mission Bay's third real-buildings pass (remaining uncovered footprints inside the official Mission Bay North/South redevelopment-area boundary): Channel Mission Bay, a 315-unit apartment building at 185 Channel St, developed by DOB Mission Bay LP with design/development by LaHue and Associates, managed by UDR.",
        "accuracy_caveat": "REAL -- surveyed DataSF Building Footprints outline (mblr SF8711023), cross-referenced by position against an OpenStreetMap building/address point (way 1208613094) for the name and street address; not a hand trace or plan estimate. Opening year not confirmed by any source found in this pass.",
        "notes": "Opening year not confirmed by any source found in this pass.",
        "source_doc_urls": [
          "https://www.udr.com/san-francisco-bay-area-apartments/san-francisco/channel-mission-bay/",
          "https://lahueandassociates.com/185-channel-st/",
          "https://www.openstreetmap.org/way/1208613094"
        ]
      },
      "geometry": {
        "type": "Polygon",
        "coordinates": [
          [
            [
              -122.3910067,
              37.7743553
            ],
            [
              -122.3909904,
              37.7741515
            ],
            [
              -122.3911638,
              37.7741438
            ],
            [
              -122.3911616,
              37.7741152
            ],
            [
              -122.3911353,
              37.7741158
            ],
            [
              -122.3911227,
              37.7739704
            ],
            [
              -122.3911512,
              37.7739686
            ],
            [
              -122.3911445,
              37.773934
            ],
            [
              -122.3911272,
              37.7739191
            ],
            [
              -122.3910807,
              37.7739215
            ],
            [
              -122.3910837,
              37.7739429
            ],
            [
              -122.3908884,
              37.773953
            ],
            [
              -122.3908862,
              37.7739178
            ],
            [
              -122.3907653,
              37.7739237
            ],
            [
              -122.3907721,
              37.7739624
            ],
            [
              -122.3907953,
              37.7739636
            ],
            [
              -122.3907968,
              37.7739934
            ],
            [
              -122.3908223,
              37.7739923
            ],
            [
              -122.3908424,
              37.774211
            ],
            [
              -122.3908132,
              37.7742116
            ],
            [
              -122.3908243,
              37.7743689
            ],
            [
              -122.3905285,
              37.7743848
            ],
            [
              -122.3905076,
              37.7741864
            ],
            [
              -122.3905864,
              37.7741823
            ],
            [
              -122.390585,
              37.7741602
            ],
            [
              -122.3905654,
              37.7741608
            ],
            [
              -122.3905528,
              37.774004
            ],
            [
              -122.3905731,
              37.7740017
            ],
            [
              -122.3905708,
              37.7739772
            ],
            [
              -122.3905536,
              37.7739647
            ],
            [
              -122.390507,
              37.7739659
            ],
            [
              -122.390507,
              37.7739838
            ],
            [
              -122.3903013,
              37.7739914
            ],
            [
              -122.3902983,
              37.7739741
            ],
            [
              -122.3902503,
              37.7739765
            ],
            [
              -122.3902277,
              37.7739938
            ],
            [
              -122.3902322,
              37.7740313
            ],
            [
              -122.3902525,
              37.7740313
            ],
            [
              -122.3902666,
              37.7741708
            ],
            [
              -122.3902433,
              37.7741737
            ],
            [
              -122.3902471,
              37.7742125
            ],
            [
              -122.3903251,
              37.7742083
            ],
            [
              -122.39034,
              37.7743973
            ],
            [
              -122.3900262,
              37.774412
            ],
            [
              -122.3899733,
              37.7738077
            ],
            [
              -122.3907887,
              37.7737568
            ],
            [
              -122.390794,
              37.7738069
            ],
            [
              -122.390866,
              37.773804
            ],
            [
              -122.3908616,
              37.7737509
            ],
            [
              -122.3913691,
              37.7737178
            ],
            [
              -122.3914161,
              37.774169
            ],
            [
              -122.391386,
              37.7741707
            ],
            [
              -122.3913905,
              37.7742107
            ],
            [
              -122.3914423,
              37.7742029
            ],
            [
              -122.3914603,
              37.7741958
            ],
            [
              -122.3914941,
              37.7742828
            ],
            [
              -122.3914963,
              37.7742947
            ],
            [
              -122.3914888,
              37.7743067
            ],
            [
              -122.3914648,
              37.7743258
            ],
            [
              -122.3910067,
              37.7743553
            ]
          ]
        ]
      }
    }
  ]
}
