{
  "type": "FeatureCollection",
  "features": [
    {
      "type": "Feature",
      "properties": {
        "project_name": "Chase Center Parking Garage (150 Warriors Way)",
        "site": "Mission Bay South",
        "status": "complete",
        "use": "parking",
        "geometry_type": "real",
        "digitized_from": "DataSF Building Footprints (mblr SF8721030); address confirmed via DataSF Assessor parcel data (blklot 8721030) and real-estate listing sources",
        "digitization_method": "ADDED 2026-09-19 during a systematic real-city-block coverage audit (block_fit.py's polygonized street blocks, checked for building-footprint area not covered by any tracked record) prompted by the owner questioning apparent map gaps: A 469,726 sq ft parking structure at 150 Warriors Way (1.58-acre lot), built 2009, serving Chase Center (directly across the street) and other Mission Bay South uses.",
        "accuracy_caveat": "REAL -- surveyed DataSF Building Footprints outline (mblr SF8721030), address confirmed via DataSF Assessor parcel data (blklot 8721030) and real-estate listing sources; not a hand trace or plan estimate.  Trimmed against the adjacent Uber Mission Bay 2 parcel to remove a 92 sq m overlap.",
        "notes": "This footprint originally overlapped the adjacent Uber Mission Bay 2 parcel (blklot 8721029) by 92 sq m; trimmed to the non-overlapping remainder.",
        "source_doc_urls": [
          "https://www.redfin.com/CA/San-Francisco/150-Warriors-Way-94158/home/146920252"
        ]
      },
      "geometry": {
        "type": "Polygon",
        "coordinates": [
          [
            [
              -122.388511,
              37.7689666
            ],
            [
              -122.3885111,
              37.7689667
            ],
            [
              -122.3885165,
              37.769005
            ],
            [
              -122.3885528,
              37.7690034
            ],
            [
              -122.3886169,
              37.769675
            ],
            [
              -122.3885276,
              37.76968
            ],
            [
              -122.3885317,
              37.7697195
            ],
            [
              -122.3878445,
              37.7697604
            ],
            [
              -122.3878458,
              37.7697738
            ],
            [
              -122.3877657,
              37.7697788
            ],
            [
              -122.3877657,
              37.7697787
            ],
            [
              -122.3877557,
              37.7696779
            ],
            [
              -122.3877612,
              37.7696776
            ],
            [
              -122.3877576,
              37.7696424
            ],
            [
              -122.3877633,
              37.769642
            ],
            [
              -122.3877049,
              37.7690139
            ],
            [
              -122.388511,
              37.7689666
            ]
          ]
        ]
      }
    }
  ]
}
