{
  "type": "FeatureCollection",
  "features": [
    {
      "type": "Feature",
      "properties": {
        "project_name": "Mission Bay South Block 16A (UCSF planned)",
        "site": "Mission Bay South",
        "status": "planned",
        "use": "institutional",
        "geometry_type": "approximate",
        "digitized_from": "Real block boundary, formed from DataSF's official street centerlines; the plan's own A/B internal split has no mapped street, so it's a straight bisection along the block's long axis, not a real line.",
        "digitization_method": "ADDED 2026-09-19 for the block-by-block plan walk-through (docs/briefs/mission_bay_block_inventory.csv): the owner asked directly why 'confirmed vacant' blocks weren't being traced and registered as planned, per this project's own Mission Rock precedent (docs/briefs/mission-rock-geometry.md) -- an unbuilt block gets the same transform-and-register discipline as a built one, not left as a bare note. same parking lot, continuing east toward the Utilities Plant. The plan's own Dec 2019 Land Use Map colors this whole row light blue, the same category used for UCSF's other institutional buildings on this campus, but no specific named development or announced project was found for this parcel -- status left as 'planned' per the plan's own land-use designation, not a guessed project name. 2026-09-29 accuracy audit: (1) The 'same parking lot, continuing east' wording is not supported: the cited land use map shows planned uses only, and in USDA NAIP imagery (viewed 2026-09-29) this block reads as open graded ground with no visible parked cars, unlike the car-filled lots on 15A/15B. UCSF's June 12, 2025 CAC deck (page 3) lists 'Block 16A & B - Research' among 'Undeveloped parcels remaining', which supports 'undeveloped' and use institutional (research). (2) 'No specific named development or announced project was found' is out of date: this record's own milestones record a May 2026 UC Regents approval of the UCSF Bakar Ear & Hearing Institute at Fifth Street and Nelson Rising Lane, citing UCSF News, which returned 403 on 2026-09-29 and could not be re-read here; whether that building is on 16A (rather than another block) is not confirmed by any readable source. 2026-10-02: public-text pass. digitized_from, notes reworded for readers (meaning unchanged; no change to the shape, status, use or geometry_type); previous wording -- digitized_from: 'Real block boundary from real street geometry (src/block_fit.py load_blocks(), polygonized from data/raw/official_street_centerlines.geojson); the plan's own A/B internal split has no mapped street, so it's a straight bisection along the block's long axis, not a real line.'; notes: 'No building on this site as of UCSF's June 2025 CAC deck ('Undeveloped parcels remaining'; 'Block 16A & B - Research'); in USDA NAIP imagery (viewed 2026-09-29) the block reads as open graded ground with no visible parked cars, an imagery observation no cited document states. The OCII plan's Dec 2019 Land Use Map designates this block for UCSF (no use type given). This record's milestones list a May 2026 UC Regents approval of the UCSF Bakar Ear & Hearing Institute at Fifth Street and Nelson Rising Lane, citing a UCSF News page that could not be read on 2026-09-29; whether that project is on this block is not confirmed by a readable source.'.",
        "accuracy_caveat": "PARTIALLY REAL -- the outer boundary is a real polygonized city block from real street geometry, not hand-traced; only the internal A/B split line is approximate (a bisection, since no real street divides this block into A and B).",
        "notes": "No building on this site as of UCSF's June 2025 CAC deck ('Undeveloped parcels remaining'; 'Block 16A & B - Research'); in USDA NAIP imagery (viewed 2026-09-29) the block reads as open graded ground with no visible parked cars, an imagery observation no cited document states. The OCII plan's Dec 2019 Land Use Map designates this block for UCSF (no use type given). This record's milestones list a May 2026 UC Regents approval of the UCSF Bakar Ear & Hearing Institute at Fifth Street and Nelson Rising Lane, citing a UCSF News page that could not be checked on 2026-09-29; whether that project is on this block is not confirmed by any source that could be checked.",
        "source_doc_urls": [
          "data/manual/_reference/mission_bay_land_use_map_2019.png",
          "https://sfocii.org/sites/default/files/2025-06/Item%202%20-%20UCSF%20Mission%20Bay%20Development%20Overview.pdf",
          "https://sfocii.org/sites/default/files/inline-files/Att%201%20Mission%20Bay%20Land%20Use%20Map.pdf"
        ]
      },
      "geometry": {
        "type": "Polygon",
        "coordinates": [
          [
            [
              -122.39266497312279,
              37.76966639340758
            ],
            [
              -122.39267574725658,
              37.76966480897796
            ],
            [
              -122.39272166949726,
              37.77014241965869
            ],
            [
              -122.39272169195925,
              37.770142648810165
            ],
            [
              -122.3927472906068,
              37.77039890381602
            ],
            [
              -122.39197977145295,
              37.770445147598615
            ],
            [
              -122.39197977145295,
              37.76970625283789
            ],
            [
              -122.39265406441379,
              37.76966750543266
            ],
            [
              -122.39266497312279,
              37.76966639340758
            ]
          ]
        ]
      }
    }
  ]
}