{
  "type": "FeatureCollection",
  "features": [
    {
      "type": "Feature",
      "properties": {
        "project_name": "J. David Gladstone Institutes",
        "site": "Mission Bay South",
        "status": "complete",
        "use": "institutional",
        "geometry_type": "real",
        "digitized_from": "DataSF Building Footprints (mblr SF8709008); name/address from OpenStreetMap way 84805700 (1650 Owens St)",
        "digitization_method": "ADDED 2026-09-19 for Mission Bay's third real-buildings pass (remaining uncovered footprints inside the official Mission Bay North/South redevelopment-area boundary): The J. David Gladstone Institutes' Mission Bay headquarters at 1650 Owens St: a 6-story, ~200,000 sq ft biomedical research building, completed and dedicated in December 2004; UCSF-affiliated independent nonprofit research institute, named for founder J. David Gladstone.",
        "accuracy_caveat": "REAL -- surveyed DataSF Building Footprints outline (mblr SF8709008), cross-referenced by position against an OpenStreetMap building/address point (way 84805700) for the name and street address; not a hand trace or plan estimate. A 2023-announced ~105,000 sq ft / $160M expansion at this address was reported as planned; not confirmed complete, so not reflected in this footprint or status.",
        "notes": "A 2023-announced ~105,000 sq ft / $160M expansion at this address was reported as planned; not confirmed complete, so not reflected in this footprint or status.",
        "source_doc_urls": [
          "https://www.ucsf.edu/news/2004/12/101217/gladstone-institutes-dedicate-mission-bay-research-building",
          "https://sfyimby.com/2023/02/gladstone-expansion-announced-for-1650-owens-street-in-mission-bay-san-francisco.html",
          "https://www.openstreetmap.org/way/84805700"
        ]
      },
      "geometry": {
        "type": "Polygon",
        "coordinates": [
          [
            [
              -122.394583,
              37.7680964
            ],
            [
              -122.3945768,
              37.7681012
            ],
            [
              -122.3945973,
              37.7681175
            ],
            [
              -122.3945973,
              37.7681175
            ],
            [
              -122.3945907,
              37.7681227
            ],
            [
              -122.3943985,
              37.7679696
            ],
            [
              -122.3943985,
              37.7679696
            ],
            [
              -122.3944051,
              37.7679644
            ],
            [
              -122.3944094,
              37.7679679
            ],
            [
              -122.3944154,
              37.7679632
            ],
            [
              -122.3943773,
              37.7679325
            ],
            [
              -122.39437,
              37.7679382
            ],
            [
              -122.3943571,
              37.7679278
            ],
            [
              -122.394337,
              37.7679432
            ],
            [
              -122.3943036,
              37.7679158
            ],
            [
              -122.3943025,
              37.7679149
            ],
            [
              -122.3943222,
              37.7678997
            ],
            [
              -122.3943061,
              37.7678868
            ],
            [
              -122.3942846,
              37.7679033
            ],
            [
              -122.3942501,
              37.767875
            ],
            [
              -122.3942712,
              37.7678587
            ],
            [
              -122.3942561,
              37.7678466
            ],
            [
              -122.3942352,
              37.7678627
            ],
            [
              -122.3942007,
              37.7678343
            ],
            [
              -122.3942213,
              37.7678185
            ],
            [
              -122.3942057,
              37.767806
            ],
            [
              -122.3942056,
              37.7678059
            ],
            [
              -122.3942126,
              37.7678004
            ],
            [
              -122.3941739,
              37.7677692
            ],
            [
              -122.394166,
              37.7677754
            ],
            [
              -122.3940013,
              37.7676428
            ],
            [
              -122.3940012,
              37.7676427
            ],
            [
              -122.3940076,
              37.7676377
            ],
            [
              -122.3939685,
              37.7676063
            ],
            [
              -122.3939623,
              37.7676112
            ],
            [
              -122.393797,
              37.7674781
            ],
            [
              -122.3937969,
              37.767478
            ],
            [
              -122.3938034,
              37.767473
            ],
            [
              -122.3937747,
              37.7674498
            ],
            [
              -122.3937746,
              37.7674497
            ],
            [
              -122.3938095,
              37.7674224
            ],
            [
              -122.393821,
              37.7674316
            ],
            [
              -122.3938305,
              37.7674241
            ],
            [
              -122.3937696,
              37.7673756
            ],
            [
              -122.3937695,
              37.7673755
            ],
            [
              -122.3937752,
              37.767371
            ],
            [
              -122.3937765,
              37.7673721
            ],
            [
              -122.3938619,
              37.7673062
            ],
            [
              -122.3938591,
              37.7673039
            ],
            [
              -122.3938591,
              37.7673038
            ],
            [
              -122.3938647,
              37.7672993
            ],
            [
              -122.3939263,
              37.7673486
            ],
            [
              -122.3939391,
              37.7673389
            ],
            [
              -122.3939555,
              37.7673521
            ],
            [
              -122.3940322,
              37.7672933
            ],
            [
              -122.3940338,
              37.7672946
            ],
            [
              -122.3940348,
              37.7672938
            ],
            [
              -122.3941882,
              37.7674173
            ],
            [
              -122.3942124,
              37.7673965
            ],
            [
              -122.3942494,
              37.7674238
            ],
            [
              -122.3942494,
              37.7674239
            ],
            [
              -122.3942449,
              37.7674277
            ],
            [
              -122.3942625,
              37.7674413
            ],
            [
              -122.3942625,
              37.7674414
            ],
            [
              -122.3942406,
              37.7674596
            ],
            [
              -122.3943926,
              37.7675807
            ],
            [
              -122.3944169,
              37.76756
            ],
            [
              -122.3944539,
              37.7675872
            ],
            [
              -122.3944539,
              37.7675873
            ],
            [
              -122.3944499,
              37.7675907
            ],
            [
              -122.3944675,
              37.7676044
            ],
            [
              -122.3944675,
              37.7676045
            ],
            [
              -122.3944453,
              37.7676226
            ],
            [
              -122.3944866,
              37.7676555
            ],
            [
              -122.3945619,
              37.7675927
            ],
            [
              -122.3945688,
              37.767598
            ],
            [
              -122.394569,
              37.7675978
            ],
            [
              -122.3945786,
              37.7676053
            ],
            [
              -122.3946264,
              37.7676415
            ],
            [
              -122.3945496,
              37.7677056
            ],
            [
              -122.3945995,
              37.7677453
            ],
            [
              -122.3946229,
              37.7677253
            ],
            [
              -122.3946599,
              37.7677526
            ],
            [
              -122.3946599,
              37.7677527
            ],
            [
              -122.3946561,
              37.7677559
            ],
            [
              -122.3946726,
              37.7677686
            ],
            [
              -122.3946726,
              37.7677688
            ],
            [
              -122.3946502,
              37.767787
            ],
            [
              -122.3948126,
              37.7679151
            ],
            [
              -122.3948127,
              37.7679153
            ],
            [
              -122.3947926,
              37.767931
            ],
            [
              -122.3948041,
              37.7679403
            ],
            [
              -122.3948042,
              37.7679404
            ],
            [
              -122.3947447,
              37.7679868
            ],
            [
              -122.3947331,
              37.7679774
            ],
            [
              -122.3947237,
              37.7679848
            ],
            [
              -122.3947508,
              37.7680063
            ],
            [
              -122.3947509,
              37.7680064
            ],
            [
              -122.3947449,
              37.7680112
            ],
            [
              -122.3947424,
              37.7680092
            ],
            [
              -122.3946965,
              37.7680453
            ],
            [
              -122.3946586,
              37.7680751
            ],
            [
              -122.3946617,
              37.7680776
            ],
            [
              -122.3946617,
              37.7680777
            ],
            [
              -122.3946558,
              37.7680824
            ],
            [
              -122.3946423,
              37.7680717
            ],
            [
              -122.3946319,
              37.7680799
            ],
            [
              -122.3946588,
              37.7681015
            ],
            [
              -122.3946588,
              37.7681016
            ],
            [
              -122.3946237,
              37.7681291
            ],
            [
              -122.394583,
              37.7680964
            ]
          ]
        ]
      }
    }
  ]
}
