{
  "type": "FeatureCollection",
  "features": [
    {
      "type": "Feature",
      "properties": {
        "project_name": "Edgewater",
        "site": "Mission Bay North",
        "status": "complete",
        "use": "residential",
        "geometry_type": "real",
        "digitized_from": "OpenStreetMap (way 46264111, 355 Berry St)",
        "digitization_method": "ADDED 2026-09-18 for Mission Bay's North-blocks pass: real OSM building footprint. Edgewater, 355 Berry St -- rental apartment building on Mission Creek. EXTENDED 2026-09-20 per owner review of the numbered real-gap-fragment technique (used this session for P8/P2): the owner pointed at fragment 10 (computed as bbox.difference(streets).difference(tracked polygons) over the Edgewater/freeway-curve area, ~6,836 sqm) as the real extent of N4-3's own open-land strip alongside I-280, separate from the Edgewater building itself but sharing its N4-3 label. Split that fragment using two lines the owner specified directly: Mission Walk 330's own southwest edge (S-W corner) and northeast edge (N-E corner), each extended as a full line through the fragment. The resulting southern, triangular piece (~4,704 sqm, tapering along the freeway curve) is this record's N4-3 extension; the piece north of the northeast line went to Mission Walk 330 instead (see that record); a small remainder beyond both cuts was dropped per the owner's instruction. Result is a MultiPolygon: Edgewater's own building footprint plus this separate open-land strip, which doesn't touch the building directly (a real planted buffer runs between them). REVERTED 2026-09-20: the 'N4-3 open-land strip' added above was wrong -- checking it against DataSF Assessor parcels found it overlaps 96.7% with a real, distinct parcel (blklot 8704004, 360 Berry St -- 'Mission Bay by Windsor'), not open land. The owner separately corrected the 2026-09-19 finding that Windsor and Edgewater are the same building (a 99.6% footprint-overlap check that was apparently comparing the wrong candidate geometry) -- they are two separate condo complexes on separate parcels (355 Berry St vs 360 Berry St). Reverted this record to just its own real OSM footprint; Windsor is now tracked separately (status.csv blklot 8704004). 2026-09-29 accuracy audit: correction: Edgewater and Windsor are two separate buildings on separate parcels, but 'two separate condo complexes' is wrong for Edgewater, whose 355 Berry parcel is a single Assessor parcel of the 'Apartment 15 Units or more' class (and this same field calls it a 'rental apartment building'); Windsor (360 Berry) is likewise an apartment building per its Assessor record.",
        "accuracy_caveat": "REAL -- surveyed OpenStreetMap building footprint(s), not a hand trace or plan estimate. Correction 2026-09-29: 355 Berry is a single Assessor parcel (8707003, active) in data/raw/parcels.geojson, not condo-mapped; the condo-mapped lots on this block are 325 Berry (111) and 335 Berry (67), and the earlier condo-mapping statement, with its comparison to other condo-mapped towers, was wrong for this building. The footprint is the real OSM building outline.",
        "notes": "Assessor roll (parcel 8707003) gives year built 2007 and 193 units, and the 2005 DBI permit gives 194 units; developer not confirmed by any source found.",
        "source_doc_urls": [
          "https://www.openstreetmap.org/way/46264111"
        ]
      },
      "geometry": {
        "type": "Polygon",
        "coordinates": [
          [
            [
              -122.3963064,
              37.7726284
            ],
            [
              -122.3963633,
              37.7725843
            ],
            [
              -122.3965706,
              37.7724198
            ],
            [
              -122.3968768,
              37.7721721
            ],
            [
              -122.3971938,
              37.7719325
            ],
            [
              -122.3976389,
              37.7722832
            ],
            [
              -122.3975375,
              37.7723556
            ],
            [
              -122.3972315,
              37.7726009
            ],
            [
              -122.3968625,
              37.7728851
            ],
            [
              -122.3967451,
              37.7729755
            ],
            [
              -122.3963064,
              37.7726284
            ]
          ]
        ]
      }
    }
  ]
}