{
 "type": "FeatureCollection",
 "features": [
  {
   "type": "Feature",
   "properties": {
    "project_name": "Mission Bay Kids' Park",
    "site": "Mission Bay South",
    "status": "complete",
    "use": "park",
    "geometry_type": "real",
    "digitized_from": "OpenStreetMap (way 375747149, leisure=park, missionbayparks.com)",
    "digitization_method": "ADDED 2026-09-18 for Mission Bay's real-site pass: real, community-surveyed OpenStreetMap boundary (way 375747149), the same pattern already used for Pier 70's Crane Cove Park (data/manual/pier70_crane_cove_park.geojson) -- not a hand trace or plan-diagram estimate. HIGH CONFIDENCE -- real, community-surveyed OSM polygon tagged with the Mission Bay Parks system's own URL for this facility, at Long Bridge St & China Basin St.",
    "accuracy_caveat": "HIGH CONFIDENCE -- real, community-surveyed OSM polygon tagged with the Mission Bay Parks system's own URL for this facility, at Long Bridge St & China Basin St.",
    "p_number": "Likely P6 ('Kids Park') per OCII's South open-space parcel list, though OCII's own CAC map separately labels a nearby 'Children's Park' near China Basin Park whose wording doesn't exactly match this park's name -- treated as an unconfirmed inference, not a settled match. (https://sfocii.org/projects/mission-bay-south/open-space)",
    "notes": "A completed, standing neighborhood playground (natural-play themed); part of the Mission Bay Parks system now managed by SF Recreation and Parks since July 2023.",
    "source_doc_urls": [
     "https://www.openstreetmap.org/way/375747149",
     "https://missionbayparks.com/childrens-park/",
     "https://sfrecpark.org/Facilities/Facility/Details/Mission-Bay-Kids-Park-454"
    ]
   },
   "geometry": {
    "type": "Polygon",
    "coordinates": [
     [
      [
       -122.3933233,
       37.7718993
      ],
      [
       -122.3921946,
       37.7727804
      ],
      [
       -122.3921614,
       37.772434
      ],
      [
       -122.3921518,
       37.7723366
      ],
      [
       -122.3921146,
       37.771951
      ],
      [
       -122.3933102,
       37.7718725
      ],
      [
       -122.3933233,
       37.7718993
      ]
     ]
    ]
   }
  }
 ]
}