{
  "type": "FeatureCollection",
  "features": [
    {
      "type": "Feature",
      "properties": {
        "project_name": "Chase Center",
        "site": "Mission Bay South",
        "status": "complete",
        "use": "entertainment",
        "geometry_type": "real",
        "street_clip_exempt": true,
        "digitized_from": "DataSF Assessor Parcel blklot 8722025 (Mission Bay South Blocks 29-32), with the two Uber Mission Bay 3 & 4 office-tower footprints (real OpenStreetMap building outlines, OSM ways 1410182008 and 1410183655) subtracted out -- see digitization_method.",
        "digitization_method": "ADDED (as status.csv row, blklot 8722025): Chase Center promoted from an orientation-only landmark to a tracked record. MIGRATED 2026-09-23 from status.csv to this hand-derived geometry, per the owner's direct instruction: DataSF's own Assessor Parcel dataset gives blklot 8722025 (Chase Center) and blklot 8722063 (Uber Mission Bay 3 & 4, the two office towers) byte-identical geometry -- the same shared underlying master-condominium-association land parcel spanning the whole Blocks 29-32 superblock (confirmed: Chase Center, both Uber towers, a parking structure and a small broadcast building are all separate condo units on one shared plat, per a CommercialCafe report on the site's financing). Joining Chase Center to that parcel directly made it visually indistinguishable from the Uber towers on the map (identical overlapping polygons; a click on the shared area could resolve to either record). This geometry instead traces what's real and excludes what's real-but-not-Chase-Center: it is the full Assessor parcel (blklot 8722025, 44,178 sqm) with the two Uber towers' own real building footprints (traced from OpenStreetMap, OSM ways 1410182008 '1655 3rd St / Uber Headquarters Building 3' and 1410183655 '1725 3rd St / Uber Headquarters Building 4', combined ~8,732 sqm) subtracted out via shapely.difference(). The remainder (~35,532 sqm) is the arena bowl, its surrounding plaza/Thrive City retail, and the small satellite structures around it -- including Harmonic Brewing's own standalone taproom building at the NE edge (7 Warriors Way Ste 206), confirmed via its own DataSF business-registration address and geocoded location, which the owner directed be folded into this record rather than tracked separately. Verified the arena's own roofline (visible in Esri satellite imagery) falls entirely within the resulting polygon before accepting the subtraction.",
        "accuracy_caveat": "REAL, DERIVED BOUNDARY -- the outer edge is a real DataSF Assessor Parcel boundary (blklot 8722025); the two notches cut into its NW and SW corners are real OpenStreetMap building traces (the Uber towers), not estimates. The resulting shape has not been independently verified against a surveyed Chase Center site plan -- it is real-minus-real, not a single authoritative source. Two small structures inside this polygon (an oval building in the west plaza, and possibly others) remain unidentified as of this pass. street_clip_exempt is set: the real-street centerline layer (src/street_geometry.py) shows several stale/closed street segments cutting straight through the arena bowl itself (visible as a literal cross running under the roof in a direct render against the street buffer) -- leftover records from the four separate plan blocks (29/30/31/32) that were consolidated into one superblock when Chase Center was built, not real current streets. Auto-clipping against them removed 16% of this polygon's real area; exempted per the same documented-reason precedent as Pier 70's 20th Street Plaza.",
        "notes": "OCII/Warriors Mission Bay South Blocks 29-32. 1 Warriors Way; DataSF's own roll also lists 7 Warriors Way and 300 16th St for pieces of this same parcel. Anchors an 11-acre mixed-use development including Thrive City retail (~100,000 sq ft) and a 35,000 sq ft public plaza. Designed by MANICA Architecture (interiors by Gensler); privately financed (~$1.4B) by Warriors ownership. Opened Sept 6, 2019.",
        "source_doc_urls": [
          "https://en.wikipedia.org/wiki/Chase_Center",
          "https://sfocii.org/sites/default/files/inline-files/Att%201%20Mission%20Bay%20Land%20Use%20Map.pdf",
          "https://www.commercialcafe.com/blog/uber-golden-state-warriors-secure-600m-cmbs-refi-j-p-morgan-mission-bay-towers/",
          "https://www.openstreetmap.org/way/1410182008",
          "https://www.openstreetmap.org/way/1410183655"
        ]
      },
      "geometry": {
        "type": "Polygon",
        "coordinates": [
          [
            [
              -122.38878194888062,
              37.76875691385483
            ],
            [
              -122.3887803,
              37.7687453
            ],
            [
              -122.3889599,
              37.768721
            ],
            [
              -122.3890237,
              37.7687143
            ],
            [
              -122.388982,
              37.7684496
            ],
            [
              -122.3889162,
              37.7682534
            ],
            [
              -122.3882699,
              37.7682832
            ],
            [
              -122.3882385,
              37.7682924
            ],
            [
              -122.3882123,
              37.768304
            ],
            [
              -122.3881915,
              37.7683221
            ],
            [
              -122.388154,
              37.7683623
            ],
            [
              -122.388101,
              37.7684095
            ],
            [
              -122.3880849,
              37.7684254
            ],
            [
              -122.3879997,
              37.7684837
            ],
            [
              -122.3879495,
              37.7685155
            ],
            [
              -122.3879052,
              37.7685399
            ],
            [
              -122.3878589,
              37.7685632
            ],
            [
              -122.3878174,
              37.7685813
            ],
            [
              -122.3877939,
              37.7685903
            ],
            [
              -122.3878086,
              37.7687286
            ],
            [
              -122.3878147,
              37.7688012
            ],
            [
              -122.3881721,
              37.7687817
            ],
            [
              -122.3881835,
              37.7687885
            ],
            [
              -122.38819638877543,
              37.768792177201064
            ],
            [
              -122.388194798,
              37.768792273
            ],
            [
              -122.387504848,
              37.768833819
            ],
            [
              -122.387228867,
              37.768850438
            ],
            [
              -122.386538916,
              37.768891978
            ],
            [
              -122.386420072,
              37.768899133
            ],
            [
              -122.386292746,
              37.767566426
            ],
            [
              -122.386258187,
              37.7672047
            ],
            [
              -122.386918629,
              37.767164937
            ],
            [
              -122.388032874,
              37.767097843
            ],
            [
              -122.388308848,
              37.767081223
            ],
            [
              -122.388829196,
              37.767049885
            ],
            [
              -122.388892152,
              37.767046094
            ],
            [
              -122.388906263,
              37.767127608
            ],
            [
              -122.38892351783608,
              37.76722728208513
            ],
            [
              -122.3889023,
              37.7672296
            ],
            [
              -122.3888922,
              37.7671962
            ],
            [
              -122.3888768,
              37.767175
            ],
            [
              -122.3888518,
              37.7671546
            ],
            [
              -122.3888245,
              37.76714
            ],
            [
              -122.3887984,
              37.767131
            ],
            [
              -122.3887551,
              37.7671308
            ],
            [
              -122.3882645,
              37.7671629
            ],
            [
              -122.3881766,
              37.7671686
            ],
            [
              -122.3880665,
              37.7671759
            ],
            [
              -122.3880702,
              37.7672448
            ],
            [
              -122.3880762,
              37.7672693
            ],
            [
              -122.3880862,
              37.7672874
            ],
            [
              -122.388103,
              37.7673027
            ],
            [
              -122.3881375,
              37.7673266
            ],
            [
              -122.3881866,
              37.7673691
            ],
            [
              -122.3882264,
              37.7674072
            ],
            [
              -122.3882666,
              37.7674686
            ],
            [
              -122.388296,
              37.7675251
            ],
            [
              -122.3883122,
              37.7675842
            ],
            [
              -122.3883246,
              37.7676804
            ],
            [
              -122.388905,
              37.7676446
            ],
            [
              -122.38895865753098,
              37.767527402687726
            ],
            [
              -122.389074484,
              37.768739295
            ],
            [
              -122.38878194888062,
              37.76875691385483
            ]
          ]
        ]
      }
    }
  ]
}