{
  "type": "FeatureCollection",
  "features": [
    {
      "type": "Feature",
      "properties": {
        "project_name": "1500 Owens Street",
        "site": "Mission Bay South",
        "status": "complete",
        "use": "institutional",
        "geometry_type": "real",
        "digitized_from": "DataSF Building Footprints (mblr SF8709018); name/address from OpenStreetMap way 84805709 (1500 Owens St)",
        "digitization_method": "ADDED 2026-09-19 for Mission Bay's third real-buildings pass (remaining uncovered footprints inside the official Mission Bay North/South redevelopment-area boundary): 1500 Owens St, a UCSF Health outpatient medical building housing Radiology, Sports Medicine, Physical Therapy & Rehabilitation, Orthopedic Surgery Center, and Gynecology & Urogynecology clinics at Mission Bay. 2026-09-29 accuracy audit: of the clinics listed above, only Radiology (Musculoskeletal Imaging) is confirmed at 1500 Owens by the cited UCSF Health page and OSM way; Sports Medicine, Physical Therapy & Rehabilitation, Orthopedic Surgery Center and Gynecology & Urogynecology are not stated in any cited source.",
        "accuracy_caveat": "REAL -- surveyed DataSF Building Footprints outline (mblr SF8709018), cross-referenced by position against an OpenStreetMap building/address point (way 84805709) for the name and street address; not a hand trace or plan estimate. Construction is dated by DBI permit 200611298694 (filed 2006-11-29, completed 2009-07-31) and the Assessor's year built (2009); the architect is not confirmed by any source found.",
        "notes": "Construction dated by DBI permit 200611298694 (filed 2006-11-29, completed 2009-07-31) and the Assessor's 2009 year built; architect not confirmed by any source found.",
        "source_doc_urls": [
          "https://www.ucsfhealth.org/locations/radiology-mission-bay-owens-st",
          "https://www.openstreetmap.org/way/84805709"
        ]
      },
      "geometry": {
        "type": "Polygon",
        "coordinates": [
          [
            [
              -122.396135,
              37.7690147
            ],
            [
              -122.3959714,
              37.7690819
            ],
            [
              -122.3959737,
              37.7690831
            ],
            [
              -122.3959737,
              37.7690832
            ],
            [
              -122.3959339,
              37.7691319
            ],
            [
              -122.3959088,
              37.7691076
            ],
            [
              -122.3958068,
              37.7691495
            ],
            [
              -122.3957042,
              37.7690149
            ],
            [
              -122.3954592,
              37.7688371
            ],
            [
              -122.3954592,
              37.768837
            ],
            [
              -122.3954673,
              37.7688315
            ],
            [
              -122.3954672,
              37.7688314
            ],
            [
              -122.395452,
              37.7688185
            ],
            [
              -122.395452,
              37.7688184
            ],
            [
              -122.3954579,
              37.7688139
            ],
            [
              -122.3954394,
              37.7687991
            ],
            [
              -122.3954327,
              37.7688044
            ],
            [
              -122.3953226,
              37.7687168
            ],
            [
              -122.3953226,
              37.7687166
            ],
            [
              -122.3956105,
              37.7684897
            ],
            [
              -122.3959363,
              37.7687459
            ],
            [
              -122.3959906,
              37.7687038
            ],
            [
              -122.3960972,
              37.7687873
            ],
            [
              -122.3960955,
              37.7687887
            ],
            [
              -122.3960967,
              37.7687897
            ],
            [
              -122.3960488,
              37.7688276
            ],
            [
              -122.3961369,
              37.7689
            ],
            [
              -122.3961425,
              37.7689046
            ],
            [
              -122.396135,
              37.7690147
            ]
          ]
        ]
      }
    }
  ]
}
