{
 "type": "FeatureCollection",
 "features": [
  {
   "type": "Feature",
   "properties": {
    "project_name": "Arden",
    "site": "Mission Bay South",
    "status": "complete",
    "use": "residential",
    "geometry_type": "real",
    "digitized_from": "OpenStreetMap (way 394698460, addr:housenumber=708;718;738, Long Bridge St)",
    "digitization_method": "ADDED 2026-09-18 for Mission Bay's second real-site pass: real, address-tagged OpenStreetMap building footprint for Arden, a 267-unit, 16-story Bosa Development condominium tower at 708-718 Long Bridge St along Mission Creek, completed 2016, architect Chris Dikeakos Architects per a single realtor source (not independently confirmed on a primary permit or press document). Point-in-polygon checked against DataSF's official redevelopment-area layer: this site falls in Mission Bay South.",
    "accuracy_caveat": "REAL -- surveyed OpenStreetMap building footprint(s), not a hand trace or plan estimate. The underlying Assessor parcel is condo-mapped across many individually owned per-unit lots (confirmed against data/raw/parcels.geojson), so no single blklot represents the whole building and it cannot be joined via status.csv the way a single-owner parcel can. Using the real building footprint from OSM instead of a fabricated or arbitrarily chosen 'representative' unit lot, the same real-geometry-without-a-single-parcel pattern already used for several Pier 70 buildings (DataSF Building Footprints) and for Mission Bay's own real park polygons.",
    "notes": "Architect attribution rests on one secondary (realtor) source; would benefit from primary confirmation.",
    "source_doc_urls": [
     "https://www.openstreetmap.org/way/394698460",
     "https://kinokorealestate.com/developments/arden"
    ]
   },
   "geometry": {
    "type": "Polygon",
    "coordinates": [
     [
      [
       -122.3944703,
       37.7712375
      ],
      [
       -122.3942421,
       37.7714108
      ],
      [
       -122.3941059,
       37.7715206
      ],
      [
       -122.3940314,
       37.7715774
      ],
      [
       -122.3937013,
       37.7718423
      ],
      [
       -122.3934651,
       37.7720337
      ],
      [
       -122.3938898,
       37.7723718
      ],
      [
       -122.3939424,
       37.7724161
      ],
      [
       -122.3949365,
       37.7716272
      ],
      [
       -122.3947183,
       37.7714512
      ],
      [
       -122.3944703,
       37.7712375
      ]
     ]
    ]
   }
  }
 ]
}