{
  "type": "FeatureCollection",
  "features": [
    {
      "type": "Feature",
      "properties": {
        "project_name": "Mission Bay South Block 18C (UCSF Child Development Center)",
        "site": "Mission Bay South",
        "status": "existing",
        "use": "institutional",
        "geometry_type": "approximate",
        "digitized_from": "Real block boundary built from mapped street centerlines (trimmed against the full street width).",
        "digitization_method": "ADDED 2026-09-19 for the block-by-block plan walk-through (docs/briefs/mission_bay_block_inventory.csv), per the Mission Rock transform-and-register precedent for unbuilt blocks. East half of the same parking lot, west of the Owens St curve. REPLACED 2026-09-20: the owner determined via a numbered real-gap-fragment map that the parking-lot polygon previously registered here was actually part of 18A (see that record -- merged there). The real 18B (this record's boundary, unchanged since) is the UCSF building complex east of that parking lot: union of fragments 7, 11 and 12 from the numbered map (a real, already-built campus building, ~10,023 sqm raw), closed with a small (~4.4m round-trip) morphological buffer to bridge two thin internal walkway strips that split it into 3 pieces in the raw fragment computation -- not a hand-traced or independently sourced boundary. RENAMED 18B -> 18C 2026-09-22: cross-checked against UCSF's own June 2025 CAC presentation (map updated December 2024), which relabels this row's blocks and gives this one as 'Block 18C -- Open Space (Near term: Childcare Center)'. The owner identified this building, sited immediately west of Sandler Neurosciences Center, as the real UCSF at Mission Bay Child Development Center (727 Nelson Rising Lane, operated by Bright Horizons, operating since 2006 per web sources) -- the 'near term' childcare use on the UCSF map is read as describing this existing building, with 'Open Space' its long-term planned use once redeveloped. Geometry unchanged from the prior 18B record; only identity/status corrected. See mission_bay_block_18a.geojson and the new mission_bay_block_18b.geojson for the paired correction (18A's footprint expanded east ~1,197 sqm to close the gap that used to separate it from this block, then re-split into new 18A/18B). 2026-09-29 accuracy audit: citation only (identity and status are owner decisions, unchanged). The Bright Horizons center page (brighthorizons.com/daycare-centers/ca/san-francisco/727-nelson-rising-lane-94143, read 2026-09-29) names 'UCSF at Mission Bay Child Development Center' at 727 Nelson Rising Lane and is now cited; it gives no opening year, so 'since 2006' is unsourced. No cited source ties that address to this polygon: UCSF's June 2025 CAC deck (page 3) lists 'Block 18C - Open Space (Near term: Childcare Center)' among 'Undeveloped parcels remaining' and does not say a building exists, and DataSF Parcels has no record with address 727 Nelson Rising. In USDA NAIP imagery (viewed 2026-09-29) a building with an interior courtyard is present on this polygon. `use: institutional` is our category choice for a childcare facility; UCSF designates the block Open Space long-term. 2026-10-02: public-text pass. accuracy_caveat, digitized_from, notes reworded for readers (meaning unchanged; no change to the shape, status, use or geometry_type); previous wording -- accuracy_caveat: 'APPROXIMATE BOUNDARY -- derived from the numbered real-gap-fragment technique (bbox minus real streets minus already-tracked polygons) rather than a specific real parcel or building-footprint source; the owner picked this union directly off a rendered numbered map. The small morphological closing used to bridge two internal walkway gaps may slightly overstate area at those two seams. IDENTITY: the 'UCSF at Mission Bay Child Development Center' name and this building's identification as that facility are the owner's own on-the-ground read, not independently confirmed against a parcel record, building footprint, or the UCSF document itself -- the UCSF map's 'Block 18C' label carries no address or cross-reference. Marked 'existing' rather than 'complete' because the UCSF map treats this as an interim use ahead of a long-term 'Open Space' redesignation, not a finished build-out.'; digitized_from: 'Real block boundary from real street geometry (src/block_fit.py load_blocks(), trimmed against src/street_geometry.py's fuller street buffer).'; notes: 'Sited immediately west of Sandler Neurosciences Center. Per UCSF's own Dec 2024-updated campus map (June 2025 CAC presentation), this is Block 18C, long-term planned as Open Space, with childcare flagged as its near-term/current use -- read here as this already-operating Child Development Center. Address/operator (727 Nelson Rising Lane, Bright Horizons, since 2006) from web sources, not from a source document in this repo's own chain.'. 2026-10-10: renamed and identification sourced, for launch. project_name was 'Mission Bay South Block 18C (UCSF at Mission Bay Child Development Center, owner-identified)'; it is now 'Mission Bay South Block 18C (UCSF Child Development Center)'. 'owner-identified' was internal working language in a public name and URL (UX audit 2026-10-05, L2); the identification it hedged now rests on four cited sources instead: (1) Bright Horizons centre page, already cited (brighthorizons.com/daycare-centers/ca/san-francisco/727-nelson-rising-lane-94143): 'UCSF at Mission Bay Child Development Center', 727 Nelson Rising Lane; (2) DataSF Registered Business Locations (g8m3-pdis), read 2026-10-10: ttxid 1367181-07-241, dba 'Ucsf Child Care At Mission Bay', ownership 'Bright Horizons Childrens Ctrs', 727 Nelson Rising Ln, certificate 0941054, location_start_date 2024-01-01; (3) DataSF Addresses / EAS (3mea-di5p), read 2026-10-10: eas_address_id 743045 (base id 491754), 727 NELSON RISING LN, point -122.39330278, 37.769440264, parcel_number 8711007. Point-in-polygon re-run here (shapely, EPSG:26910) against this file's geometry and data/processed: inside this shape, 2.72 m from its edge; nearest other tracked shape Mission Bay South Block 15B, 19.71 m; (4) UCSF June 2025 CAC deck, already cited: Block 18C near-term use 'Childcare Center'. Caveats kept in accuracy_caveat: the EAS point is a frontage point, not a footprint; 727 Nelson Rising Ln also hosts other registrations (Booster Fuels, dba 'Ucsf Shuttles', ttxid 1423671-05-261), so the address is not exclusive; no sourced opening date ('since 2006' stays out; the 2024-01-01 location start is a registration, not an opening). accuracy_caveat and notes rewritten to state this chain; previous wording -- accuracy_caveat: 'APPROXIMATE BOUNDARY -- traced as the leftover open ground between the mapped street lines and neighbouring mapped shapes, rather than from a specific real parcel or building-footprint source; the pieces making up this shape were chosen and combined by hand. The small smoothing step used to bridge two internal walkway gaps may slightly overstate area at those two seams. IDENTITY: the 'UCSF at Mission Bay Child Development Center' name and this building's identification as that facility rest on Pier & Point's own on-the-ground observation, not independently confirmed against a parcel record, building footprint, or the UCSF document itself -- the UCSF map's 'Block 18C' label carries no address or cross-reference. Marked 'existing' rather than 'complete' because the UCSF map treats this as an interim use ahead of a long-term 'Open Space' redesignation, not a finished build-out.'; notes: 'Sited immediately west of Sandler Neurosciences Center. Per UCSF's own Dec 2024-updated campus map (June 2025 CAC presentation), this is Block 18C, long-term planned as Open Space, with childcare flagged as its near-term/current use -- read here as this already-operating Child Development Center. Address/operator (727 Nelson Rising Lane, Bright Horizons, since 2006) from web sources, not from a cited source document.'. No change to the shape, status, use or geometry_type. The original page URL redirects to the new one (sitegen/static/_redirects).",
        "accuracy_caveat": "APPROXIMATE BOUNDARY -- traced as the leftover open ground between the mapped street lines and neighbouring mapped shapes, rather than from a specific real parcel or building-footprint source; the pieces making up this shape were chosen and combined by hand. The small smoothing step used to bridge two internal walkway gaps may slightly overstate area at those two seams. IDENTITY: this shape is identified as the UCSF at Mission Bay Child Development Center by four sources together: (1) Bright Horizons' own centre page names 'UCSF at Mission Bay Child Development Center' at 727 Nelson Rising Lane; (2) DataSF Registered Business Locations lists 'Ucsf Child Care At Mission Bay', owned by Bright Horizons, at 727 Nelson Rising Ln (certificate 0941054); (3) the City's address point for 727 Nelson Rising Ln (DataSF Addresses, address ID 743045, at -122.39330278, 37.76944026) falls inside this shape, about 2.7 m from its edge, and the nearest other mapped shape (Block 15B) is about 20 m away; (4) UCSF's June 2025 CAC presentation gives Block 18C's near-term use as 'Childcare Center'. Limits: the address point is a frontage point, not a building footprint, so it places the centre in this block, not this exact outline; 727 Nelson Rising Ln also carries other business registrations (a UCSF shuttle fuelling business), so the address is not exclusive to this building; and no source gives an opening date (the business registration's 2024-01-01 location start is a registration date, not an opening). Marked 'existing' rather than 'complete' because the UCSF map treats this as an interim use ahead of a long-term 'Open Space' redesignation, not a finished build-out.",
        "notes": "Sited immediately west of Sandler Neurosciences Center. Per UCSF's own Dec 2024-updated campus map (June 2025 CAC presentation), this is Block 18C, long-term planned as Open Space, with a childcare center as its near-term use. Operated by Bright Horizons as the UCSF at Mission Bay Child Development Center, 727 Nelson Rising Lane (Bright Horizons centre page; DataSF Registered Business Locations); see About this shape for how the address is tied to this shape. No opening date is sourced.",
        "source_doc_urls": [
          "data/manual/_reference/mission_bay_land_use_map_2019.png",
          "https://sfocii.org/sites/default/files/2025-06/Item%202%20-%20UCSF%20Mission%20Bay%20Development%20Overview.pdf",
          "https://www.brighthorizons.com/daycare-centers/ca/san-francisco/727-nelson-rising-lane-94143",
          "https://data.sfgov.org/resource/g8m3-pdis.json?ttxid=1367181-07-241",
          "https://data.sfgov.org/resource/3mea-di5p.json?eas_address_id=743045"
        ]
      },
      "geometry": {
        "type": "Polygon",
        "coordinates": [
          [
            [
              -122.39407295955834,
              37.769418371141
            ],
            [
              -122.39407200988214,
              37.769418476391536
            ],
            [
              -122.39278676522744,
              37.76949593025348
            ],
            [
              -122.39278584681091,
              37.769495941460576
            ],
            [
              -122.39278571561856,
              37.769495032393536
            ],
            [
              -122.39270752056599,
              37.76867732036584
            ],
            [
              -122.39270747743969,
              37.768676365858184
            ],
            [
              -122.39270842710702,
              37.76867626060997
            ],
            [
              -122.39311586231689,
              37.76865170732007
            ],
            [
              -122.39311690274154,
              37.76865169918449
            ],
            [
              -122.39311776086988,
              37.7686518746232
            ],
            [
              -122.39311986923353,
              37.76865242678092
            ],
            [
              -122.39312384053332,
              37.768653049742454
            ],
            [
              -122.39312785430535,
              37.76865327096024
            ],
            [
              -122.39313187001225,
              37.7686530882001
            ],
            [
              -122.39313584709713,
              37.76865250330779
            ],
            [
              -122.39313974539317,
              37.7686515221905
            ],
            [
              -122.39314352552928,
              37.76865015475708
            ],
            [
              -122.39314371585318,
              37.76865007487965
            ],
            [
              -122.39314466592545,
              37.768649971526656
            ],
            [
              -122.39335415536934,
              37.76863734705307
            ],
            [
              -122.39335519579528,
              37.76863733891754
            ],
            [
              -122.3933560536296,
              37.768637514296415
            ],
            [
              -122.39335816259683,
              37.7686380666131
            ],
            [
              -122.39336213389807,
              37.76863868957632
            ],
            [
              -122.39336614767168,
              37.76863891079547
            ],
            [
              -122.39337016338031,
              37.76863872803634
            ],
            [
              -122.39337414046699,
              37.76863814314472
            ],
            [
              -122.39337803876484,
              37.76863716202776
            ],
            [
              -122.39338181890272,
              37.768635794594324
            ],
            [
              -122.39338200957063,
              37.76863571457255
            ],
            [
              -122.3933829596425,
              37.768635611219615
            ],
            [
              -122.39399365678446,
              37.76859880874499
            ],
            [
              -122.39399457519079,
              37.768598797538246
            ],
            [
              -122.39399470639786,
              37.76859970659305
            ],
            [
              -122.39404890824343,
              37.76916640373393
            ],
            [
              -122.39404895340637,
              37.76916737172157
            ],
            [
              -122.39404881112402,
              37.7691683240553
            ],
            [
              -122.39404841236995,
              37.76917032893921
            ],
            [
              -122.39404802770511,
              37.76917426396105
            ],
            [
              -122.3940480333992,
              37.76917821773538
            ],
            [
              -122.39404842939659,
              37.76918215163294
            ],
            [
              -122.3940492118283,
              37.769186027218645
            ],
            [
              -122.39405037304978,
              37.76918980662714
            ],
            [
              -122.3940508994944,
              37.769191062348256
            ],
            [
              -122.3940513309407,
              37.76919225870288
            ],
            [
              -122.39405147549068,
              37.769193245101704
            ],
            [
              -122.3940700630033,
              37.76938758332291
            ],
            [
              -122.39407010816623,
              37.76938855131033
            ],
            [
              -122.39406996583645,
              37.76938950396211
            ],
            [
              -122.39406956720562,
              37.76939150822796
            ],
            [
              -122.39406918254136,
              37.769395443251284
            ],
            [
              -122.39406918823632,
              37.76939939702704
            ],
            [
              -122.39406958423484,
              37.769403330925904
            ],
            [
              -122.39407036666795,
              37.76940720651277
            ],
            [
              -122.39407152789107,
              37.76941098592224
            ],
            [
              -122.394072054093,
              37.76941224106319
            ],
            [
              -122.39407248564473,
              37.76941343770917
            ],
            [
              -122.39407263019488,
              37.769414424108895
            ],
            [
              -122.3940729164146,
              37.76941741662483
            ],
            [
              -122.39407295955834,
              37.769418371141
            ]
          ]
        ]
      }
    }
  ]
}