{
 "type": "FeatureCollection",
 "features": [
  {
   "type": "Feature",
   "properties": {
    "project_name": "Arterra",
    "site": "Mission Bay North",
    "status": "complete",
    "use": "residential",
    "geometry_type": "real",
    "digitized_from": "OpenStreetMap (way 48569995, 300 Berry St)",
    "digitization_method": "ADDED 2026-09-18 for Mission Bay's North-blocks pass: real OSM building footprint. Arterra, 300 Berry St -- ~275-unit condo tower, developer Intracorp SF, architect Kwan Henmi, built 2009. 2026-09-29 accuracy audit: (1) The cited SocketSite post (2006-04-26) gives 268 units, not ~275; nothing cited gives 275, so read the unit count as 268 per that post. (2) The 2009 built year is supported by the DataSF Assessor roll: the per-unit condominium lots at 300 Berry St (e.g. parcel 8704012) carry year_property_built 2009; the 2006 post itself gives no completion year and OSM has no start_date.",
    "accuracy_caveat": "REAL -- surveyed OpenStreetMap building footprint(s), not a hand trace or plan estimate. The underlying Assessor parcel is condo-mapped across many individually owned per-unit lots (confirmed against data/raw/parcels.geojson), so no single blklot represents the whole building and it cannot be joined via status.csv the way a single-owner parcel can. Using the real building footprint from OSM instead of a fabricated or arbitrarily chosen 'representative' unit lot, the same pattern already used for Mission Bay's other condo-mapped residential towers (Avalon I, Madrone and Radiance, re-checked against data/raw/parcels.geojson in the 2026-09 audit; Avalon II and III are not condo-mapped, and Arden and One Mission Bay were not re-checked).",
    "notes": "",
    "source_doc_urls": [
     "https://www.openstreetmap.org/way/48569995",
     "https://socketsite.com/archives/2006/04/the_arterra_cle.html",
     "https://data.sf.gov/resource/wv5m-vpq2.json?parcel_number=8704012"
    ]
   },
   "geometry": {
    "type": "Polygon",
    "coordinates": [
     [
      [
       -122.3967606,
       37.7738524
      ],
      [
       -122.3965807,
       37.7737095
      ],
      [
       -122.3964826,
       37.7736316
      ],
      [
       -122.396348,
       37.7735246
      ],
      [
       -122.3960104,
       37.77379
      ],
      [
       -122.3959813,
       37.7738129
      ],
      [
       -122.3959629,
       37.7738274
      ],
      [
       -122.3957489,
       37.7739956
      ],
      [
       -122.3961161,
       37.7742873
      ],
      [
       -122.3961615,
       37.7743234
      ],
      [
       -122.3967606,
       37.7738524
      ]
     ]
    ]
   }
  }
 ]
}