{
  "type": "FeatureCollection",
  "features": [
    {
      "type": "Feature",
      "properties": {
        "project_name": "Mission Bay Ferry Landing -- WETA/Port ferry terminal under construction",
        "site": "Mission Bay South",
        "status": "under_construction",
        "use": "transit",
        "geometry_type": "approximate",
        "digitized_from": "No Assessor block/lot exists for this Port/WETA ferry facility (confirmed: DataSF's 'Parcels - Active and Retired' Socrata dataset, acdm-wktn, has no PIER-numbered street_name entries near this site). No Port/WETA/SFCTA GIS shapefile or site-plan figure was available, so this is a coarse locational box centered near Agua Vista Park (801 Terry A. Francois Blvd, a real, addressed park immediately next to the project per the Port's own project page), using the real address range in DataSF's official street centerlines for that stretch of Terry A. Francois Blvd. CORRECTED 2026-10-10: the outline is now two shapes traced from the layout plan in the City's own environmental review -- Figure 3 (PDF p. 10) of the Final Mitigated Negative Declaration, San Francisco Planning Case No. 2017-008824ENV, amended 2018-06-18 (https://sfmea.sfplanning.org/Mission%20Bay%20Ferry_Final%20MND_061818.pdf) -- the Ferry Landing (connecting ramp, pier, gangway and float) and the Water Taxi Landing (platform, gangway and float). The plan was placed by overlaying its own aerial backdrop on Esri World Imagery (zoom 20, captured 2025-08-29): its printed structure sizes set the scale (about 0.21 m per plan pixel), no rotation was needed, and the existing Agua Vista Park fishing pier, the shoreline and the roadway match the satellite image. These are the structures as designed in 2018, not as built.",
        "accuracy_caveat": "APPROXIMATE -- the two landings as drawn in the City's 2018 layout plan (Final Mitigated Negative Declaration, Figure 3), placed on satellite imagery by overlay, accurate to a few metres at best. This is the 2018 design, not an as-built survey: imagery captured 2025-08-29 shows no landing built yet, and no later plan was found, so the design or its position may have changed. Each shape joins the landing's pieces (Ferry Landing: connecting ramp and pier, gangway, float; Water Taxi Landing: platform, gangway, float). Lengths measured off the drawing differ from the sizes the document states: the gangways scale to about 70 ft against the stated 85 ft (ferry) and 80 ft (water taxi), and the ferry float to about 128 ft against 135 ft. The shapes follow the drawing. The Ferry Landing's landward end is trimmed to Bayfront Park's boundary, where the drawn corner overlapped it by about 35 m2. Landside improvements, dredge areas and the fender piles are not included.",
        "why_no_real_parcel": "Port/WETA ferry facility; not on the Assessor's secured roll (data.sf.gov acdm-wktn has no PIER-numbered parcels near this site).",
        "regulatory_context": "A WETA/Port of San Francisco ferry terminal project. Marine demolition of derelict piles (Phase 2a) was reported complete in 2025; ferry-landing and upland construction (Phase 2b) is under way, with completion targeted by the end of 2027. The San Francisco County Transportation Authority approved sales-tax (Prop L) funding toward the project, including a further allocation reported in April 2026.",
        "notes": "This is a Port/WETA transit facility, not an OCII Mission Bay South development block -- grouped under the Mission Bay South site here because that is the nearest tracked site and because DataSF's official 'Former San Francisco Redevelopment Agency Project Areas' boundary for Mission Bay South extends north along the Terry A. Francois Blvd shoreline to include this stretch (the boundary contains this location). Recorded as adjacent rather than tracked because it is Port/WETA transit infrastructure, not a Mission Bay OCII development parcel like this site's other tracked records.",
        "digitization_method": "2026-09-28 -- CREATED as a coarse locational box (see accuracy_caveat and digitized_from), anchored near Agua Vista Park's real address on Terry A. Francois Blvd, then shifted well east (further into the Bay, consistent with a floating dock projecting past the shoreline) both to clear the 490/499 Illinois St building's and P23's real, already-tracked footprints (check_geometry_quality.py --strict) and to give a clean margin against check_raw_vs_processed_touching.py --strict, which otherwise flagged the smaller initial gap to P23 as an unresolved raw-vs-processed mismatch. No owner review yet; this box's exact position is the least reliable part of this record -- treat it as a locator, not a survey. 2026-10-02: public-text pass. accuracy_caveat, digitized_from, notes reworded for readers (meaning unchanged; no change to the shape, status, use or geometry_type); previous wording -- accuracy_caveat: 'APPROXIMATE -- a coarse placeholder box, not a traced footprint, for the same reasons as data/manual/pier70_dry_docks.geojson (no parcel, no source figure). Primary sources describe the site only as 'adjacent to the intersection of Terry A. Francois Boulevard and 16th Street... adjacent to Agua Vista Park' -- no source found calls this site 'former Pier 64' (a distinct, still-separate 'Pier 64 Sediment Cleanup' line item appears in the Port's own draft Five-Year CIP), so this box is NOT placed at Pier 64 and that claim is not repeated in this record. The box does not represent the real ferry landing's true shape (a floating dock projecting into the Bay plus upland improvements) or its full extent.'; digitized_from: 'No Assessor block/lot exists for this Port/WETA ferry facility (confirmed: DataSF's 'Parcels - Active and Retired' Socrata dataset, acdm-wktn, has no PIER-numbered street_name entries near this site). No Port/WETA/SFCTA GIS shapefile or site-plan figure was available, so this is a coarse locational box centered near Agua Vista Park (801 Terry A. Francois Blvd, a real, addressed park immediately next to the project per the Port's own project page), using the real DataSF street-centerline address range for that stretch of Terry A. Francois Blvd (data/raw/official_street_centerlines.geojson).'; notes: 'This is a Port/WETA transit facility, not an OCII Mission Bay South development block -- grouped under the Mission Bay South site here because that is the nearest tracked site and because DataSF's official 'Former San Francisco Redevelopment Agency Project Areas' boundary (data/raw/redevelopment_project_areas.geojson) for Mission Bay South extends north along the Terry A. Francois Blvd shoreline to include this stretch (contains this location; see the PR body's geometry test). Recorded as adjacent rather than tracked because it is Port/WETA transit infrastructure, not a Mission Bay OCII development parcel like this site's other tracked records.'. 2026-10-10 -- CORRECTED: replaced the 2026-09-28 box (lon -122.3842 to -122.3834, lat 37.7658 to 37.7664, open water about 200 m east of the real site) with two shapes traced from Figure 3 of the City's 2018 Final Mitigated Negative Declaration, placed by overlay on Esri World Imagery (zoom 20, captured 2025-08-29); the City reviews the Ferry Landing and a separate Water Taxi Landing about 400 feet apart as one project, so they are two parts of one record (owner decision). Plan corners were read off the figure; the scale came from the plan's printed structure sizes and the position from the existing fishing pier, shoreline and roadway, which line up with the satellite image with no rotation. Each landing's ramp, pier, gangway and float were drawn with opposite edges parallel and joined into one outline (gangways overlap their neighbours slightly so the parts connect). geometry_type stays approximate. The earlier accuracy_caveat said 'no source found calls this site former Pier 64'; that is superseded: the same City document says 'Pier 64, where the project area is located' (PDF p. 60) and that the project 'is called Pier 64\u00bd in the plan documents' (PDF p. 40). Previous accuracy_caveat: 'APPROXIMATE -- a coarse placeholder box, not a traced footprint, for the same reasons as the Piers 68 & 70 Dry Docks record (no parcel, no source figure). Primary sources describe the site only as 'adjacent to the intersection of Terry A. Francois Boulevard and 16th Street... adjacent to Agua Vista Park' -- no source found calls this site 'former Pier 64' (a distinct, still-separate 'Pier 64 Sediment Cleanup' line item appears in the Port's own draft Five-Year CIP), so this box is NOT placed at Pier 64 and that claim is not repeated in this record. The box does not represent the real ferry landing's true shape (a floating dock projecting into the Bay plus upland improvements) or its full extent.'. Previous coordinates: [[[-122.3842, 37.7658], [-122.3842, 37.7664], [-122.3834, 37.7664], [-122.3834, 37.7658], [-122.3842, 37.7658]]]. 2026-10-10 (same day, after check_geometry_quality.py --strict flagged a 35 m2 overlap with 'Bayfront Park (Mission Bay)'): trimmed the Ferry Landing's landward end back to Bayfront Park's real OpenStreetMap boundary (shape.difference of the park polygon, largest piece kept), the same pattern used to trim Mission Creek Park against the pump station parcel. The park polygon is the higher-confidence geometry and is untouched; the drawn ramp starts at the park's edge, and the real connection to shore is a few metres of the original corner. Water Taxi Landing unchanged. Coordinates before this trim: [[[[-122.385361, 37.766701], [-122.385747, 37.766857], [-122.385778, 37.766798], [-122.385392, 37.766652], [-122.385384, 37.766665], [-122.385169, 37.766574], [-122.385187, 37.766533], [-122.384787, 37.766381], [-122.38474, 37.766487], [-122.38514, 37.766639], [-122.385158, 37.766599], [-122.385369, 37.766689], [-122.385361, 37.766701]]], [[[-122.386134, 37.765937], [-122.386194, 37.765958], [-122.386207, 37.765933], [-122.386147, 37.765911], [-122.386145, 37.765916], [-122.38592, 37.765841], [-122.385925, 37.765832], [-122.385721, 37.765763], [-122.385699, 37.765799], [-122.385906, 37.765866], [-122.385911, 37.765857], [-122.386137, 37.765932], [-122.386134, 37.765937]]]].",
        "source_doc_urls": [
          "https://www.sfport.com/projects-programs/mission-bay-ferry-landing",
          "https://www.sfcta.org/blogs/98-million-sales-tax-funds-approved-support-downtown-revitalization-caltrain-station-ada",
          "https://www.sfcta.org/sites/default/files/2024-06/EP%2012%20Mission%20Bay%20Ferry%20Landing%20Prop%20L%202023%205YPP%20Approved%206.25.24.pdf",
          "https://sfmea.sfplanning.org/Mission%20Bay%20Ferry_Final%20MND_061818.pdf"
        ]
      },
      "geometry": {
        "type": "MultiPolygon",
        "coordinates": [[[[-122.385361, 37.766701], [-122.385369, 37.766689], [-122.385158, 37.766599], [-122.38514, 37.766639], [-122.38474, 37.766487], [-122.384787, 37.766381], [-122.385187, 37.766533], [-122.385169, 37.766574], [-122.385384, 37.766665], [-122.385392, 37.766652], [-122.385729, 37.766779], [-122.385693, 37.766835], [-122.385361, 37.766701]]], [[[-122.386137, 37.765932], [-122.385911, 37.765857], [-122.385906, 37.765866], [-122.385699, 37.765799], [-122.385721, 37.765763], [-122.385925, 37.765832], [-122.38592, 37.765841], [-122.386145, 37.765916], [-122.386147, 37.765911], [-122.386207, 37.765933], [-122.386194, 37.765958], [-122.386134, 37.765937], [-122.386137, 37.765932]]]]
      }
    }
  ]
}
