{
  "type": "FeatureCollection",
  "features": [
    {
      "type": "Feature",
      "properties": {
        "project_name": "Venue",
        "site": "Mission Bay South",
        "status": "complete",
        "use": "residential",
        "geometry_type": "real",
        "digitized_from": "DataSF Building Footprints (mblr SF8711025); name/address from OpenStreetMap way 255652150 (1155 4th St)",
        "digitization_method": "ADDED 2026-09-19 for Mission Bay's third real-buildings pass (remaining uncovered footprints inside the official Mission Bay North/South redevelopment-area boundary): Venue, a studio-to-two-bedroom apartment building at 1155 4th St (Mission Rock & 4th), managed by Sares Regis Management. 2026-09-29 accuracy audit: the Edwin M. Lee Apartments description in accuracy_caveat and notes now cites SF YIMBY (May 9, 2021; 118 units, about 123,700 sq ft, 62 veteran and 56 family units, 1150 3rd St) instead of the earlier unsourced 124,000 sq ft figure; neither RentCafe nor OSM mentions that building. The studio-to-two-bedroom unit mix and the Sares Regis Management attribution above come from the RentCafe listing, which returned 403 when re-checked, so they have not been re-confirmed; the 1155 4th St address itself is verified by OSM and DBI permit 201108041792. 2026-10-02: public-text pass. accuracy_caveat, notes reworded for readers (meaning unchanged; no change to the shape, status, use or geometry_type); previous wording -- accuracy_caveat: 'REAL -- surveyed DataSF Building Footprints outline (mblr SF8711025), cross-referenced by position against an OpenStreetMap building/address point (way 255652150) for the name and street address; not a hand trace or plan estimate. The real, notable Edwin M. Lee Apartments (per SF YIMBY, May 2021: 118 units, about 123,700 sq ft, 62 units for formerly unhoused veterans and 56 for families, at 1150 3rd St, one block away) was investigated for this pass but its address point sits ~37m (our own measurement) from this footprint's edge -- close enough to be the nearest available DataSF footprint, but not confidently its own separate outline in the building-footprint data checked. Left out rather than guessed; a future pass should re-check with a dedicated satellite/plan comparison.'; notes: 'The real, notable Edwin M. Lee Apartments (per SF YIMBY, May 2021: 118 units, about 123,700 sq ft, 62 units for formerly unhoused veterans and 56 for families, at 1150 3rd St, one block away) was investigated for this pass but its address point sits ~37m (our own measurement) from this footprint's edge -- close enough to be the nearest available DataSF footprint, but not confidently its own separate outline in the building-footprint data checked. Left out rather than guessed; a future pass should re-check with a dedicated satellite/plan comparison.'.",
        "accuracy_caveat": "REAL -- surveyed DataSF Building Footprints outline (mblr SF8711025), cross-referenced by position against an OpenStreetMap building/address point (way 255652150) for the name and street address; not a hand trace or plan estimate. The real, notable Edwin M. Lee Apartments (per SF YIMBY, May 2021: 118 units, about 123,700 sq ft, 62 units for formerly unhoused veterans and 56 for families, at 1150 3rd St, one block away) was investigated for this record but its address point sits ~37m (our own measurement) from this footprint's edge -- close enough to be the nearest available DataSF footprint, but not confidently its own separate outline in the building-footprint data checked. Left out rather than guessed; it should be re-checked with a dedicated satellite/plan comparison.",
        "notes": "The real, notable Edwin M. Lee Apartments (per SF YIMBY, May 2021: 118 units, about 123,700 sq ft, 62 units for formerly unhoused veterans and 56 for families, at 1150 3rd St, one block away) was investigated for this record but its address point sits ~37m (our own measurement) from this footprint's edge -- close enough to be the nearest available DataSF footprint, but not confidently its own separate outline in the building-footprint data checked. Left out rather than guessed; it should be re-checked with a dedicated satellite/plan comparison.",
        "source_doc_urls": [
          "https://www.rentcafe.com/apartments/ca/san-francisco/venue-0/default.aspx",
          "https://www.openstreetmap.org/way/255652150",
          "https://sfyimby.com/2021/05/new-affordable-housing-reaches-completion-at-1150-3rd-street-mission-bay-san-francisco.html"
        ]
      },
      "geometry": {
        "type": "Polygon",
        "coordinates": [
          [
            [
              -122.3905828,
              37.7729565
            ],
            [
              -122.3912658,
              37.7729161
            ],
            [
              -122.3912863,
              37.773117
            ],
            [
              -122.3912665,
              37.7731163
            ],
            [
              -122.3912728,
              37.7731592
            ],
            [
              -122.3912998,
              37.7731564
            ],
            [
              -122.3913267,
              37.7733409
            ],
            [
              -122.3913078,
              37.7733452
            ],
            [
              -122.3913087,
              37.7733709
            ],
            [
              -122.391333,
              37.7733702
            ],
            [
              -122.3913536,
              37.773559
            ],
            [
              -122.391231,
              37.773564
            ],
            [
              -122.3912257,
              37.7735339
            ],
            [
              -122.3911797,
              37.7735354
            ],
            [
              -122.3911815,
              37.7735675
            ],
            [
              -122.3911355,
              37.7735697
            ],
            [
              -122.3911319,
              37.7735561
            ],
            [
              -122.3910824,
              37.7735589
            ],
            [
              -122.3910797,
              37.7735446
            ],
            [
              -122.3910391,
              37.773546
            ],
            [
              -122.39104,
              37.7735653
            ],
            [
              -122.3910427,
              37.7735746
            ],
            [
              -122.3910004,
              37.7735775
            ],
            [
              -122.3909986,
              37.7735682
            ],
            [
              -122.390949,
              37.7735731
            ],
            [
              -122.390949,
              37.773551
            ],
            [
              -122.3909094,
              37.7735531
            ],
            [
              -122.3909139,
              37.7735846
            ],
            [
              -122.3908598,
              37.7735888
            ],
            [
              -122.3908571,
              37.7735731
            ],
            [
              -122.390813,
              37.7735759
            ],
            [
              -122.3908112,
              37.7735588
            ],
            [
              -122.390768,
              37.7735609
            ],
            [
              -122.3907715,
              37.7735888
            ],
            [
              -122.3907364,
              37.7735909
            ],
            [
              -122.3907346,
              37.7735845
            ],
            [
              -122.3906787,
              37.7735866
            ],
            [
              -122.3906779,
              37.7735687
            ],
            [
              -122.39064,
              37.7735716
            ],
            [
              -122.3906203,
              37.7733735
            ],
            [
              -122.3906025,
              37.7731746
            ],
            [
              -122.3905828,
              37.7729565
            ]
          ]
        ]
      }
    }
  ]
}
