{
  "type": "FeatureCollection",
  "features": [
    {
      "type": "Feature",
      "properties": {
        "project_name": "Crescent Cove",
        "site": "Mission Bay North",
        "status": "complete",
        "use": "residential",
        "geometry_type": "real",
        "digitized_from": "DataSF Building Footprints (mblr SF8703006); name/address from OpenStreetMap way 288672372 (420 Berry St)",
        "digitization_method": "ADDED 2026-09-19 for Mission Bay's third real-buildings pass (remaining uncovered footprints inside the official Mission Bay North/South redevelopment-area boundary): Crescent Cove, a 236-unit affordable apartment complex (up to 60% AMI) at 420 Berry St next to Mission Creek Park, developed by Related Companies and Chinatown Community Development Center, designed by David Baker & Associates to follow the curve of the Caltrain tracks; sold to a SoCal investor in 2022 per The Real Deal, which places its original completion in the 2000s (exact year not independently confirmed).",
        "accuracy_caveat": "REAL -- surveyed DataSF Building Footprints outline (mblr SF8703006), cross-referenced by position against an OpenStreetMap building/address point (way 288672372) for the name and street address; not a hand trace or plan estimate. Exact completion year not confirmed by a primary source in this pass; secondary sources place it in the mid-to-late 2000s.",
        "notes": "Exact completion year not confirmed by a primary source in this pass; secondary sources place it in the mid-to-late 2000s.",
        "source_doc_urls": [
          "https://therealdeal.com/sanfrancisco/2022/05/31/socal-investor-buys-236-unit-affordable-complex-in-sfs-mission-bay/",
          "https://www.dbarchitect.com/projects/crescent-cove",
          "https://www.openstreetmap.org/way/288672372"
        ]
      },
      "geometry": {
        "type": "Polygon",
        "coordinates": [
          [
            [
              -122.3992197,
              37.7717845
            ],
            [
              -122.3992066,
              37.7717926
            ],
            [
              -122.3992336,
              37.7718214
            ],
            [
              -122.3992491,
              37.7718124
            ],
            [
              -122.3992941,
              37.7718616
            ],
            [
              -122.3992941,
              37.7718617
            ],
            [
              -122.3992794,
              37.7718701
            ],
            [
              -122.3993221,
              37.7719155
            ],
            [
              -122.3993221,
              37.7719156
            ],
            [
              -122.3992442,
              37.7719605
            ],
            [
              -122.3992604,
              37.7719791
            ],
            [
              -122.3992604,
              37.7719791
            ],
            [
              -122.3992056,
              37.772013
            ],
            [
              -122.3991865,
              37.7719949
            ],
            [
              -122.3991469,
              37.7720184
            ],
            [
              -122.3991236,
              37.771994
            ],
            [
              -122.3991066,
              37.7720041
            ],
            [
              -122.3990618,
              37.7719568
            ],
            [
              -122.3990618,
              37.7719568
            ],
            [
              -122.3990787,
              37.7719467
            ],
            [
              -122.3990316,
              37.7718972
            ],
            [
              -122.3990133,
              37.7719082
            ],
            [
              -122.3989685,
              37.7718609
            ],
            [
              -122.3989685,
              37.7718609
            ],
            [
              -122.3989867,
              37.77185
            ],
            [
              -122.3989639,
              37.7718261
            ],
            [
              -122.3989442,
              37.771837
            ],
            [
              -122.3989227,
              37.7718123
            ],
            [
              -122.3989227,
              37.7718123
            ],
            [
              -122.3989411,
              37.7718021
            ],
            [
              -122.3988753,
              37.7717329
            ],
            [
              -122.3988719,
              37.77173
            ],
            [
              -122.3988601,
              37.7717193
            ],
            [
              -122.3987723,
              37.7717884
            ],
            [
              -122.39879,
              37.7718481
            ],
            [
              -122.3988902,
              37.7718307
            ],
            [
              -122.3989061,
              37.7718874
            ],
            [
              -122.3989234,
              37.771884
            ],
            [
              -122.3989415,
              37.7719411
            ],
            [
              -122.3989415,
              37.7719411
            ],
            [
              -122.3989222,
              37.771945
            ],
            [
              -122.3989315,
              37.7719782
            ],
            [
              -122.3989468,
              37.7719752
            ],
            [
              -122.3989468,
              37.7719752
            ],
            [
              -122.3989649,
              37.7720323
            ],
            [
              -122.3989649,
              37.7720323
            ],
            [
              -122.3989476,
              37.7720358
            ],
            [
              -122.3989647,
              37.772097
            ],
            [
              -122.3989851,
              37.772093
            ],
            [
              -122.3990032,
              37.7721501
            ],
            [
              -122.3990032,
              37.7721501
            ],
            [
              -122.3989809,
              37.7721546
            ],
            [
              -122.3989968,
              37.7722115
            ],
            [
              -122.3989968,
              37.7722115
            ],
            [
              -122.3988941,
              37.7722299
            ],
            [
              -122.398886,
              37.772201
            ],
            [
              -122.398858,
              37.7721937
            ],
            [
              -122.3988393,
              37.7721888
            ],
            [
              -122.398834,
              37.7721932
            ],
            [
              -122.3987896,
              37.7721577
            ],
            [
              -122.3987896,
              37.7721576
            ],
            [
              -122.398835,
              37.7721222
            ],
            [
              -122.3988375,
              37.7721219
            ],
            [
              -122.3988332,
              37.7721063
            ],
            [
              -122.3987406,
              37.7721236
            ],
            [
              -122.3987256,
              37.772073
            ],
            [
              -122.3987204,
              37.7720739
            ],
            [
              -122.3987011,
              37.7720067
            ],
            [
              -122.3987011,
              37.7720067
            ],
            [
              -122.3987064,
              37.7720057
            ],
            [
              -122.3986897,
              37.7719492
            ],
            [
              -122.3986824,
              37.7719506
            ],
            [
              -122.3986631,
              37.7718834
            ],
            [
              -122.3986631,
              37.7718834
            ],
            [
              -122.3986699,
              37.7718822
            ],
            [
              -122.3986554,
              37.771833
            ],
            [
              -122.3986554,
              37.7718329
            ],
            [
              -122.3987536,
              37.7718142
            ],
            [
              -122.3987442,
              37.7717798
            ],
            [
              -122.3987442,
              37.7717797
            ],
            [
              -122.3987506,
              37.7717746
            ],
            [
              -122.3986806,
              37.7717184
            ],
            [
              -122.3986806,
              37.7717183
            ],
            [
              -122.3987259,
              37.7716827
            ],
            [
              -122.3987207,
              37.7716784
            ],
            [
              -122.3987548,
              37.7716519
            ],
            [
              -122.3987584,
              37.7716549
            ],
            [
              -122.398819,
              37.7716073
            ],
            [
              -122.3988153,
              37.7716043
            ],
            [
              -122.3988153,
              37.7716043
            ],
            [
              -122.3988637,
              37.7715649
            ],
            [
              -122.3988683,
              37.7715687
            ],
            [
              -122.3988685,
              37.7715686
            ],
            [
              -122.398903,
              37.7715415
            ],
            [
              -122.3989216,
              37.7715269
            ],
            [
              -122.3989175,
              37.7715235
            ],
            [
              -122.3989502,
              37.7714973
            ],
            [
              -122.3989776,
              37.7715201
            ],
            [
              -122.3990442,
              37.7714677
            ],
            [
              -122.3990199,
              37.7714483
            ],
            [
              -122.3990199,
              37.7714482
            ],
            [
              -122.3990824,
              37.7713991
            ],
            [
              -122.3990794,
              37.7713966
            ],
            [
              -122.3990794,
              37.7713966
            ],
            [
              -122.3991278,
              37.7713573
            ],
            [
              -122.3991309,
              37.7713598
            ],
            [
              -122.3991817,
              37.7713194
            ],
            [
              -122.399179,
              37.7713171
            ],
            [
              -122.3992131,
              37.7712907
            ],
            [
              -122.3992424,
              37.7713147
            ],
            [
              -122.3992395,
              37.7713169
            ],
            [
              -122.3992815,
              37.7713524
            ],
            [
              -122.3993122,
              37.7713289
            ],
            [
              -122.3992704,
              37.7712951
            ],
            [
              -122.3992689,
              37.7712962
            ],
            [
              -122.3992375,
              37.7712701
            ],
            [
              -122.3992717,
              37.7712436
            ],
            [
              -122.3992755,
              37.7712468
            ],
            [
              -122.399325,
              37.7712076
            ],
            [
              -122.3993202,
              37.7712037
            ],
            [
              -122.3993202,
              37.7712037
            ],
            [
              -122.3993781,
              37.7711587
            ],
            [
              -122.3993816,
              37.7711616
            ],
            [
              -122.3994066,
              37.7711418
            ],
            [
              -122.3994027,
              37.7711386
            ],
            [
              -122.3994369,
              37.7711122
            ],
            [
              -122.3994404,
              37.771115
            ],
            [
              -122.3994859,
              37.771079
            ],
            [
              -122.3995623,
              37.7711403
            ],
            [
              -122.3995623,
              37.7711404
            ],
            [
              -122.3995033,
              37.7711871
            ],
            [
              -122.3995148,
              37.7711964
            ],
            [
              -122.3995349,
              37.7711793
            ],
            [
              -122.3995365,
              37.7711805
            ],
            [
              -122.39955,
              37.7711688
            ],
            [
              -122.3995772,
              37.7711895
            ],
            [
              -122.3995772,
              37.7711896
            ],
            [
              -122.3995644,
              37.7712007
            ],
            [
              -122.3995914,
              37.7712204
            ],
            [
              -122.3995914,
              37.7712204
            ],
            [
              -122.3995686,
              37.7712398
            ],
            [
              -122.3995897,
              37.7712568
            ],
            [
              -122.3995897,
              37.7712568
            ],
            [
              -122.3995431,
              37.771295
            ],
            [
              -122.3995343,
              37.7712888
            ],
            [
              -122.399523,
              37.7712984
            ],
            [
              -122.3995916,
              37.7713489
            ],
            [
              -122.3995916,
              37.771349
            ],
            [
              -122.3995215,
              37.7714108
            ],
            [
              -122.3994665,
              37.7713703
            ],
            [
              -122.3994536,
              37.7713812
            ],
            [
              -122.3993992,
              37.7713406
            ],
            [
              -122.3993992,
              37.7713405
            ],
            [
              -122.3994118,
              37.7713299
            ],
            [
              -122.3993829,
              37.7713087
            ],
            [
              -122.399292,
              37.7713816
            ],
            [
              -122.3993214,
              37.7714
            ],
            [
              -122.3993334,
              37.7713881
            ],
            [
              -122.3993922,
              37.7714254
            ],
            [
              -122.3993922,
              37.7714255
            ],
            [
              -122.3993806,
              37.771437
            ],
            [
              -122.3994151,
              37.7714587
            ],
            [
              -122.3994271,
              37.7714461
            ],
            [
              -122.3994874,
              37.7714822
            ],
            [
              -122.3994874,
              37.7714823
            ],
            [
              -122.3994745,
              37.7714958
            ],
            [
              -122.399534,
              37.7715329
            ],
            [
              -122.399534,
              37.771533
            ],
            [
              -122.3994863,
              37.7715804
            ],
            [
              -122.399513,
              37.7715967
            ],
            [
              -122.399528,
              37.7715801
            ],
            [
              -122.3995548,
              37.7715938
            ],
            [
              -122.3995548,
              37.7715939
            ],
            [
              -122.3995108,
              37.7716392
            ],
            [
              -122.3995216,
              37.7716459
            ],
            [
              -122.3995216,
              37.771646
            ],
            [
              -122.3994579,
              37.7717107
            ],
            [
              -122.3993994,
              37.771674
            ],
            [
              -122.3993886,
              37.7716853
            ],
            [
              -122.3993286,
              37.771649
            ],
            [
              -122.3993285,
              37.771649
            ],
            [
              -122.3993401,
              37.7716369
            ],
            [
              -122.3993058,
              37.7716154
            ],
            [
              -122.3992945,
              37.7716272
            ],
            [
              -122.3992345,
              37.7715909
            ],
            [
              -122.3992345,
              37.7715909
            ],
            [
              -122.3992466,
              37.7715783
            ],
            [
              -122.3992136,
              37.7715576
            ],
            [
              -122.3992048,
              37.7715669
            ],
            [
              -122.3991749,
              37.7715506
            ],
            [
              -122.3991749,
              37.7715506
            ],
            [
              -122.3991852,
              37.7715398
            ],
            [
              -122.3991831,
              37.7715385
            ],
            [
              -122.3991831,
              37.7715385
            ],
            [
              -122.399189,
              37.7715324
            ],
            [
              -122.3991443,
              37.7715057
            ],
            [
              -122.3990579,
              37.7715768
            ],
            [
              -122.3990843,
              37.7716031
            ],
            [
              -122.3990843,
              37.7716031
            ],
            [
              -122.3990682,
              37.7716128
            ],
            [
              -122.3992048,
              37.7717567
            ],
            [
              -122.3991967,
              37.7717615
            ],
            [
              -122.3992197,
              37.7717845
            ],
            [
              -122.3992197,
              37.7717845
            ]
          ]
        ]
      }
    }
  ]
}
