{
  "type": "FeatureCollection",
  "features": [
    {
      "type": "Feature",
      "properties": {
        "project_name": "P26 -- landscaped wedge (16th/3rd/Owens St interchange)",
        "site": "Mission Bay South",
        "status": "complete",
        "use": "park",
        "geometry_type": "approximate",
        "digitized_from": "Real-gap-fragment technique: bbox.difference(street buffer).difference(already-tracked polygons) near the UCSF Medical Center campus. The owner reviewed the numbered fragment map and picked fragment 49 as P26's real extent, then directed a further cut: the fragment forks into two thin parallel strips (~13-21m wide, running north alongside a building courtyard) above a wider single base (up to 46m wide) -- keep the base, drop both forks.",
        "digitization_method": "ADDED 2026-09-20: the owner corrected the prior resolution (which had P26 'absorbed into the hospital's own footprint, not a separate parcel') using the numbered real-gap-fragment technique. Fragment 49 (a landscaped wedge between the I-280 ramps/curve near 16th St, 3rd St and Owens St, 4,384 sqm raw) forks above a widening base into two thin parallel strips flanking a walkway toward the UCSF building courtyard to the north -- found via a width-cross-section scan (nseg=2 for a wide latitude band, meaning two separate boundary crossings = two parallel arms) rather than eyeballed. Cut at the fork (lat 37.76495, where the cross-section width drops from a single 46m span to two separate ~17m arms) and kept only the single-segment base south of it, per the owner's 'keep the head, drop the horns' instruction. Result: 2,037 sqm triangular landscaped wedge in the freeway-ramp interchange.",
        "accuracy_caveat": "APPROXIMATE -- real landscaped/grassed land per Esri satellite imagery and the street/already-tracked-polygon-bounded gap computation, not a surveyed footprint or named park record. Name and operator (likely SFMTA/Caltrans ramp landscaping or an OCII-era open-space installation, matching its P26 plan designation) not confirmed by any source found in this pass.",
        "notes": "OCII plan open-space parcel P26. A small landscaped wedge in the freeway on/off-ramp interchange near 16th St/3rd St/Owens St, just west of the UCSF Medical Center campus.",
        "source_doc_urls": []
      },
      "geometry": {
        "type": "Polygon",
        "coordinates": [
          [
            [
              -122.39286207038757,
              37.76495
            ],
            [
              -122.392860834,
              37.764947741
            ],
            [
              -122.392855221,
              37.764937429
            ],
            [
              -122.392849631,
              37.764927109
            ],
            [
              -122.392844068,
              37.764916781
            ],
            [
              -122.392838529,
              37.764906443
            ],
            [
              -122.392833016,
              37.764896098
            ],
            [
              -122.392827528,
              37.764885744
            ],
            [
              -122.392822064,
              37.764875382
            ],
            [
              -122.392816627,
              37.764865011
            ],
            [
              -122.392678093,
              37.764873359
            ],
            [
              -122.392477846,
              37.764885426
            ],
            [
              -122.39248402041014,
              37.76495
            ],
            [
              -122.3924585511658,
              37.76495
            ],
            [
              -122.392454672,
              37.764860647
            ],
            [
              -122.392467659,
              37.764653325
            ],
            [
              -122.392517591,
              37.764327361
            ],
            [
              -122.392561837,
              37.764218807
            ],
            [
              -122.392563814,
              37.764213187
            ],
            [
              -122.392565234,
              37.764207401
            ],
            [
              -122.392566084,
              37.764201504
            ],
            [
              -122.392566355,
              37.764195552
            ],
            [
              -122.392566045,
              37.764189603
            ],
            [
              -122.392565157,
              37.764183711
            ],
            [
              -122.39256056661043,
              37.76416087929345
            ],
            [
              -122.39256733363361,
              37.76416045810164
            ],
            [
              -122.39259262,
              37.764241842
            ],
            [
              -122.392594437,
              37.764246895
            ],
            [
              -122.392596691,
              37.764251769
            ],
            [
              -122.392599364,
              37.764256427
            ],
            [
              -122.392952733,
              37.764813784
            ],
            [
              -122.39303216376958,
              37.76495
            ],
            [
              -122.39286207038757,
              37.76495
            ]
          ]
        ]
      }
    }
  ]
}