{
  "type": "FeatureCollection",
  "features": [
    {
      "type": "Feature",
      "properties": {
        "project_name": "1180 Fourth Street",
        "site": "Mission Bay South",
        "status": "complete",
        "use": "residential",
        "geometry_type": "real",
        "digitized_from": "DataSF Building Footprints (mblr SF8711014); address confirmed via DataSF Assessor parcel data (blklot 8711501) and architect/press project pages (no OSM name/address tag found on this footprint)",
        "digitization_method": "ADDED 2026-09-19 for Mission Bay's block-by-block reconciliation pass, cross-checking OCII's own numbered Land Use Map (Dec 2019, data/manual/_reference/mission_bay_land_use_map_2019.png) against everything already tracked: 1180 Fourth Street, a 150-unit affordable housing development (50 units for formerly homeless residents) on a full city block, designed by Kennerly Architecture & Planning with Mithun|Solomon and Full Circle Architecture, opened 2015; 216,000 sq ft with ground-floor retail along 4th St and a mid-block courtyard.",
        "accuracy_caveat": "REAL -- surveyed DataSF Building Footprints outline (mblr SF8711014), address confirmed via DataSF Assessor parcel data (blklot 8711501) and architect/press project pages (no OSM name/address tag found on this footprint); not a hand trace or plan estimate. No OSM building/name tag found on this footprint; address and history confirmed via architect project pages and press coverage instead.",
        "notes": "No OSM building/name tag found on this footprint; address and history confirmed via architect project pages and press coverage instead.",
        "source_doc_urls": [
          "https://casestudies.uli.org/1180-fourth-street/",
          "https://mithun.com/project/1180-fourth-street/",
          "https://www.dezeen.com/2016/07/21/1180-fourth-street-san-francisco-low-cost-housing-mithun-solomon-kennerly-architecture-planning-full-circle/"
        ]
      },
      "geometry": {
        "type": "Polygon",
        "coordinates": [
          [
            [
              -122.3916577,
              37.7739487
            ],
            [
              -122.3916472,
              37.7739487
            ],
            [
              -122.3916306,
              37.7738805
            ],
            [
              -122.3915948,
              37.7735535
            ],
            [
              -122.3916098,
              37.7735501
            ],
            [
              -122.3916075,
              37.7735349
            ],
            [
              -122.3915876,
              37.7735325
            ],
            [
              -122.3915756,
              37.7735291
            ],
            [
              -122.3915696,
              37.7735215
            ],
            [
              -122.3915678,
              37.773512
            ],
            [
              -122.391572,
              37.7735048
            ],
            [
              -122.3915817,
              37.7734958
            ],
            [
              -122.391902,
              37.7732356
            ],
            [
              -122.3921295,
              37.7730573
            ],
            [
              -122.3926194,
              37.7734483
            ],
            [
              -122.3921913,
              37.7737841
            ],
            [
              -122.3921887,
              37.7737877
            ],
            [
              -122.3921818,
              37.7737934
            ],
            [
              -122.392192,
              37.7738037
            ],
            [
              -122.3921871,
              37.7738066
            ],
            [
              -122.3918303,
              37.7740877
            ],
            [
              -122.3916868,
              37.7741782
            ],
            [
              -122.3916329,
              37.7739755
            ],
            [
              -122.3916615,
              37.7739726
            ],
            [
              -122.3916577,
              37.7739487
            ]
          ],
          [
            [
              -122.3922145,
              37.773274
            ],
            [
              -122.3918287,
              37.773578
            ],
            [
              -122.3918839,
              37.7736228
            ],
            [
              -122.3918166,
              37.7736743
            ],
            [
              -122.3919055,
              37.773742
            ],
            [
              -122.3918369,
              37.7737925
            ],
            [
              -122.3919222,
              37.7738479
            ],
            [
              -122.3920678,
              37.7737278
            ],
            [
              -122.3920752,
              37.7737218
            ],
            [
              -122.3920773,
              37.7737207
            ],
            [
              -122.3920052,
              37.773662
            ],
            [
              -122.3923502,
              37.7733828
            ],
            [
              -122.3922145,
              37.773274
            ]
          ]
        ]
      }
    }
  ]
}
