{
  "type": "FeatureCollection",
  "features": [
    {
      "type": "Feature",
      "properties": {
        "project_name": "UCSF Wayne and Gladys Valley Center for Vision",
        "site": "Mission Bay South",
        "status": "complete",
        "use": "institutional",
        "geometry_type": "real",
        "digitized_from": "DataSF Building Footprints (mblr SF3940003); name/address from OpenStreetMap way 84821715 (490 Illinois St)",
        "digitization_method": "ADDED 2026-09-19 for Mission Bay's block-by-block reconciliation pass, cross-checking OCII's own numbered Land Use Map (Dec 2019, data/manual/_reference/mission_bay_land_use_map_2019.png) against everything already tracked: The UCSF Wayne and Gladys Valley Center for Vision at 490 Illinois St: a 12-story tower with a 5-story south wing and a garden-topped 3-story north wing, ~75,000 sq ft of parking for 200+ vehicles, opened 2020, construction cost reported at ~$237M.",
        "accuracy_caveat": "REAL -- surveyed DataSF Building Footprints outline (mblr SF3940003), name/address from OpenStreetMap way 84821715 (490 Illinois St); not a hand trace or plan estimate. This building's DataSF footprint shares its mblr (SF3940003) with the adjacent 499 Illinois St building (below) -- both address points fall on the same Assessor block-lot pairing in the source data, consistent with the two being described as a connected campus (409-499 Illinois) in commercial listings, but the two footprints themselves are geometrically distinct pieces, used here as separate records since they carry separate names, addresses, and OSM tags.",
        "notes": "This building's DataSF footprint shares its mblr (SF3940003) with the adjacent 499 Illinois St building (below) -- both address points fall on the same Assessor block-lot pairing in the source data, consistent with the two being described as a connected campus (409-499 Illinois) in commercial listings, but the two footprints themselves are geometrically distinct pieces, used here as separate records since they carry separate names, addresses, and OSM tags.",
        "source_doc_urls": [
          "https://sfyimby.com/2020/11/ucsf-opens-medical-facility-at-490-illinois-street-mission-bay-san-francisco.html",
          "https://www.openstreetmap.org/way/84821715"
        ]
      },
      "geometry": {
        "type": "Polygon",
        "coordinates": [
          [
            [
              -122.3874961,
              37.7663523
            ],
            [
              -122.3874939,
              37.7663161
            ],
            [
              -122.3874939,
              37.766316
            ],
            [
              -122.3879455,
              37.7662924
            ],
            [
              -122.3879483,
              37.7663261
            ],
            [
              -122.3879486,
              37.766326
            ],
            [
              -122.3879487,
              37.7663262
            ],
            [
              -122.3879492,
              37.7663323
            ],
            [
              -122.3879488,
              37.7663324
            ],
            [
              -122.3879491,
              37.7663353
            ],
            [
              -122.3879477,
              37.7663353
            ],
            [
              -122.3879479,
              37.7663378
            ],
            [
              -122.3879784,
              37.7663352
            ],
            [
              -122.3879784,
              37.7663353
            ],
            [
              -122.3880283,
              37.766849
            ],
            [
              -122.3875511,
              37.7668782
            ],
            [
              -122.387551,
              37.7668781
            ],
            [
              -122.3875499,
              37.7668575
            ],
            [
              -122.3873621,
              37.7668687
            ],
            [
              -122.3873618,
              37.7668896
            ],
            [
              -122.3871637,
              37.7669
            ],
            [
              -122.3871655,
              37.7669049
            ],
            [
              -122.3870968,
              37.766909
            ],
            [
              -122.3870967,
              37.7669089
            ],
            [
              -122.3870902,
              37.76689
            ],
            [
              -122.3870815,
              37.76689
            ],
            [
              -122.3870866,
              37.7669045
            ],
            [
              -122.3869483,
              37.7669117
            ],
            [
              -122.3869482,
              37.7669116
            ],
            [
              -122.3868606,
              37.7666566
            ],
            [
              -122.3869874,
              37.7666243
            ],
            [
              -122.386992,
              37.7666372
            ],
            [
              -122.3870026,
              37.7666351
            ],
            [
              -122.3869951,
              37.7666133
            ],
            [
              -122.3870521,
              37.766601
            ],
            [
              -122.3870521,
              37.7666011
            ],
            [
              -122.3870541,
              37.7666064
            ],
            [
              -122.3872169,
              37.7665632
            ],
            [
              -122.3875237,
              37.7665511
            ],
            [
              -122.3875087,
              37.7663583
            ],
            [
              -122.3874975,
              37.7663589
            ],
            [
              -122.3874974,
              37.7663585
            ],
            [
              -122.3874962,
              37.7663586
            ],
            [
              -122.3874961,
              37.7663585
            ],
            [
              -122.3874956,
              37.7663523
            ],
            [
              -122.3874961,
              37.7663523
            ]
          ]
        ]
      }
    }
  ]
}
