{
  "type": "FeatureCollection",
  "features": [
    {
      "type": "Feature",
      "properties": {
        "project_name": "Mission Creek Park Pavilion",
        "site": "Mission Bay South",
        "status": "complete",
        "use": "park",
        "geometry_type": "real",
        "digitized_from": "DataSF Building Footprints (mblr SF8710002); name/address from OpenStreetMap way 188854480 (290 Channel St)",
        "digitization_method": "ADDED 2026-09-19 for Mission Bay's third real-buildings pass (remaining uncovered footprints inside the official Mission Bay North/South redevelopment-area boundary): The Mission Creek Park Pavilion, an SF Recreation and Parks Department building at 290 Channel St within Mission Creek Park (12 acres), with floor-to-ceiling windows and two patios overlooking Mission Creek, available for caf\u00e9/recreational use; adjacent to the Channel Street Dog Park. Confirmed not to overlap the already-tracked Mission Creek Park boundary polygon (mission_bay_creek_park.geojson).",
        "accuracy_caveat": "REAL -- surveyed DataSF Building Footprints outline (mblr SF8710002), cross-referenced by position against an OpenStreetMap building/address point (way 188854480) for the name and street address; not a hand trace or plan estimate. ",
        "notes": "",
        "source_doc_urls": [
          "https://sfrecpark.org/1704/Mission-Creek-Park-Pavilion",
          "https://missionbayparks.com/venue/mission-creek-park-pavilion/",
          "https://www.openstreetmap.org/way/188854480"
        ]
      },
      "geometry": {
        "type": "Polygon",
        "coordinates": [
          [
            [
              -122.3936057,
              37.7730479
            ],
            [
              -122.3936183,
              37.7730579
            ],
            [
              -122.3936729,
              37.7730123
            ],
            [
              -122.3938257,
              37.7731379
            ],
            [
              -122.3938257,
              37.7731386
            ],
            [
              -122.3936681,
              37.7732636
            ],
            [
              -122.3936044,
              37.7731995
            ],
            [
              -122.3936452,
              37.7731669
            ],
            [
              -122.3935497,
              37.7730915
            ],
            [
              -122.3936057,
              37.7730479
            ]
          ]
        ]
      }
    }
  ]
}
