{
 "type": "FeatureCollection",
 "features": [
  {
   "type": "Feature",
   "properties": {
    "project_name": "Parklab Gardens & Mission Bay Commons (interim, west)",
    "site": "Mission Bay South",
    "status": "existing",
    "use": "park",
    "geometry_type": "real",
    "digitized_from": "OpenStreetMap (way 446183018, leisure=park, name=Parklab, parklab.com)",
    "digitization_method": "ADDED 2026-09-18 for Mission Bay's real-site pass: real, community-surveyed OpenStreetMap boundary (way 446183018), the same pattern already used for Pier 70's Crane Cove Park (data/manual/pier70_crane_cove_park.geojson) -- not a hand trace or plan-diagram estimate. MEDIUM CONFIDENCE -- real, community-surveyed OSM polygon for the current interim installation (Parklab Gardens; the wider parcel also hosts Spark Social SF, Stagecoach Greens mini golf, Urban Sprouts community garden and an SFF soccer field per SF Rec & Park's own Future Parks Project page). Marked 'existing' rather than 'complete' because this is explicitly an interim use, not the plan's final build-out: OCII's Mission Bay Future Parks Project will redesign parcels P12/P13/P15 into a permanent, unified extension of the Commons (planning 2024-25, design mid-2026, construction targeted late 2028, public opening targeted early 2030). This feature traces only the Parklab Gardens sub-area, the most clearly-bounded of several interim uses on the same parcels -- a second pass could digitize the soccer-field/Stagecoach Greens portions separately. SOURCES ADDED 2026-09-23: the owner asked whether the P12/P13/P15 sources included SF Rec & Park's own community-workshop decks -- they didn't yet. Found and verified all three (each fetched directly, not just linked): Community Meeting #1 (Jun 2, 2024), #2 (Oct 29, 2024) and #3 (Apr 29, 2025, 83 pages) -- #3 has individually labeled concept-plan pages for P12, P13 and P15 (soccer pitches and outdoor fitness on P12; food trucks, outdoor dining and a pavilion on P15, matching Spark Social SF's current use of that parcel) plus an alternative option for P12. These are design-workshop concepts, not an adopted final plan -- the design team was only selected via an Aug 2025 OCII/MBDG RFQ, after Workshop 3. 2026-09-29 accuracy audit: corrections to the description above. (1) The sentence 'This feature traces only the Parklab Gardens sub-area' is wrong: the mapped polygon is OSM way 446183018 (leisure=park, name 'Parklab', about 14,665 sq m, roughly 420 m long), the whole Parklab park strip, which fully contains the Parklab Gardens way (437595662) and the Spark Social SF way (437591532). (2) P15's food-truck/outdoor-dining/pavilion concept does not match Spark Social SF's use: OCII's Nov 14, 2024 CAC update puts Spark Social SF on P13 and Parklab Gardens & Stagecoach Greens on P15. (3) 'The design team was only selected via an Aug 2025 OCII/MBDG RFQ' overstates it: SF Rec & Park's Future Parks page says an RFQ was released in early August 2025 and a design team 'should be selected by mid-October'; it does not report that a selection happened. (4) digitized_from now states the OSM tag as leisure=park (was leisure=garden). (5) The planning schedule is now stated as SF Rec & Park's page gives it (planning 2024-2025, design mid-2026); the Workshop 3 deck p.15 shows construction 'mid-2027 thru 2028'.",
    "accuracy_caveat": "MEDIUM CONFIDENCE -- real, community-surveyed OSM polygon for the current interim installation (Parklab Gardens; the wider parcel also hosts Spark Social SF, Stagecoach Greens mini golf, Urban Sprouts community garden and an SFF soccer field per SF Rec & Park's own Future Parks Project page). Marked 'existing' rather than 'complete' because this is explicitly an interim use, not the plan's final build-out: OCII's Mission Bay Future Parks Project will redesign parcels P12/P13/P15 into a permanent, unified extension of the Commons (planning 2024-25, design mid-2026, construction targeted late 2028, public opening targeted early 2030). This feature traces OSM way 446183018 (leisure=park, name 'Parklab', about 14,665 sq m and roughly 420 m long), the whole Parklab park strip: it fully contains the separately mapped Parklab Gardens way (437595662, about 2,212 sq m) and the Spark Social SF way (437591532, about 1,519 sq m), so it is not only the Parklab Gardens sub-area.",
    "p_number": "Likely corresponds to P12 (SFF Soccer + Fitness Court), P13 (Community Garden & SPARK Social SF) and/or P15 (Parklab Gardens & Stagecoach Greens) within OCII's 'Mission Bay Commons (P11, P12, P13, P15, P16, P17)' assemblage, since those three are the still-interim installations (P11/P16/P17 are the already-completed park build-outs, tracked separately as 'Mission Bay Commons' above). INFERRED from OCII's Nov 2024 CAC parcel-map update, not an explicit one-to-one match to this record's own real-mapped boundary. (https://sfocii.org/sites/default/files/2024-11/Item%205%20-%20Remaining%20Mission%20Bay%20Open%20Space%20Parcels%20Update.pdf)",
    "notes": "Interim open-space use on the future P12/P13/P15 parcels; will be rebuilt as part of the Mission Bay Future Parks Project. SF Rec & Park's project page gives planning 2024-2025, design mid-2026, construction beginning late 2028 and public opening early 2030; its Workshop 3 deck (p.15) shows construction 'mid-2027 thru 2028', so the schedules differ.",
    "source_doc_urls": [
     "https://www.openstreetmap.org/way/446183018",
     "https://www.parklab.com/",
     "https://sfrecpark.org/1832/Mission-Bay-Future-Parks-Project",
     "https://sfrecpark.org/DocumentCenter/View/25988/20240602-Workshop-1-Deck",
     "https://sfrecpark.org/DocumentCenter/View/25989/20241029-Presentation-Workshop-2",
     "https://sfrecpark.org/DocumentCenter/View/25986/20250429-PRESENTATION-Workshop-3"
    ]
   },
   "geometry": {
    "type": "Polygon",
    "coordinates": [
     [
      [
       -122.3897955,
       37.7710407
      ],
      [
       -122.3897363,
       37.7710337
      ],
      [
       -122.3897067,
       37.7710029
      ],
      [
       -122.3896979,
       37.7709112
      ],
      [
       -122.3896858,
       37.7707859
      ],
      [
       -122.3897164,
       37.7707516
      ],
      [
       -122.389747,
       37.7707173
      ],
      [
       -122.3903332,
       37.7706817
      ],
      [
       -122.3905941,
       37.7706658
      ],
      [
       -122.3910174,
       37.7706401
      ],
      [
       -122.3913669,
       37.77062
      ],
      [
       -122.3915561,
       37.7706085
      ],
      [
       -122.3918355,
       37.7705916
      ],
      [
       -122.3924995,
       37.7705512
      ],
      [
       -122.3926992,
       37.7705391
      ],
      [
       -122.3930236,
       37.7705247
      ],
      [
       -122.3942936,
       37.7704463
      ],
      [
       -122.394335,
       37.7704458
      ],
      [
       -122.3943749,
       37.7704554
      ],
      [
       -122.3944208,
       37.7704531
      ],
      [
       -122.3944437,
       37.7704688
      ],
      [
       -122.3944691,
       37.7707189
      ],
      [
       -122.3944683,
       37.770725
      ],
      [
       -122.3944661,
       37.7707307
      ],
      [
       -122.3944625,
       37.770735
      ],
      [
       -122.3944571,
       37.7707393
      ],
      [
       -122.3944308,
       37.7707537
      ],
      [
       -122.3943425,
       37.7707631
      ],
      [
       -122.3930994,
       37.7708392
      ],
      [
       -122.3930922,
       37.7708395
      ],
      [
       -122.3927979,
       37.7708431
      ],
      [
       -122.3925255,
       37.7708523
      ],
      [
       -122.3918666,
       37.7708933
      ],
      [
       -122.3915824,
       37.770911
      ],
      [
       -122.3913654,
       37.7709245
      ],
      [
       -122.3910477,
       37.7709646
      ],
      [
       -122.3910169,
       37.7709665
      ],
      [
       -122.3905034,
       37.7709977
      ],
      [
       -122.3904232,
       37.7710025
      ],
      [
       -122.3900217,
       37.7710269
      ],
      [
       -122.3897955,
       37.7710407
      ]
     ]
    ]
   }
  }
 ]
}