{
  "type": "FeatureCollection",
  "features": [
    {
      "type": "Feature",
      "properties": {
        "project_name": "Mission Creek Park South Extension -- P8 segment",
        "site": "Mission Bay South",
        "status": "planned",
        "use": "park",
        "geometry_type": "approximate",
        "digitized_from": "Hand-traced from satellite imagery (contextily/Esri World Imagery) against the currently-visible graded/disturbed extent, cross-checked against SF Recreation & Parks' own Mission Creek Park South Extension Project page and its Schematic Design document (P2 and P8, Feb 2022 CAC materials). UPDATED 2026-09-20: extended via a numbered real-gap-fragment technique -- bbox.difference(street buffer, src/street_geometry.py).difference(all already-tracked parcels/approx polygons) over the Mission Bay Circle roundabout area yielded ~68 disconnected candidate scraps of unclaimed real land; the owner picked a specific union by index while viewing a numbered map of all of them (fragments 4, 17, 34, 41, 18), a technique the owner asked to reuse for future ambiguous boundaries.",
        "digitization_method": "ADDED 2026-09-19 as 'P2 (meadow/community garden segment)' -- owner named this as a real, funded project while reviewing a zoomed map+drawing pair, researched and confirmed via SF Recreation & Parks' own project page (sfrecpark.org/1833) and schematic-design PDF (sfrecpark.org/DocumentCenter/View/25950). RELABELED 2026-09-20: this specific traced polygon is actually the P8 parcel, not P2 -- the owner clarified the overall scheme once P1 (data/manual/mission_bay_creek_park_p1_p3.geojson), P9 and P7 were resolved: P2 is the prolongation of P1 southwest along the creek, down to about where this polygon starts, and P8 takes over from there down toward the Mission Bay Circle roundabout (P9/P7 continue further south again). This polygon sits in that P8 stretch, immediately south of the already-tracked real 'Mission Creek Park' record's own south tip and north of P9/P7 -- not in the P2 stretch, which for now has no separate traced geometry of its own (see docs/briefs/mission_bay_block_inventory.csv's P2 row). The underlying trace, sourcing and street-buffer trim are otherwise unchanged from the original 2026-09-19 pass: traced against the visible graded/disturbed extent east of the I-280 viaduct, trimmed against src/street_geometry.py's real street buffer (22% of the raw hand-trace fell inside it), kept the largest resulting piece and simplified it (shapely simplify, tolerance 0.00001 deg). EXTENDED 2026-09-20: the owner, reviewing a wide real-street reference map with the already-traced P1 and the prior small P8 polygon shown for context, drew where P2 and P8 should actually run (P2 as the P1-to-roundabout prolongation along the creek/Channel St corridor, P8 taking over from the roundabout south/east under the freeway toward Berry St). For P8's freeway-interchange stretch, rather than trace the owner's freehand line directly, generated a numbered map of every disconnected real (street-buffer- and already-tracked-polygon-excluded) scrap of land in the area (68 candidates) and had the owner pick the exact union by index: the existing polygon above plus fragments 4, 17, 34, 41 and 18. Two follow-up trims per the owner: (1) fragment 18 is a ribbon-and-blob shape running along the west side of the interchange next to the Channel Pump Station (X1) -- found the natural waist of the ribbon by scanning cross-sectional width along its length (narrows to ~1.6m at lat 37.77020 before widening into the ~660 sqm south blob and separately into the north ribbon toward the creek) and cut there, keeping only the south blob per the owner's 'remove the thin ribbon going towards the creek'. (2) fragment 4 is a large, irregularly-shaped scrap whose own boundary already contains a straight diagonal edge (~52m + ~37m segments) exactly where it borders the interchange landscaping; fit a line through the north corners of fragments 34, 41 and 17 (all landscaped medians between freeway ramps that already terminate on that same real edge) -- the three points were colinear to within ~5e-8 deg, confirming it's one real physical edge, not three coincidences -- and confirmed fragment 4's own existing diagonal edge sits exactly on that same line. Cut fragment 4 along the extended line and kept the piece(s) on the fragments' own (south/east) side, which drops a ~2380 sqm lobe on the far side of that edge (matching the owner's 'so P8 north side aligns across all polygons: 34, 41, 17, truncated 4'). Verified against Esri World Imagery: the kept shape lands on real turf (the roundabout-side park lawn, and three landscaped median strips between the I-280 ramps on the west side of Owens St/the interchange), and the internal notches the fragment computation already carved out track real paved walkways crossing the lawn. Result is a MultiPolygon: the roundabout-side lawn (includes the original small polygon, now absorbed), three separate freeway-median strips (fragments 34/41/17, not touching each other -- real gaps between them), and the trimmed piece-18 blob next to the pump station.",
        "accuracy_caveat": "APPROXIMATE -- real turf/median extent per Esri satellite imagery and the owner's own hand-drawn scheme (street/creek-bounded gap-fragment technique, not surveyed). The three freeway-median strips and the pump-station-side blob are deliberately kept as separate polygons in a MultiPolygon (they are physically separated by pavement/ramp lanes, not one contiguous parcel). Overlaps the already-tracked real 'Mission Creek Park' polygon for part of its northeast extent -- not reconciled with it yet, per the owner's own framing that Mission Creek Park will eventually evolve to encompass P1+P2+P8.",
        "notes": "Mission Creek Park South Extension Project, P8 segment (see P2's row in the block inventory for the project's other parcel). Design principles per the schematic: respect the Mission Creek Harbor Association community, relocate/expand the existing community garden, add teaching and perennial gardens, meadow planting and native shrub berms partially under the freeway. Project manager: Monica Scott (SF Rec & Park), monica.scott@sfgov.org. Extended 2026-09-20 to the owner's fuller P8 scheme: the roundabout-side lawn plus the freeway-median strips and pump-station-side turf between the I-280 ramps, west of the roundabout.",
        "source_doc_urls": [
          "https://sfrecpark.org/1833/Mission-Creek-Park-South-Extension-Proje",
          "https://sfrecpark.org/DocumentCenter/View/25950/Mission-Creek-Park-South-Extension-Project---Schematic-P2-P8",
          "https://sfrecpark.org/DocumentCenter/View/25951/Mission-Creek-Park-South-Extension-Project---Overview-of-Mission-Creek-Park-P2-P8---CAC",
          "https://www.missioncreekharbor.org/community-garden"
        ]
      },
      "geometry": {
        "type": "MultiPolygon",
        "coordinates": [
          [
            [
              [
                -122.397264386,
                37.770844002
              ],
              [
                -122.39726463380268,
                37.77088836694829
              ],
              [
                -122.39720817897582,
                37.770883466400925
              ],
              [
                -122.39669584183001,
                37.77128696092201
              ],
              [
                -122.39669601,
                37.771286671
              ],
              [
                -122.396696376,
                37.771285868
              ],
              [
                -122.396696661,
                37.771285034
              ],
              [
                -122.396696863,
                37.771284176
              ],
              [
                -122.39669698,
                37.771283302
              ],
              [
                -122.396697011,
                37.771282421
              ],
              [
                -122.396696955,
                37.771281542
              ],
              [
                -122.396696813,
                37.771280671
              ],
              [
                -122.396696587,
                37.771279819
              ],
              [
                -122.396696278,
                37.771278994
              ],
              [
                -122.39669589,
                37.771278202
              ],
              [
                -122.396695426,
                37.771277453
              ],
              [
                -122.39669489,
                37.771276752
              ],
              [
                -122.396694289,
                37.771276107
              ],
              [
                -122.396693628,
                37.771275525
              ],
              [
                -122.396458379,
                37.771088012
              ],
              [
                -122.396486273,
                37.771065961
              ],
              [
                -122.396486937,
                37.771065381
              ],
              [
                -122.396487541,
                37.771064739
              ],
              [
                -122.396488079,
                37.771064041
              ],
              [
                -122.396488546,
                37.771063293
              ],
              [
                -122.396488937,
                37.771062503
              ],
              [
                -122.39648925,
                37.771061678
              ],
              [
                -122.396489479,
                37.771060827
              ],
              [
                -122.396489625,
                37.771059958
              ],
              [
                -122.396489684,
                37.771059078
              ],
              [
                -122.396489657,
                37.771058197
              ],
              [
                -122.396489543,
                37.771057323
              ],
              [
                -122.396489345,
                37.771056464
              ],
              [
                -122.396489063,
                37.771055629
              ],
              [
                -122.396488701,
                37.771054825
              ],
              [
                -122.396488262,
                37.771054061
              ],
              [
                -122.39648775,
                37.771053343
              ],
              [
                -122.39648717,
                37.771052679
              ],
              [
                -122.396486527,
                37.771052075
              ],
              [
                -122.396485829,
                37.771051537
              ],
              [
                -122.396485081,
                37.77105107
              ],
              [
                -122.396484291,
                37.771050679
              ],
              [
                -122.396483467,
                37.771050367
              ],
              [
                -122.396482616,
                37.771050137
              ],
              [
                -122.396481746,
                37.771049992
              ],
              [
                -122.396480867,
                37.771049932
              ],
              [
                -122.396479986,
                37.77104996
              ],
              [
                -122.396479111,
                37.771050073
              ],
              [
                -122.396478252,
                37.771050271
              ],
              [
                -122.396477417,
                37.771050553
              ],
              [
                -122.396476613,
                37.771050916
              ],
              [
                -122.396475849,
                37.771051355
              ],
              [
                -122.396475132,
                37.771051867
              ],
              [
                -122.396438359,
                37.771080936
              ],
              [
                -122.396437684,
                37.771081527
              ],
              [
                -122.39643707,
                37.771082183
              ],
              [
                -122.396436526,
                37.771082897
              ],
              [
                -122.396436055,
                37.771083661
              ],
              [
                -122.396435663,
                37.771084469
              ],
              [
                -122.396435353,
                37.771085312
              ],
              [
                -122.39643513,
                37.771086181
              ],
              [
                -122.396434994,
                37.771087068
              ],
              [
                -122.396434947,
                37.771087965
              ],
              [
                -122.39643499,
                37.771088862
              ],
              [
                -122.396435122,
                37.77108975
              ],
              [
                -122.396435343,
                37.77109062
              ],
              [
                -122.396435649,
                37.771091464
              ],
              [
                -122.396436038,
                37.771092273
              ],
              [
                -122.396436505,
                37.77109304
              ],
              [
                -122.396437047,
                37.771093756
              ],
              [
                -122.396437658,
                37.771094414
              ],
              [
                -122.396438331,
                37.771095008
              ],
              [
                -122.396682429,
                37.771289574
              ],
              [
                -122.396683145,
                37.771290089
              ],
              [
                -122.396683907,
                37.771290531
              ],
              [
                -122.396684709,
                37.771290897
              ],
              [
                -122.396685544,
                37.771291182
              ],
              [
                -122.396686402,
                37.771291384
              ],
              [
                -122.396687275,
                37.771291501
              ],
              [
                -122.396688156,
                37.771291532
              ],
              [
                -122.396689036,
                37.771291476
              ],
              [
                -122.396689906,
                37.771291334
              ],
              [
                -122.39669048368575,
                37.77129118076411
              ],
              [
                -122.39656718242313,
                37.77138828749221
              ],
              [
                -122.396567539,
                37.771387504
              ],
              [
                -122.396567824,
                37.77138667
              ],
              [
                -122.396568026,
                37.771385812
              ],
              [
                -122.396568143,
                37.771384938
              ],
              [
                -122.396568174,
                37.771384057
              ],
              [
                -122.396568118,
                37.771383177
              ],
              [
                -122.396567976,
                37.771382307
              ],
              [
                -122.39656775,
                37.771381455
              ],
              [
                -122.396567441,
                37.77138063
              ],
              [
                -122.396567053,
                37.771379838
              ],
              [
                -122.396566589,
                37.771379088
              ],
              [
                -122.396566054,
                37.771378388
              ],
              [
                -122.396565453,
                37.771377743
              ],
              [
                -122.396564791,
                37.771377161
              ],
              [
                -122.39636235308397,
                37.77121578689869
              ],
              [
                -122.396378923,
                37.771098679
              ],
              [
                -122.39637947,
                37.771092709
              ],
              [
                -122.39637943,
                37.771086715
              ],
              [
                -122.396378803,
                37.771080753
              ],
              [
                -122.396377594,
                37.771074882
              ],
              [
                -122.396375815,
                37.771069157
              ],
              [
                -122.396373484,
                37.771063634
              ],
              [
                -122.396370623,
                37.771058366
              ],
              [
                -122.396367259,
                37.771053405
              ],
              [
                -122.396363425,
                37.771048796
              ],
              [
                -122.396359158,
                37.771044586
              ],
              [
                -122.396354499,
                37.771040814
              ],
              [
                -122.396349492,
                37.771037517
              ],
              [
                -122.396344187,
                37.771034727
              ],
              [
                -122.396338633,
                37.77103247
              ],
              [
                -122.396332885,
                37.771030768
              ],
              [
                -122.396326998,
                37.771029638
              ],
              [
                -122.396321028,
                37.771029091
              ],
              [
                -122.396315034,
                37.771029131
              ],
              [
                -122.396309072,
                37.771029758
              ],
              [
                -122.396303201,
                37.771030967
              ],
              [
                -122.396297476,
                37.771032746
              ],
              [
                -122.396291953,
                37.771035077
              ],
              [
                -122.396286685,
                37.771037938
              ],
              [
                -122.396281724,
                37.771041302
              ],
              [
                -122.396277115,
                37.771045136
              ],
              [
                -122.396272905,
                37.771049403
              ],
              [
                -122.396269133,
                37.771054062
              ],
              [
                -122.396265836,
                37.771059069
              ],
              [
                -122.396263046,
                37.771064374
              ],
              [
                -122.396260789,
                37.771069928
              ],
              [
                -122.396259087,
                37.771075676
              ],
              [
                -122.396257957,
                37.771081563
              ],
              [
                -122.39625147176525,
                37.77112739746299
              ],
              [
                -122.3959899005568,
                37.770918885048324
              ],
              [
                -122.395990904,
                37.770916642
              ],
              [
                -122.39599117,
                37.770916039
              ],
              [
                -122.395992168,
                37.770913742
              ],
              [
                -122.395992411,
                37.770913173
              ],
              [
                -122.395993384,
                37.77091087
              ],
              [
                -122.395993639,
                37.770910259
              ],
              [
                -122.395994586,
                37.770907948
              ],
              [
                -122.395994824,
                37.770907358
              ],
              [
                -122.395995745,
                37.770905042
              ],
              [
                -122.395995984,
                37.770904431
              ],
              [
                -122.395996879,
                37.770902108
              ],
              [
                -122.395997101,
                37.770901523
              ],
              [
                -122.395997971,
                37.770899194
              ],
              [
                -122.395998196,
                37.770898583
              ],
              [
                -122.39599904,
                37.770896248
              ],
              [
                -122.395999258,
                37.770895633
              ],
              [
                -122.396000076,
                37.770893292
              ],
              [
                -122.396000303,
                37.770892629
              ],
              [
                -122.396001093,
                37.770890282
              ],
              [
                -122.39600129,
                37.770889689
              ],
              [
                -122.396002055,
                37.770887337
              ],
              [
                -122.396002248,
                37.770886734
              ],
              [
                -122.396002988,
                37.770884376
              ],
              [
                -122.396003189,
                37.770883722
              ],
              [
                -122.396003901,
                37.770881361
              ],
              [
                -122.396004083,
                37.770880744
              ],
              [
                -122.39600477,
                37.770878376
              ],
              [
                -122.39600496,
                37.770877708
              ],
              [
                -122.396005619,
                37.770875336
              ],
              [
                -122.396005739,
                37.770874898
              ],
              [
                -122.396007303,
                37.770869102
              ],
              [
                -122.396007372,
                37.770868845
              ],
              [
                -122.39600891,
                37.770863045
              ],
              [
                -122.396008979,
                37.770862782
              ],
              [
                -122.396010491,
                37.770856976
              ],
              [
                -122.396010561,
                37.770856702
              ],
              [
                -122.396012045,
                37.770850893
              ],
              [
                -122.396012111,
                37.770850634
              ],
              [
                -122.396013569,
                37.770844821
              ],
              [
                -122.396013636,
                37.77084455
              ],
              [
                -122.396015067,
                37.770838732
              ],
              [
                -122.39601513,
                37.770838474
              ],
              [
                -122.396016535,
                37.770832653
              ],
              [
                -122.396016602,
                37.770832372
              ],
              [
                -122.396017979,
                37.770826546
              ],
              [
                -122.396018042,
                37.770826278
              ],
              [
                -122.396019392,
                37.770820449
              ],
              [
                -122.396019452,
                37.770820185
              ],
              [
                -122.396020776,
                37.770814351
              ],
              [
                -122.396020837,
                37.77081408
              ],
              [
                -122.396022134,
                37.770808242
              ],
              [
                -122.396022194,
                37.770807972
              ],
              [
                -122.396023464,
                37.770802131
              ],
              [
                -122.396023522,
                37.770801861
              ],
              [
                -122.396024765,
                37.770796017
              ],
              [
                -122.396024822,
                37.770795743
              ],
              [
                -122.396026038,
                37.770789894
              ],
              [
                -122.396026094,
                37.770789623
              ],
              [
                -122.396027283,
                37.770783771
              ],
              [
                -122.396027336,
                37.770783509
              ],
              [
                -122.396028499,
                37.770777654
              ],
              [
                -122.396028552,
                37.770777382
              ],
              [
                -122.396029688,
                37.770771524
              ],
              [
                -122.396029742,
                37.77077124
              ],
              [
                -122.39603005945919,
                37.770769560446
              ],
              [
                -122.396316263,
                37.770997709
              ],
              [
                -122.396316961,
                37.770998212
              ],
              [
                -122.396317704,
                37.770998647
              ],
              [
                -122.396318485,
                37.770999008
              ],
              [
                -122.396319297,
                37.770999293
              ],
              [
                -122.396320133,
                37.770999499
              ],
              [
                -122.396320984,
                37.770999624
              ],
              [
                -122.396321844,
                37.770999667
              ],
              [
                -122.396322704,
                37.770999628
              ],
              [
                -122.396323556,
                37.770999506
              ],
              [
                -122.396324392,
                37.770999304
              ],
              [
                -122.396325206,
                37.770999022
              ],
              [
                -122.396325988,
                37.770998664
              ],
              [
                -122.396326733,
                37.770998232
              ],
              [
                -122.396327433,
                37.770997731
              ],
              [
                -122.396364205,
                37.770968662
              ],
              [
                -122.396364869,
                37.770968082
              ],
              [
                -122.396365473,
                37.77096744
              ],
              [
                -122.396366011,
                37.770966742
              ],
              [
                -122.396366478,
                37.770965994
              ],
              [
                -122.396366869,
                37.770965204
              ],
              [
                -122.396367182,
                37.77096438
              ],
              [
                -122.396367411,
                37.770963529
              ],
              [
                -122.396367557,
                37.770962659
              ],
              [
                -122.396367616,
                37.77096178
              ],
              [
                -122.396367589,
                37.770960898
              ],
              [
                -122.396367475,
                37.770960024
              ],
              [
                -122.396367277,
                37.770959165
              ],
              [
                -122.396366995,
                37.77095833
              ],
              [
                -122.396366633,
                37.770957526
              ],
              [
                -122.396366194,
                37.770956762
              ],
              [
                -122.396365681,
                37.770956044
              ],
              [
                -122.396365102,
                37.77095538
              ],
              [
                -122.396364459,
                37.770954777
              ],
              [
                -122.396363761,
                37.770954239
              ],
              [
                -122.396363013,
                37.770953772
              ],
              [
                -122.396362223,
                37.77095338
              ],
              [
                -122.396361399,
                37.770953068
              ],
              [
                -122.396360548,
                37.770952838
              ],
              [
                -122.396359678,
                37.770952693
              ],
              [
                -122.396358799,
                37.770952634
              ],
              [
                -122.396357918,
                37.770952661
              ],
              [
                -122.396357043,
                37.770952774
              ],
              [
                -122.396356184,
                37.770952973
              ],
              [
                -122.396355349,
                37.770953254
              ],
              [
                -122.396354545,
                37.770953617
              ],
              [
                -122.396353781,
                37.770954056
              ],
              [
                -122.396353064,
                37.770954568
              ],
              [
                -122.396321885,
                37.770979215
              ],
              [
                -122.39604921696233,
                37.77076185630377
              ],
              [
                -122.39604951,
                37.770761827
              ],
              [
                -122.396052141,
                37.770761551
              ],
              [
                -122.396052648,
                37.770761495
              ],
              [
                -122.396055277,
                37.770761197
              ],
              [
                -122.396055772,
                37.770761139
              ],
              [
                -122.396058395,
                37.77076082
              ],
              [
                -122.396058901,
                37.770760757
              ],
              [
                -122.396061522,
                37.770760416
              ],
              [
                -122.396062017,
                37.770760349
              ],
              [
                -122.396064632,
                37.770759987
              ],
              [
                -122.396065148,
                37.770759914
              ],
              [
                -122.396067758,
                37.77075953
              ],
              [
                -122.396068269,
                37.770759452
              ],
              [
                -122.396070875,
                37.770759046
              ],
              [
                -122.396071375,
                37.770758966
              ],
              [
                -122.396073974,
                37.770758539
              ],
              [
                -122.396074489,
                37.770758452
              ],
              [
                -122.396077083,
                37.770758003
              ],
              [
                -122.396077584,
                37.770757914
              ],
              [
                -122.396080171,
                37.770757444
              ],
              [
                -122.396080668,
                37.770757352
              ],
              [
                -122.396083249,
                37.770756861
              ],
              [
                -122.396083764,
                37.770756761
              ],
              [
                -122.39608634,
                37.770756248
              ],
              [
                -122.396086823,
                37.770756149
              ],
              [
                -122.396089391,
                37.770755616
              ],
              [
                -122.396089915,
                37.770755505
              ],
              [
                -122.396092476,
                37.77075495
              ],
              [
                -122.39609296,
                37.770754843
              ],
              [
                -122.396095513,
                37.770754268
              ],
              [
                -122.396096058,
                37.770754143
              ],
              [
                -122.396098604,
                37.770753545
              ],
              [
                -122.396099084,
                37.77075343
              ],
              [
                -122.396101623,
                37.770752812
              ],
              [
                -122.39610214,
                37.770752684
              ],
              [
                -122.396104669,
                37.770752045
              ],
              [
                -122.396105176,
                37.770751915
              ],
              [
                -122.396107697,
                37.770751255
              ],
              [
                -122.396108181,
                37.770751126
              ],
              [
                -122.396110694,
                37.770750446
              ],
              [
                -122.396111235,
                37.770750297
              ],
              [
                -122.396113738,
                37.770749595
              ],
              [
                -122.396114213,
                37.770749459
              ],
              [
                -122.396116706,
                37.770748738
              ],
              [
                -122.396117227,
                37.770748585
              ],
              [
                -122.396119713,
                37.770747842
              ],
              [
                -122.39612023,
                37.770747685
              ],
              [
                -122.396122703,
                37.770746922
              ],
              [
                -122.39612318,
                37.770746773
              ],
              [
                -122.396125646,
                37.77074599
              ],
              [
                -122.396126186,
                37.770745816
              ],
              [
                -122.396128639,
                37.770745012
              ],
              [
                -122.396129107,
                37.770744856
              ],
              [
                -122.396131551,
                37.770744033
              ],
              [
                -122.396132077,
                37.770743853
              ],
              [
                -122.39613451,
                37.770743009
              ],
              [
                -122.396135022,
                37.770742829
              ],
              [
                -122.396137443,
                37.770741965
              ],
              [
                -122.396137934,
                37.770741788
              ],
              [
                -122.396140343,
                37.770740905
              ],
              [
                -122.39614086,
                37.770740712
              ],
              [
                -122.396143259,
                37.770739808
              ],
              [
                -122.396143786,
                37.770739607
              ],
              [
                -122.396146171,
                37.770738683
              ],
              [
                -122.396146646,
                37.770738497
              ],
              [
                -122.396149021,
                37.770737554
              ],
              [
                -122.396149549,
                37.770737341
              ],
              [
                -122.39615191,
                37.770736378
              ],
              [
                -122.39615238,
                37.770736184
              ],
              [
                -122.396154729,
                37.770735203
              ],
              [
                -122.396155269,
                37.770734975
              ],
              [
                -122.396157605,
                37.770733973
              ],
              [
                -122.396158104,
                37.770733756
              ],
              [
                -122.396160427,
                37.770732735
              ],
              [
                -122.396160923,
                37.770732514
              ],
              [
                -122.396163231,
                37.770731475
              ],
              [
                -122.39616374,
                37.770731243
              ],
              [
                -122.396166036,
                37.770730184
              ],
              [
                -122.396166553,
                37.770729943
              ],
              [
                -122.396168834,
                37.770728865
              ],
              [
                -122.396169321,
                37.770728632
              ],
              [
                -122.396171588,
                37.770727536
              ],
              [
                -122.396172094,
                37.770727289
              ],
              [
                -122.396174347,
                37.770726174
              ],
              [
                -122.396174873,
                37.77072591
              ],
              [
                -122.39617711,
                37.770724776
              ],
              [
                -122.396177596,
                37.770724527
              ],
              [
                -122.396179819,
                37.770723375
              ],
              [
                -122.396180314,
                37.770723116
              ],
              [
                -122.396182522,
                37.770721946
              ],
              [
                -122.396183017,
                37.77072168
              ],
              [
                -122.39618521,
                37.770720492
              ],
              [
                -122.396185744,
                37.7707202
              ],
              [
                -122.39618792,
                37.770718993
              ],
              [
                -122.396188395,
                37.770718726
              ],
              [
                -122.396190556,
                37.770717502
              ],
              [
                -122.396191081,
                37.770717202
              ],
              [
                -122.396193224,
                37.77071596
              ],
              [
                -122.396193706,
                37.770715678
              ],
              [
                -122.396195835,
                37.770714418
              ],
              [
                -122.396196329,
                37.770714122
              ],
              [
                -122.396198441,
                37.770712845
              ],
              [
                -122.396198946,
                37.770712536
              ],
              [
                -122.39620104,
                37.770711242
              ],
              [
                -122.39620157,
                37.770710911
              ],
              [
                -122.396203647,
                37.770709598
              ],
              [
                -122.396204092,
                37.770709314
              ],
              [
                -122.396206153,
                37.770707986
              ],
              [
                -122.396206685,
                37.770707639
              ],
              [
                -122.396208727,
                37.770706293
              ],
              [
                -122.396209189,
                37.770705986
              ],
              [
                -122.396211215,
                37.770704624
              ],
              [
                -122.396211745,
                37.770704264
              ],
              [
                -122.396213752,
                37.770702884
              ],
              [
                -122.396214234,
                37.770702548
              ],
              [
                -122.396216223,
                37.770701152
              ],
              [
                -122.3962167,
                37.770700814
              ],
              [
                -122.39621867,
                37.770699403
              ],
              [
                -122.396219156,
                37.770699052
              ],
              [
                -122.396221109,
                37.770697624
              ],
              [
                -122.396221612,
                37.770697252
              ],
              [
                -122.396223545,
                37.770695808
              ],
              [
                -122.396224051,
                37.770695426
              ],
              [
                -122.396225965,
                37.770693965
              ],
              [
                -122.396226437,
                37.770693601
              ],
              [
                -122.396228332,
                37.770692125
              ],
              [
                -122.396228844,
                37.770691722
              ],
              [
                -122.396230718,
                37.77069023
              ],
              [
                -122.396231147,
                37.770689885
              ],
              [
                -122.396233004,
                37.770688379
              ],
              [
                -122.396233524,
                37.770687952
              ],
              [
                -122.396235359,
                37.77068643
              ],
              [
                -122.396235825,
                37.77068604
              ],
              [
                -122.396237641,
                37.770684503
              ],
              [
                -122.396238118,
                37.770684095
              ],
              [
                -122.396239914,
                37.770682543
              ],
              [
                -122.396240374,
                37.770682142
              ],
              [
                -122.39624215,
                37.770680576
              ],
              [
                -122.396242662,
                37.770680118
              ],
              [
                -122.396244416,
                37.770678536
              ],
              [
                -122.396244872,
                37.770678121
              ],
              [
                -122.396246606,
                37.770676525
              ],
              [
                -122.396247059,
                37.770676104
              ],
              [
                -122.396248772,
                37.770674495
              ],
              [
                -122.396249277,
                37.770674016
              ],
              [
                -122.396250968,
                37.770672391
              ],
              [
                -122.39625139,
                37.770671981
              ],
              [
                -122.396253062,
                37.770670343
              ],
              [
                -122.396253547,
                37.770669862
              ],
              [
                -122.396255195,
                37.770668211
              ],
              [
                -122.396255651,
                37.770667749
              ],
              [
                -122.396257278,
                37.770666084
              ],
              [
                -122.396257732,
                37.770665615
              ],
              [
                -122.396259337,
                37.770663937
              ],
              [
                -122.396259801,
                37.770663447
              ],
              [
                -122.396261384,
                37.770661755
              ],
              [
                -122.396261819,
                37.770661284
              ],
              [
                -122.39626338,
                37.77065958
              ],
              [
                -122.39626385,
                37.770659062
              ],
              [
                -122.396265388,
                37.770657344
              ],
              [
                -122.396265818,
                37.770656859
              ],
              [
                -122.396267334,
                37.770655129
              ],
              [
                -122.396267771,
                37.770654624
              ],
              [
                -122.396269265,
                37.770652881
              ],
              [
                -122.396269716,
                37.770652348
              ],
              [
                -122.396271185,
                37.770650594
              ],
              [
                -122.396271603,
                37.770650091
              ],
              [
                -122.396273051,
                37.770648324
              ],
              [
                -122.396273482,
                37.770647792
              ],
              [
                -122.396274906,
                37.770646014
              ],
              [
                -122.39627533,
                37.770645477
              ],
              [
                -122.396276731,
                37.770643687
              ],
              [
                -122.396277168,
                37.770643123
              ],
              [
                -122.396278544,
                37.770641322
              ],
              [
                -122.396278947,
                37.770640789
              ],
              [
                -122.396280301,
                37.770638976
              ],
              [
                -122.396280728,
                37.770638396
              ],
              [
                -122.396282057,
                37.770636572
              ],
              [
                -122.396282151,
                37.770636442
              ],
              [
                -122.396355362,
                37.770575446
              ],
              [
                -122.396433831,
                37.770538753
              ],
              [
                -122.396687992,
                37.770469462
              ],
              [
                -122.396695433,
                37.770466909
              ],
              [
                -122.396793463,
                37.770426036
              ],
              [
                -122.396800022,
                37.770422828
              ],
              [
                -122.396994424,
                37.770312902
              ],
              [
                -122.397085498,
                37.770265505
              ],
              [
                -122.397249933,
                37.770207903
              ],
              [
                -122.397271193,
                37.770203076
              ],
              [
                -122.39728350970887,
                37.770368948348725
              ],
              [
                -122.39731788275604,
                37.770797459996444
              ],
              [
                -122.397264386,
                37.770844002
              ]
            ]
          ],
          [
            [
              [
                -122.396354557,
                37.771239685
              ],
              [
                -122.39635715423435,
                37.77123461794279
              ],
              [
                -122.396553592,
                37.771391209
              ],
              [
                -122.396554308,
                37.771391724
              ],
              [
                -122.39655507,
                37.771392167
              ],
              [
                -122.396555872,
                37.771392532
              ],
              [
                -122.396556707,
                37.771392817
              ],
              [
                -122.396557565,
                37.771393019
              ],
              [
                -122.396558438,
                37.771393136
              ],
              [
                -122.39655932,
                37.771393167
              ],
              [
                -122.396560199,
                37.771393111
              ],
              [
                -122.396561069,
                37.77139297
              ],
              [
                -122.39656132260374,
                37.77139290243187
              ],
              [
                -122.39642533547253,
                37.7715
              ],
              [
                -122.39603238583504,
                37.7715
              ],
              [
                -122.396339468,
                37.771257188
              ],
              [
                -122.396343849,
                37.771253372
              ],
              [
                -122.396347848,
                37.771249157
              ],
              [
                -122.396351428,
                37.771244581
              ],
              [
                -122.396354557,
                37.771239685
              ]
            ]
          ],
          [
            [
              [
                -122.397655277,
                37.770462243
              ],
              [
                -122.3976640740587,
                37.770524350452675
              ],
              [
                -122.39743119722299,
                37.77070806646712
              ],
              [
                -122.397391897,
                37.770178807
              ],
              [
                -122.397391585,
                37.770175744
              ],
              [
                -122.397407604,
                37.770172107
              ],
              [
                -122.397608619,
                37.770152379
              ],
              [
                -122.397655277,
                37.770462243
              ]
            ]
          ],
          [
            [
              [
                -122.397758847,
                37.770126097
              ],
              [
                -122.3977997070205,
                37.770417349912705
              ],
              [
                -122.39777499952645,
                37.770436841599455
              ],
              [
                -122.397729107,
                37.770132064
              ],
              [
                -122.397758847,
                37.770126097
              ]
            ]
          ],
          [
            [
              [
                -122.39793967,
                37.770076583
              ],
              [
                -122.39799789896611,
                37.77026099673043
              ],
              [
                -122.39791078058306,
                37.77032972422782
              ],
              [
                -122.397878394,
                37.770098871
              ],
              [
                -122.39793967,
                37.770076583
              ]
            ]
          ],
          [
            [
              [
                -122.398344525,
                37.770095173
              ],
              [
                -122.39834438,
                37.770094544
              ],
              [
                -122.398344337,
                37.770094364
              ],
              [
                -122.398344159,
                37.770093659
              ],
              [
                -122.39834411,
                37.770093473
              ],
              [
                -122.398343916,
                37.770092771
              ],
              [
                -122.398343864,
                37.770092587
              ],
              [
                -122.398343655,
                37.770091887
              ],
              [
                -122.398343597,
                37.770091702
              ],
              [
                -122.398343373,
                37.770091006
              ],
              [
                -122.398343314,
                37.77009083
              ],
              [
                -122.398343075,
                37.770090136
              ],
              [
                -122.398343011,
                37.770089957
              ],
              [
                -122.398342757,
                37.770089267
              ],
              [
                -122.39834269,
                37.770089091
              ],
              [
                -122.39834242,
                37.770088405
              ],
              [
                -122.398342349,
                37.770088229
              ],
              [
                -122.398342064,
                37.770087546
              ],
              [
                -122.398341992,
                37.770087378
              ],
              [
                -122.398341692,
                37.7700867
              ],
              [
                -122.398341616,
                37.770086531
              ],
              [
                -122.398341301,
                37.770085857
              ],
              [
                -122.398341221,
                37.770085689
              ],
              [
                -122.398340892,
                37.77008502
              ],
              [
                -122.398340808,
                37.770084853
              ],
              [
                -122.398340464,
                37.770084188
              ],
              [
                -122.398340381,
                37.770084033
              ],
              [
                -122.398340023,
                37.770083373
              ],
              [
                -122.398339936,
                37.770083217
              ],
              [
                -122.398339563,
                37.770082561
              ],
              [
                -122.398339469,
                37.7700824
              ],
              [
                -122.398339081,
                37.77008175
              ],
              [
                -122.398338992,
                37.770081604
              ],
              [
                -122.398338591,
                37.770080959
              ],
              [
                -122.398338495,
                37.770080809
              ],
              [
                -122.398338079,
                37.77008017
              ],
              [
                -122.39833798,
                37.770080022
              ],
              [
                -122.39833755,
                37.770079389
              ],
              [
                -122.398337455,
                37.770079251
              ],
              [
                -122.398337011,
                37.770078624
              ],
              [
                -122.39833691,
                37.770078484
              ],
              [
                -122.398336453,
                37.770077863
              ],
              [
                -122.398336347,
                37.770077722
              ],
              [
                -122.398335876,
                37.770077108
              ],
              [
                -122.398335775,
                37.770076979
              ],
              [
                -122.398335291,
                37.770076371
              ],
              [
                -122.398335181,
                37.770076236
              ],
              [
                -122.398334684,
                37.770075636
              ],
              [
                -122.398334577,
                37.770075509
              ],
              [
                -122.398334066,
                37.770074915
              ],
              [
                -122.398333958,
                37.770074792
              ],
              [
                -122.398333434,
                37.770074205
              ],
              [
                -122.398333323,
                37.770074083
              ],
              [
                -122.398332786,
                37.770073503
              ],
              [
                -122.398332676,
                37.770073386
              ],
              [
                -122.398332126,
                37.770072814
              ],
              [
                -122.398332014,
                37.770072699
              ],
              [
                -122.398331452,
                37.770072135
              ],
              [
                -122.398331336,
                37.77007202
              ],
              [
                -122.398330761,
                37.770071464
              ],
              [
                -122.398330646,
                37.770071354
              ],
              [
                -122.39833006,
                37.770070806
              ],
              [
                -122.398329945,
                37.7700707
              ],
              [
                -122.398329347,
                37.77007016
              ],
              [
                -122.39832923,
                37.770070057
              ],
              [
                -122.39832862,
                37.770069525
              ],
              [
                -122.398328501,
                37.770069423
              ],
              [
                -122.39832788,
                37.7700689
              ],
              [
                -122.398327762,
                37.770068802
              ],
              [
                -122.398327129,
                37.770068288
              ],
              [
                -122.398327008,
                37.770068191
              ],
              [
                -122.398326364,
                37.770067686
              ],
              [
                -122.398326245,
                37.770067594
              ],
              [
                -122.39832559,
                37.770067098
              ],
              [
                -122.398325471,
                37.770067009
              ],
              [
                -122.398324805,
                37.770066521
              ],
              [
                -122.39832468,
                37.770066431
              ],
              [
                -122.398324003,
                37.770065954
              ],
              [
                -122.398323885,
                37.770065872
              ],
              [
                -122.398323198,
                37.770065403
              ],
              [
                -122.398323077,
                37.770065321
              ],
              [
                -122.39832238,
                37.770064862
              ],
              [
                -122.398322253,
                37.77006478
              ],
              [
                -122.398321546,
                37.770064331
              ],
              [
                -122.398321424,
                37.770064255
              ],
              [
                -122.398320707,
                37.770063815
              ],
              [
                -122.398320586,
                37.770063743
              ],
              [
                -122.39831986,
                37.770063313
              ],
              [
                -122.398319737,
                37.770063242
              ],
              [
                -122.398319001,
                37.770062822
              ],
              [
                -122.398318874,
                37.770062751
              ],
              [
                -122.398318129,
                37.770062342
              ],
              [
                -122.398318006,
                37.770062276
              ],
              [
                -122.398317253,
                37.770061878
              ],
              [
                -122.398317128,
                37.770061813
              ],
              [
                -122.398316366,
                37.770061425
              ],
              [
                -122.39831624,
                37.770061362
              ],
              [
                -122.398315469,
                37.770060985
              ],
              [
                -122.398315347,
                37.770060926
              ],
              [
                -122.398314569,
                37.770060559
              ],
              [
                -122.398314445,
                37.770060502
              ],
              [
                -122.398313658,
                37.770060146
              ],
              [
                -122.398313532,
                37.77006009
              ],
              [
                -122.398312738,
                37.770059745
              ],
              [
                -122.39831261,
                37.77005969
              ],
              [
                -122.398311807,
                37.770059357
              ],
              [
                -122.398311684,
                37.770059306
              ],
              [
                -122.398310874,
                37.770058984
              ],
              [
                -122.39831075,
                37.770058935
              ],
              [
                -122.398309934,
                37.770058624
              ],
              [
                -122.398309811,
                37.770058578
              ],
              [
                -122.398308988,
                37.770058277
              ],
              [
                -122.398308861,
                37.770058232
              ],
              [
                -122.398308031,
                37.770057943
              ],
              [
                -122.398307908,
                37.770057901
              ],
              [
                -122.398307072,
                37.770057624
              ],
              [
                -122.398306946,
                37.770057583
              ],
              [
                -122.398306105,
                37.770057318
              ],
              [
                -122.398305976,
                37.770057278
              ],
              [
                -122.398305128,
                37.770057025
              ],
              [
                -122.398305008,
                37.77005699
              ],
              [
                -122.398304156,
                37.770056748
              ],
              [
                -122.398304029,
                37.770056712
              ],
              [
                -122.398303171,
                37.770056482
              ],
              [
                -122.398303047,
                37.77005645
              ],
              [
                -122.398302184,
                37.770056232
              ],
              [
                -122.398302056,
                37.7700562
              ],
              [
                -122.398301188,
                37.770055994
              ],
              [
                -122.398301068,
                37.770055966
              ],
              [
                -122.398300196,
                37.770055772
              ],
              [
                -122.398300068,
                37.770055744
              ],
              [
                -122.398299191,
                37.770055562
              ],
              [
                -122.398299068,
                37.770055537
              ],
              [
                -122.398298188,
                37.770055367
              ],
              [
                -122.398298062,
                37.770055344
              ],
              [
                -122.398297178,
                37.770055186
              ],
              [
                -122.398297053,
                37.770055165
              ],
              [
                -122.398296166,
                37.770055019
              ],
              [
                -122.398296044,
                37.770055
              ],
              [
                -122.398295154,
                37.770054867
              ],
              [
                -122.39829503,
                37.770054849
              ],
              [
                -122.398294137,
                37.770054728
              ],
              [
                -122.398294009,
                37.770054712
              ],
              [
                -122.398293113,
                37.770054603
              ],
              [
                -122.39829299,
                37.770054589
              ],
              [
                -122.398292092,
                37.770054493
              ],
              [
                -122.398291969,
                37.770054481
              ],
              [
                -122.398291069,
                37.770054397
              ],
              [
                -122.398290946,
                37.770054387
              ],
              [
                -122.398290044,
                37.770054316
              ],
              [
                -122.398289919,
                37.770054307
              ],
              [
                -122.398289016,
                37.770054248
              ],
              [
                -122.398288893,
                37.770054241
              ],
              [
                -122.398287989,
                37.770054195
              ],
              [
                -122.398287863,
                37.770054189
              ],
              [
                -122.398286959,
                37.770054155
              ],
              [
                -122.398286833,
                37.770054152
              ],
              [
                -122.398285927,
                37.770054131
              ],
              [
                -122.398285805,
                37.770054129
              ],
              [
                -122.398284899,
                37.77005412
              ],
              [
                -122.398284774,
                37.77005412
              ],
              [
                -122.398283868,
                37.770054124
              ],
              [
                -122.398283743,
                37.770054125
              ],
              [
                -122.398282838,
                37.770054142
              ],
              [
                -122.398282712,
                37.770054145
              ],
              [
                -122.398281807,
                37.770054174
              ],
              [
                -122.398281685,
                37.770054179
              ],
              [
                -122.39828078,
                37.770054221
              ],
              [
                -122.398280655,
                37.770054228
              ],
              [
                -122.398279752,
                37.770054282
              ],
              [
                -122.398279633,
                37.77005429
              ],
              [
                -122.398278731,
                37.770054356
              ],
              [
                -122.398278598,
                37.770054367
              ],
              [
                -122.398277698,
                37.770054446
              ],
              [
                -122.398277578,
                37.770054458
              ],
              [
                -122.39827668,
                37.770054549
              ],
              [
                -122.398276554,
                37.770054563
              ],
              [
                -122.398275658,
                37.770054667
              ],
              [
                -122.39827553,
                37.770054683
              ],
              [
                -122.398274637,
                37.770054799
              ],
              [
                -122.398274517,
                37.770054816
              ],
              [
                -122.398273626,
                37.770054944
              ],
              [
                -122.398273498,
                37.770054964
              ],
              [
                -122.39827261,
                37.770055105
              ],
              [
                -122.398272485,
                37.770055126
              ],
              [
                -122.398271601,
                37.770055279
              ],
              [
                -122.398271476,
                37.770055302
              ],
              [
                -122.398270595,
                37.770055467
              ],
              [
                -122.398270472,
                37.770055491
              ],
              [
                -122.398269595,
                37.770055669
              ],
              [
                -122.398269466,
                37.770055696
              ],
              [
                -122.398268592,
                37.770055886
              ],
              [
                -122.39826847,
                37.770055914
              ],
              [
                -122.398267601,
                37.770056116
              ],
              [
                -122.398267476,
                37.770056146
              ],
              [
                -122.398266611,
                37.77005636
              ],
              [
                -122.398266487,
                37.770056391
              ],
              [
                -122.398265628,
                37.770056617
              ],
              [
                -122.3982655,
                37.770056652
              ],
              [
                -122.398264645,
                37.77005689
              ],
              [
                -122.398264522,
                37.770056925
              ],
              [
                -122.398263673,
                37.770057175
              ],
              [
                -122.398263547,
                37.770057213
              ],
              [
                -122.398262703,
                37.770057474
              ],
              [
                -122.398262579,
                37.770057514
              ],
              [
                -122.398261741,
                37.770057787
              ],
              [
                -122.398261613,
                37.770057829
              ],
              [
                -122.398260782,
                37.770058114
              ],
              [
                -122.398260661,
                37.770058156
              ],
              [
                -122.398259835,
                37.770058452
              ],
              [
                -122.398259708,
                37.770058499
              ],
              [
                -122.39825889,
                37.770058806
              ],
              [
                -122.398258763,
                37.770058855
              ],
              [
                -122.398257951,
                37.770059174
              ],
              [
                -122.398257827,
                37.770059224
              ],
              [
                -122.398257023,
                37.770059554
              ],
              [
                -122.398256899,
                37.770059606
              ],
              [
                -122.398256102,
                37.770059947
              ],
              [
                -122.398255976,
                37.770060002
              ],
              [
                -122.398255186,
                37.770060354
              ],
              [
                -122.398255063,
                37.77006041
              ],
              [
                -122.398254282,
                37.770060773
              ],
              [
                -122.398254154,
                37.770060833
              ],
              [
                -122.39825338,
                37.770061207
              ],
              [
                -122.398253258,
                37.770061267
              ],
              [
                -122.398252493,
                37.770061652
              ],
              [
                -122.398252368,
                37.770061716
              ],
              [
                -122.398251611,
                37.770062111
              ],
              [
                -122.398251486,
                37.770062177
              ],
              [
                -122.398250738,
                37.770062583
              ],
              [
                -122.398250615,
                37.77006265
              ],
              [
                -122.398249876,
                37.770063066
              ],
              [
                -122.398249752,
                37.770063137
              ],
              [
                -122.398249022,
                37.770063563
              ],
              [
                -122.3982489,
                37.770063636
              ],
              [
                -122.39824818,
                37.770064072
              ],
              [
                -122.398248057,
                37.770064147
              ],
              [
                -122.398247346,
                37.770064593
              ],
              [
                -122.398247221,
                37.770064673
              ],
              [
                -122.398246521,
                37.770065129
              ],
              [
                -122.398246399,
                37.770065209
              ],
              [
                -122.398245708,
                37.770065675
              ],
              [
                -122.398245587,
                37.770065758
              ],
              [
                -122.398244906,
                37.770066233
              ],
              [
                -122.398244786,
                37.770066318
              ],
              [
                -122.398244116,
                37.770066802
              ],
              [
                -122.398243996,
                37.77006689
              ],
              [
                -122.398243337,
                37.770067383
              ],
              [
                -122.398243213,
                37.770067478
              ],
              [
                -122.398242565,
                37.770067981
              ],
              [
                -122.398242507,
                37.770068026
              ],
              [
                -122.39810046579525,
                37.770180081988485
              ],
              [
                -122.398050425,
                37.770021599
              ],
              [
                -122.398290912,
                37.769832886
              ],
              [
                -122.398295568,
                37.769828836
              ],
              [
                -122.398299791,
                37.769824337
              ],
              [
                -122.398303539,
                37.769819436
              ],
              [
                -122.398306774,
                37.769814181
              ],
              [
                -122.398309462,
                37.769808626
              ],
              [
                -122.398311575,
                37.769802829
              ],
              [
                -122.398311675,
                37.769802436
              ],
              [
                -122.398391779,
                37.769847275
              ],
              [
                -122.39845380982803,
                37.76989675585062
              ],
              [
                -122.398332349,
                37.769992703
              ],
              [
                -122.39838616875181,
                37.7702
              ],
              [
                -122.39836765429293,
                37.7702
              ],
              [
                -122.398344544,
                37.770095256
              ],
              [
                -122.398344525,
                37.770095173
              ]
            ]
          ]
        ]
      }
    }
  ]
}