{
 "type": "FeatureCollection",
 "features": [
  {
   "type": "Feature",
   "properties": {
    "project_name": "235 Berry",
    "site": "Mission Bay North",
    "status": "complete",
    "use": "residential",
    "geometry_type": "real",
    "digitized_from": "OpenStreetMap (way 46264105, 235 Berry St)",
    "digitization_method": "ADDED 2026-09-18 for Mission Bay's North-blocks pass: real OSM building footprint (unnamed in OSM; identified by address match). 235 Berry -- a Signature Properties/Signature Development Group condo building, 99 units, built 2007, architect LMSA (Leddy Maytum Stacy Architects). Sometimes referred to informally as 'Signature II' alongside the earlier 255 Berry St building ('Signature I'), but neither building carries that name in its own marketing -- named here by address per its own leasing/HOA sites (berrystreetcondo.com, skyboxrealty.com) instead of the unconfirmed 'Signature II' label. 2026-09-29 accuracy audit: (1) The 'Signature II'/'Signature I' informal naming above is withdrawn: none of the cited sources (OSM way 46264105, the LMSA page, the Skybox page) uses it or mentions 255 Berry as 'Signature I', and nothing cited shows the negative claim about the buildings' own marketing. (2) The Skybox Realty page (skyboxrealty.com/portfolio/235-berry/) is a brokerage portfolio page, not strictly the building's own HOA site, and berrystreetcondo.com was not read; the address name rests on OSM and that page. Skybox states 'Built in 2007 along the channel, 235 Berry is home to 99 residences developed by Signature Development Group and designed by LMSA'. 2026-10-02: public-text pass. accuracy_caveat reworded for readers (meaning unchanged; no change to the shape, status, use or geometry_type); previous wording -- accuracy_caveat: 'REAL -- surveyed OpenStreetMap building footprint(s), not a hand trace or plan estimate. The underlying Assessor parcel is condo-mapped across many individually owned per-unit lots (confirmed against data/raw/parcels.geojson), so no single blklot represents the whole building and it cannot be joined via status.csv the way a single-owner parcel can. Using the real building footprint from OSM instead of a fabricated or arbitrarily chosen 'representative' unit lot, the same pattern already used for Mission Bay's other condo-mapped residential towers (Avalon I, Madrone and Radiance, re-checked against data/raw/parcels.geojson in the 2026-09 audit; Avalon II and III are not condo-mapped, and Arden and One Mission Bay were not re-checked).'.",
    "accuracy_caveat": "REAL -- surveyed OpenStreetMap building footprint(s), not a hand trace or plan estimate. The underlying Assessor parcel is condo-mapped across many individually owned per-unit lots (confirmed against DataSF's Assessor parcel data), so no single blklot represents the whole building and the record cannot be tied to one Assessor lot the way a single-owner parcel can. Using the real building footprint from OSM instead of a fabricated or arbitrarily chosen 'representative' unit lot, the same pattern already used for Mission Bay's other condo-mapped residential towers (Avalon I, Madrone and Radiance, re-checked against DataSF's Assessor parcel data in September 2026; Avalon II and III are not condo-mapped, and Arden and One Mission Bay were not re-checked).",
    "notes": "",
    "source_doc_urls": [
     "https://www.openstreetmap.org/way/46264105",
     "https://lmsarch.com/projects/235-berry-street/",
     "https://skyboxrealty.com/portfolio/235-berry/"
    ]
   },
   "geometry": {
    "type": "Polygon",
    "coordinates": [
     [
      [
       -122.394576,
       37.7746475
      ],
      [
       -122.3941654,
       37.7743195
      ],
      [
       -122.3936209,
       37.7747518
      ],
      [
       -122.3940394,
       37.7750693
      ],
      [
       -122.394576,
       37.7746475
      ]
     ]
    ]
   }
  }
 ]
}