{
  "type": "FeatureCollection",
  "features": [
    {
      "type": "Feature",
      "properties": {
        "project_name": "P11A -- traffic median (half-circle island near Mission Bay Circle)",
        "site": "Mission Bay South",
        "status": "complete",
        "use": "park",
        "geometry_type": "approximate",
        "digitized_from": "Hand-traced from satellite imagery, guided directly by the owner's own marked-up screenshot (their drawn outline extracted from the photo via ORB feature-matching/homography rather than re-estimated by eye), then fit to an idealized semicircle per the owner's description of the real shape.",
        "digitization_method": "ADDED 2026-09-19: resolves plan label P11A, previously only a weak ~33m proximity guess with no real source. The owner corrected this session's own repeated mis-location of the label (first a mis-anchored transform landing in the wrong intersection entirely, then a hand-eyeballed shape that didn't match) by drawing directly on a satellite screenshot. That drawing was extracted programmatically: ORB keypoint matching between the annotated photo and the original sent image gave a homography, chained through a second homography to a freshly-fetched satellite tile with an exact known lon/lat extent, so the owner's blue outline was converted to real coordinates without manual pixel-guessing. The owner then described the real shape as a half-circle; a circle was least-squares-fit to the arc portion of the extracted outline (radius 24.2m, fit residual std 0.58m) and a straight edge fit to the flat portion, then the two were combined into a true semicircle (flat edge through the circle center) rather than left as the noisier hand-traced outline. This is the grass median island immediately east of the roundabout named 'Mission Bay Circle' in this tracker (near P8/P10/X1), west of the Parklab Gardens soccer field. join_approximate.py --strict flagged a 28% MAJOR CLIP against the real street/curb buffer -- investigated rather than auto-accepted or blindly shrunk: the clip lands on the median's own top-left corner near the crosswalk, which DataSF's curb layer treats as street right-of-way (curb-return/crosswalk geometry legitimately overlapping a median island's edge, the same class of case documented for Pier 70's 20th Street Plaza). The owner granted an explicit exception rather than have the shape distorted to dodge the buffer -- street_clip_exempt set per that documented escape hatch, not used to silence a real mispositioning.",
        "accuracy_caveat": "APPROXIMATE -- owner-guided satellite trace, idealized to a fitted semicircle rather than left as a raw hand-traced outline. Not a surveyed footprint or GIS file from the project team. street_clip_exempt=true: this is a real traffic median, inherently adjacent to/overlapping the street right-of-way in DataSF's curb data at its crosswalk corner -- clipping it against the generic street buffer would cut a real, visible piece of the median, not a mispositioning artifact. Owner-approved exception.",
        "p_number": "P11A. Not named in either neighboring Mission Bay Commons record's own p_number source (OCII's Nov 2024 CAC update only names P11/P12/P13/P15/P16/P17) -- resolved here by direct owner identification instead.",
        "notes": "Traffic median island, landscaped with grass, immediately adjacent to a thin connector strip (P11) leading to the roundabout.",
        "source_doc_urls": [],
        "street_clip_exempt": true
      },
      "geometry": {
        "type": "Polygon",
        "coordinates": [
          [[-122.39466462958124, 37.77078771107064], [-122.39467618322739, 37.7707873630155], [-122.39468769706393, 37.770786529387216], [-122.39469913845367, 37.77078521254877], [-122.39471047496471, 37.770783416232845], [-122.39472167446253, 37.770781145531295], [-122.39473270520094, 37.77077840688058], [-122.39474353591204, 37.770775208043695], [-122.39475413589507, 37.77077155808801], [-122.39476447510322, 37.77076746735965], [-122.39477452422886, 37.77076294745417], [-122.39478425478663, 37.770758011183645], [-122.39479363919429, 37.7707526725404], [-122.39480265085065, 37.770746946657304], [-122.39481126421119, 37.770740849764906], [-122.39481945486041, 37.77073439914542], [-122.39482719958104, 37.77072761308376], [-122.39483447641985, 37.77072051081563], [-122.39484126474979, 37.77071311247312], [-122.39484754532864, 37.77070543902753], [-122.39485330035342, 37.77069751223001], [-122.39485851351085, 37.770689354549845], [-122.39486317002371, 37.7706809891108], [-122.39486725669259, 37.770672439625535], [-122.39487076193339, 37.77066373032845], [-122.39487367581013, 37.77065488590693], [-122.3948759900631, 37.77064593143143], [-122.39487769813228, 37.77063689228432], [-122.394878795176, 37.77062779408804], [-122.39487927808455, 37.77061866263239], [-122.39487914548909, 37.77060952380145], [-122.39487839776542, 37.770600403500254], [-122.3948770370331, 37.770591327581286], [-122.39487506714929, 37.77058232177126], [-122.39487249369776, 37.77057341159812], [-122.39486932397332, 37.77056462231881], [-122.39486556696086, 37.7705559788475], [-122.39486123331002, 37.77054750568513], [-122.39485633530508, 37.770539226849834], [-122.39485088682984, 37.770531165808976], [-122.39484490332873, 37.7705233454125], [-122.39483840176257, 37.77051578782826], [-122.39483140056075, 37.77050851447913], [-122.39482391956895, 37.7705015459823], [-122.39481597999284, 37.77049490209081], [-122.39480760433803, 37.77048860163759], [-122.39479881634624, 37.770482662482046], [-122.39478964092795, 37.77047710145945], [-122.39478010409188, 37.77047193433322], [-122.39477023287124, 37.7704671757502], [-122.39476005524709, 37.77046283919922], [-122.39474960006902, 37.77045893697275], [-122.39473889697332, 37.77045548013217], [-122.39472797629911, 37.770452478476315], [-122.39471686900224, 37.770449940513764], [-122.39470560656753, 37.7704478734387], [-122.39469422091955, 37.770446283110516], [-122.39468274433221, 37.77044517403719], [-122.39467120933713, 37.77044454936254], [-122.3946596486315, 37.77044441085729], [-122.39466462958124, 37.77078771107064]]
        ]
      }
    }
  ]
}
