{
  "type": "FeatureCollection",
  "features": [
    {
      "type": "Feature",
      "properties": {
        "project_name": "Rich Sorro Commons",
        "site": "Mission Bay North",
        "status": "complete",
        "use": "residential",
        "geometry_type": "real",
        "digitized_from": "DataSF Building Footprints (mblr SF8706264); name/address from Mission Housing Development Corporation's own project page and press coverage; OpenStreetMap way 679290110 tags the footprint but carries no name/address of its own",
        "digitization_method": "ADDED 2026-09-19 for Mission Bay's block-by-block reconciliation pass, cross-checking OCII's own numbered Land Use Map (Dec 2019, data/manual/_reference/mission_bay_land_use_map_2019.png) against everything already tracked: Rich Sorro Commons, a 101-unit supportive housing building at 150 Berry St for people living with HIV/AIDS and their families, developed by Mission Housing Development Corporation, built 2002 (174,100 sq ft). Also houses a Head Start early-childhood center (152 Berry St) on the ground floor.",
        "accuracy_caveat": "REAL -- surveyed DataSF Building Footprints outline (mblr SF8706264), name/address from Mission Housing Development Corporation's own project page and press coverage; OpenStreetMap way 679290110 tags the footprint but carries no name/address of its own; not a hand trace or plan estimate. ",
        "notes": "",
        "source_doc_urls": [
          "https://www.missionhousing.org/richsorro",
          "https://www.yelp.com/biz/rich-sorro-commons-san-francisco",
          "https://www.openstreetmap.org/way/679290110"
        ]
      },
      "geometry": {
        "type": "Polygon",
        "coordinates": [
          [
            [
              -122.3925118,
              37.7770156
            ],
            [
              -122.3924967,
              37.7770017
            ],
            [
              -122.3924967,
              37.7770016
            ],
            [
              -122.3925985,
              37.7769223
            ],
            [
              -122.3927143,
              37.7770165
            ],
            [
              -122.3927143,
              37.7770166
            ],
            [
              -122.3926903,
              37.7770348
            ],
            [
              -122.3927151,
              37.7770553
            ],
            [
              -122.3927151,
              37.7770554
            ],
            [
              -122.3920532,
              37.7775777
            ],
            [
              -122.3920514,
              37.7775762
            ],
            [
              -122.392037,
              37.7775876
            ],
            [
              -122.3920558,
              37.7776028
            ],
            [
              -122.3918629,
              37.7777531
            ],
            [
              -122.3918478,
              37.7777409
            ],
            [
              -122.3917906,
              37.777786
            ],
            [
              -122.3918052,
              37.7777977
            ],
            [
              -122.3917546,
              37.7778386
            ],
            [
              -122.3914656,
              37.7776073
            ],
            [
              -122.3914691,
              37.7776045
            ],
            [
              -122.3913371,
              37.7774999
            ],
            [
              -122.39135,
              37.7774896
            ],
            [
              -122.3913412,
              37.7774826
            ],
            [
              -122.3913412,
              37.7774825
            ],
            [
              -122.3914984,
              37.7773583
            ],
            [
              -122.3914995,
              37.7773591
            ],
            [
              -122.3915026,
              37.7773566
            ],
            [
              -122.3914981,
              37.777353
            ],
            [
              -122.3914981,
              37.7773529
            ],
            [
              -122.3915358,
              37.7773241
            ],
            [
              -122.3915396,
              37.7773272
            ],
            [
              -122.3915463,
              37.7773219
            ],
            [
              -122.3915421,
              37.7773185
            ],
            [
              -122.3915421,
              37.7773185
            ],
            [
              -122.3915798,
              37.7772896
            ],
            [
              -122.3915833,
              37.7772925
            ],
            [
              -122.3915887,
              37.7772881
            ],
            [
              -122.391585,
              37.7772851
            ],
            [
              -122.391585,
              37.777285
            ],
            [
              -122.3916227,
              37.7772562
            ],
            [
              -122.3916258,
              37.7772587
            ],
            [
              -122.3916382,
              37.7772488
            ],
            [
              -122.3916379,
              37.7772485
            ],
            [
              -122.3916379,
              37.7772485
            ],
            [
              -122.3916531,
              37.7772351
            ],
            [
              -122.391645,
              37.7772269
            ],
            [
              -122.391645,
              37.7772269
            ],
            [
              -122.3917065,
              37.7771801
            ],
            [
              -122.3917672,
              37.7771314
            ],
            [
              -122.3917641,
              37.7771285
            ],
            [
              -122.391764,
              37.7771284
            ],
            [
              -122.391786,
              37.7771052
            ],
            [
              -122.3918171,
              37.7770873
            ],
            [
              -122.3918203,
              37.7770892
            ],
            [
              -122.3918771,
              37.7770442
            ],
            [
              -122.391874,
              37.7770405
            ],
            [
              -122.391874,
              37.7770405
            ],
            [
              -122.3918969,
              37.7770176
            ],
            [
              -122.3919275,
              37.7770001
            ],
            [
              -122.3919307,
              37.7770027
            ],
            [
              -122.391988,
              37.776957
            ],
            [
              -122.3919849,
              37.7769533
            ],
            [
              -122.3919849,
              37.7769532
            ],
            [
              -122.3920064,
              37.7769304
            ],
            [
              -122.3920361,
              37.7769129
            ],
            [
              -122.3920402,
              37.7769137
            ],
            [
              -122.3920996,
              37.7768689
            ],
            [
              -122.392096,
              37.7768656
            ],
            [
              -122.392096,
              37.7768655
            ],
            [
              -122.3921179,
              37.7768434
            ],
            [
              -122.392149,
              37.7768252
            ],
            [
              -122.3921522,
              37.7768289
            ],
            [
              -122.39221,
              37.7767824
            ],
            [
              -122.3922055,
              37.776779
            ],
            [
              -122.3922055,
              37.776779
            ],
            [
              -122.392227,
              37.7767558
            ],
            [
              -122.3922577,
              37.7767375
            ],
            [
              -122.3922618,
              37.7767398
            ],
            [
              -122.3922912,
              37.7767174
            ],
            [
              -122.3923059,
              37.7767289
            ],
            [
              -122.3923264,
              37.7767133
            ],
            [
              -122.3923269,
              37.7767138
            ],
            [
              -122.3923278,
              37.7767131
            ],
            [
              -122.3923674,
              37.7767453
            ],
            [
              -122.3923674,
              37.7767454
            ],
            [
              -122.3923641,
              37.7767479
            ],
            [
              -122.3923627,
              37.7767467
            ],
            [
              -122.3923456,
              37.7767597
            ],
            [
              -122.3923867,
              37.7767916
            ],
            [
              -122.3923867,
              37.7767916
            ],
            [
              -122.392355,
              37.7768145
            ],
            [
              -122.392372,
              37.7768303
            ],
            [
              -122.3923721,
              37.7768303
            ],
            [
              -122.3923524,
              37.7768534
            ],
            [
              -122.3923208,
              37.7768709
            ],
            [
              -122.3923016,
              37.7768565
            ],
            [
              -122.3922448,
              37.7769028
            ],
            [
              -122.3922629,
              37.7769173
            ],
            [
              -122.3922629,
              37.7769174
            ],
            [
              -122.3922403,
              37.7769412
            ],
            [
              -122.3922112,
              37.7769581
            ],
            [
              -122.3921928,
              37.7769433
            ],
            [
              -122.392133,
              37.7769892
            ],
            [
              -122.3921525,
              37.7770053
            ],
            [
              -122.3921525,
              37.7770054
            ],
            [
              -122.3921296,
              37.7770296
            ],
            [
              -122.3921009,
              37.7770454
            ],
            [
              -122.3920813,
              37.777031
            ],
            [
              -122.3920235,
              37.7770772
            ],
            [
              -122.3920411,
              37.7770918
            ],
            [
              -122.3920411,
              37.7770919
            ],
            [
              -122.3920206,
              37.7771151
            ],
            [
              -122.3919904,
              37.7771326
            ],
            [
              -122.3919699,
              37.7771179
            ],
            [
              -122.3919135,
              37.7771633
            ],
            [
              -122.391932,
              37.7771794
            ],
            [
              -122.3919321,
              37.7771795
            ],
            [
              -122.3919087,
              37.7772027
            ],
            [
              -122.3918795,
              37.7772202
            ],
            [
              -122.3918613,
              37.7772066
            ],
            [
              -122.3918091,
              37.7772495
            ],
            [
              -122.3918582,
              37.7772838
            ],
            [
              -122.3918646,
              37.7772785
            ],
            [
              -122.3918957,
              37.7773049
            ],
            [
              -122.3919226,
              37.7773272
            ],
            [
              -122.3919226,
              37.7773272
            ],
            [
              -122.3919205,
              37.7773288
            ],
            [
              -122.3920374,
              37.777433
            ],
            [
              -122.3920704,
              37.7774086
            ],
            [
              -122.3920737,
              37.7774061
            ],
            [
              -122.3920913,
              37.7773931
            ],
            [
              -122.3920446,
              37.7773566
            ],
            [
              -122.3920446,
              37.7773565
            ],
            [
              -122.3924543,
              37.7770358
            ],
            [
              -122.3924597,
              37.7770402
            ],
            [
              -122.3924599,
              37.7770401
            ],
            [
              -122.3924815,
              37.7770207
            ],
            [
              -122.3924919,
              37.7770293
            ],
            [
              -122.3925118,
              37.7770156
            ]
          ],
          [
            [
              -122.3917751,
              37.7773818
            ],
            [
              -122.3916424,
              37.7774884
            ],
            [
              -122.3917504,
              37.7775744
            ],
            [
              -122.391883,
              37.7774684
            ],
            [
              -122.3917751,
              37.7773818
            ]
          ]
        ]
      }
    }
  ]
}
