{
 "type": "FeatureCollection",
 "features": [
  {
   "type": "Feature",
   "properties": {
    "project_name": "Mission Creek Park",
    "site": "Mission Bay South",
    "status": "complete",
    "use": "park",
    "geometry_type": "real",
    "digitized_from": "OpenStreetMap (way 56656116, leisure=park, sfrecpark.org facility page)",
    "digitization_method": "ADDED 2026-09-18 for Mission Bay's real-site pass: real, community-surveyed OpenStreetMap boundary (way 56656116), the same pattern already used for Pier 70's Crane Cove Park (data/manual/pier70_crane_cove_park.geojson) -- not a hand trace or plan-diagram estimate. HIGH CONFIDENCE -- real, community-surveyed OSM polygon (matches SF Rec & Park's own facility listing). OSM also carries other, smaller/overlapping ways for parts of this same park (e.g. way 579664205 further east, and way 27369705); this feature uses the single most detailed, currently-tagged way covering the park's main extent along Mission Creek's south bank. A second pass could merge the full multi-segment shoreline extent.",
    "accuracy_caveat": "HIGH CONFIDENCE -- real, community-surveyed OSM polygon (matches SF Rec & Park's own facility listing). OSM also carries other, smaller/overlapping ways for parts of this same park (e.g. way 579664205 further east, and way 27369705); this feature uses the single most detailed, currently-tagged way covering the park's main extent along Mission Creek's south bank. A second pass could merge the full multi-segment shoreline extent.",
    "p_number": "P1 (Amphitheater, built 2002) and P3 (built) per OCII's Nov 2024 CAC 'Remaining Mission Bay Open Space Parcels Update'; P2 and P8, part of the same named park in OCII's numbering, are separately listed there as unbuilt ('coming soon') and are NOT represented by this record's real, community-surveyed OSM boundary (way 56656116), which reflects only what is actually built. INFERRED which built segment maps to which of P1/P3 -- not explicitly matched in the source. (https://sfocii.org/sites/default/files/2024-11/Item%205%20-%20Remaining%20Mission%20Bay%20Open%20Space%20Parcels%20Update.pdf)",
    "notes": "One of the parks completed as part of Mission Bay's original 1998 plan; open by fall 2010 per Wikipedia's Mission Bay article (citing the neighborhood's own park-completion history) and SF Rec & Park's facility page.",
    "source_doc_urls": [
     "https://www.openstreetmap.org/way/56656116",
     "https://sfrecpark.org/Facilities/Facility/Details/Mission-Creek-Park-North-and-South-449",
     "https://en.wikipedia.org/wiki/Mission_Bay,_San_Francisco"
    ]
   },
   "geometry": {
    "type": "Polygon",
    "coordinates": [
     [
      [
       -122.3971938,
       37.7719325
      ],
      [
       -122.3968768,
       37.7721721
      ],
      [
       -122.3965706,
       37.7724198
      ],
      [
       -122.3963064,
       37.7726284
      ],
      [
       -122.3959286,
       37.7729267
      ],
      [
       -122.3959182,
       37.7729342
      ],
      [
       -122.3958823,
       37.7729617
      ],
      [
       -122.3958452,
       37.7729901
      ],
      [
       -122.3958301,
       37.7730018
      ],
      [
       -122.3952753,
       37.7734388
      ],
      [
       -122.3957277,
       37.7737947
      ],
      [
       -122.3952797,
       37.774141
      ],
      [
       -122.394842,
       37.7737789
      ],
      [
       -122.3942783,
       37.7742369
      ],
      [
       -122.3941654,
       37.7743195
      ],
      [
       -122.3936209,
       37.7747518
      ],
      [
       -122.3935399,
       37.7748423
      ],
      [
       -122.3935219,
       37.7748305
      ],
      [
       -122.3934449,
       37.774893
      ],
      [
       -122.3933009,
       37.7750136
      ],
      [
       -122.3932279,
       37.7750703
      ],
      [
       -122.3930194,
       37.7752359
      ],
      [
       -122.3929459,
       37.7752953
      ],
      [
       -122.3928763,
       37.775241
      ],
      [
       -122.3928201,
       37.7751967
      ],
      [
       -122.3927739,
       37.7751595
      ],
      [
       -122.3927816,
       37.7751282
      ],
      [
       -122.3928091,
       37.7751019
      ],
      [
       -122.3928519,
       37.7750791
      ],
      [
       -122.3930862,
       37.7749936
      ],
      [
       -122.3931457,
       37.7749597
      ],
      [
       -122.3932158,
       37.7749071
      ],
      [
       -122.3934308,
       37.7746826
      ],
      [
       -122.3947519,
       37.7736818
      ],
      [
       -122.3947949,
       37.7735995
      ],
      [
       -122.3948364,
       37.7735452
      ],
      [
       -122.3948793,
       37.7735022
      ],
      [
       -122.3949551,
       37.7734518
      ],
      [
       -122.3949736,
       37.7734661
      ],
      [
       -122.3950972,
       37.7733952
      ],
      [
       -122.3952282,
       37.7732908
      ],
      [
       -122.3962309,
       37.7725192
      ],
      [
       -122.3970866,
       37.7718488
      ],
      [
       -122.3970405,
       37.7718078
      ],
      [
       -122.3976384,
       37.7713509
      ],
      [
       -122.3982015,
       37.7708851
      ],
      [
       -122.3982123,
       37.7708762
      ],
      [
       -122.398671,
       37.7705013
      ],
      [
       -122.3985591,
       37.770411
      ],
      [
       -122.398518,
       37.7703183
      ],
      [
       -122.3985212,
       37.770225
      ],
      [
       -122.3985647,
       37.7701394
      ],
      [
       -122.3986413,
       37.7700803
      ],
      [
       -122.3989559,
       37.7703328
      ],
      [
       -122.3989896,
       37.7703712
      ],
      [
       -122.3994192,
       37.7707158
      ],
      [
       -122.39944,
       37.7707667
      ],
      [
       -122.399426,
       37.770825
      ],
      [
       -122.3993944,
       37.7708674
      ],
      [
       -122.3992503,
       37.770979
      ],
      [
       -122.3992458,
       37.7710076
      ],
      [
       -122.3984132,
       37.7716675
      ],
      [
       -122.3976389,
       37.7722832
      ],
      [
       -122.3971938,
       37.7719325
      ]
     ]
    ]
   }
  }
 ]
}