{
  "type": "FeatureCollection",
  "features": [
    {
      "type": "Feature",
      "properties": {
        "project_name": "499 Illinois Street (Alexandria Center for Science and Technology)",
        "site": "Mission Bay South",
        "status": "complete",
        "use": "institutional",
        "geometry_type": "real",
        "digitized_from": "DataSF Building Footprints (mblr SF3940003); name/address from OpenStreetMap way 84821722 (499 Illinois St)",
        "digitization_method": "ADDED 2026-09-19 for Mission Bay's block-by-block reconciliation pass, cross-checking OCII's own numbered Land Use Map (Dec 2019, data/manual/_reference/mission_bay_land_use_map_2019.png) against everything already tracked: 499 Illinois St, the Alexandria Center for Science and Technology: a 6-story, ~450,000 sq ft biotechnology building (lab, office, retail, parking) completed 2008. UCSF leased space here for over a decade (most recently ~90% of the building) and purchased the building outright from longtime landlord Alexandria Real Estate Equities; UCSF Health also operates a Reproductive Health clinic on the 6th floor.",
        "accuracy_caveat": "REAL -- surveyed DataSF Building Footprints outline (mblr SF3940003), name/address from OpenStreetMap way 84821722 (499 Illinois St); not a hand trace or plan estimate. Shares its DataSF mblr (SF3940003) with the adjacent 490 Illinois St building -- see that file's notes.",
        "notes": "Shares its DataSF mblr (SF3940003) with the adjacent 490 Illinois St building -- see that file's notes.",
        "source_doc_urls": [
          "https://www.fiercebiotech.com/biotech/alexandria-s-499-illinois-street-mission-bay-san-francisco-signs-anchor-97-700-rentable",
          "https://www.sgh.com/project/499-illinois-street/",
          "https://www.openstreetmap.org/way/84821722"
        ]
      },
      "geometry": {
        "type": "Polygon",
        "coordinates": [
          [
            [
              -122.3874973,
              37.7662062
            ],
            [
              -122.3874912,
              37.7661702
            ],
            [
              -122.3874911,
              37.7661693
            ],
            [
              -122.3874854,
              37.7661363
            ],
            [
              -122.3874802,
              37.7660783
            ],
            [
              -122.3874691,
              37.7659757
            ],
            [
              -122.387265,
              37.7659894
            ],
            [
              -122.3870566,
              37.7659486
            ],
            [
              -122.3870546,
              37.7659526
            ],
            [
              -122.3870131,
              37.7659464
            ],
            [
              -122.387013,
              37.7659463
            ],
            [
              -122.387023,
              37.7659272
            ],
            [
              -122.3870151,
              37.7659259
            ],
            [
              -122.3870081,
              37.7659392
            ],
            [
              -122.3868934,
              37.7659184
            ],
            [
              -122.3868934,
              37.7659183
            ],
            [
              -122.3870209,
              37.7656707
            ],
            [
              -122.387151,
              37.7656642
            ],
            [
              -122.3871511,
              37.7656643
            ],
            [
              -122.3871421,
              37.7656815
            ],
            [
              -122.3871686,
              37.7656786
            ],
            [
              -122.387177,
              37.7656622
            ],
            [
              -122.3879104,
              37.7656161
            ],
            [
              -122.3879105,
              37.7656163
            ],
            [
              -122.3879417,
              37.7659446
            ],
            [
              -122.3879417,
              37.7659446
            ],
            [
              -122.3879423,
              37.7659508
            ],
            [
              -122.3879594,
              37.7661306
            ],
            [
              -122.3879257,
              37.766132
            ],
            [
              -122.3879267,
              37.7661365
            ],
            [
              -122.3879256,
              37.7661366
            ],
            [
              -122.3879258,
              37.7661381
            ],
            [
              -122.3879305,
              37.7661378
            ],
            [
              -122.3879306,
              37.766138
            ],
            [
              -122.3879311,
              37.7661426
            ],
            [
              -122.3879313,
              37.7661426
            ],
            [
              -122.3879314,
              37.7661428
            ],
            [
              -122.3879329,
              37.766178
            ],
            [
              -122.3874973,
              37.7662062
            ]
          ]
        ]
      }
    }
  ]
}
