{
  "type": "FeatureCollection",
  "features": [
    {
      "type": "Feature",
      "properties": {
        "project_name": "Pier 70 Building 113/114/115/116 (Union Iron Works Machine Shop)",
        "site": "Pier 70",
        "status": "complete",
        "use": "commercial",
        "geometry_type": "real",
        "digitized_from": "DataSF Building Footprints dataset (real, surveyed building outlines; not tied to an Assessor parcel).",
        "digitization_method": "SPLIT 2026-09-16 from the combined blklot 4111004 row (previously one polygon covering Buildings 113/114 and 115/116 together, since the real Assessor lot has no further official subdivision). CORRECTED same day: an earlier version of this split attempted to separate '113/114' (3 footprint pieces) from '115/116' (1 more southerly footprint) using area matching alone. A geometry-quality check then found that southerly '115/116' footprint overlapping Pier 70 Parcel C1 (a planned, not-yet-built 90ft residential block) by 2580 sq m. Re-checked against Pier 70 D4D Figure 6.4.2 itself (page171.png in this project's cached source PDF, not the previously mis-cached 'heightplan-247.png' which turned out to be a Potrero Power Station figure): Figure 6.4.2 draws ONE undifferentiated light-gray outline box labeled '113-116' entirely NORTH of '21ST ST (NEW)' (a planned/not-yet-built street), at the same latitude band as Parcel PKN -- it does not distinguish 113/114 from 115/116 as separate shapes at all. Transforming that box's pixel bounds (pixel (643,376)-(1073,724) on page171.png) via this site's validated 6-point affine transform gives real-world bounds of lon -122.3866 to -122.3851, lat 37.7597 to 37.7608. Checking all 8 real footprints tagged mblr=SF4111004 against that box: 4 of them (~6787, ~2273, ~632, and ~59 sq m) fall inside it; the remaining 4 (the previously-misassigned ~3937 sq m piece plus 3 much smaller slivers) sit outside it, to the south, overlapping Parcel C1's footprint instead -- i.e. on land that Figure 6.4.2 treats as a separate, not-yet-built development block, not as part of the historic 113-116 complex. Since the diagram itself does not separate 113/114 from 115/116, and the previous area-based attempt to do so conflicted with the diagram's own drawn position, this feature now combines all 4 in-box footprint pieces into one 'Building 113/114/115/116' MultiPolygon rather than fabricate an unsupported split. This is REAL surveyed building geometry, not a diagram trace. CORRECTED 2026-09-17 (user-flagged: 'should expand south, currently looks like it leaves out part of the building'): the 4 pieces excluded above were dropped specifically because they fell outside Figure 6.4.2's own drawn '113-116' box and instead overlapped Parcel C1's THEN-committed position -- but that C1 position was independently found the same day to be badly mispositioned (overlapping the real, official 21st St by over 100m of its length) and has since been ground-truthed to its correct location, well clear of these pieces. Re-examined the largest excluded piece (mblr SF4111004, ~3935 sq m) directly against satellite imagery: it is visibly the same continuous roof structure as the 3 already-included northern pieces (matching roofline, skylight pattern, no gap or seam) -- unambiguously the building's own southernmost bay, not a separate structure. Re-included all 8 real footprint pieces tagged SF4111004 into this feature (previously only 4 were used); combined area increased from ~9,751 to ~13,927 sq m. This is a case where the diagram's own simplified box undersold the real building's true extent -- the real, surveyed footprint takes priority, consistent with how this project treats real building data everywhere else. Confirmed against the now-corrected C1: still overlaps it by ~1,886 sq m (about half of the re-added piece), which is expected, not an error -- this project already documents that several of Pier 70's D4D blocks are sited on existing buildings slated for demolition, and this specific real building's own historic-preservation sourcing (see regulatory_context) notes 'demolition of later metal additions on the west and south facades,' consistent with this real building's southernmost bay being at least partly removed to make way for C1. REVERSED/REFINED 2026-09-17, SAME DAY (user-flagged: 'should remain north of 21st street and not overlap with C1'): the 'expected overlap' reasoning above was a rationalization, not a validated fact -- no source actually ties the demolished additions to this specific footprint piece or to C1's specific footprint, and Figure 6.4.2 draws 113-116 entirely north of 21st St with no overlap onto any south-of-the-street parcel. Checked precisely where the real 21st St centerline (CNN 15233000/15232000) falls relative to the re-added piece: it straddles the piece -- part of the piece's own real footprint sits north of the street (legitimately part of the historic complex as mapped here) and part sits south of it (in the same space as C1). Since this project maps the D4D's planned future, not a survey of exactly what stands today, split this piece at the real 21st St curb line (6.8m north of centerline, this project's standard curb offset) and kept only the northern portion, discarding ~2,996 sq m south of the street. Confirmed 0 overlap with C1 (13.6m gap now, matching the real street's own width). Removed the EXPECTED_OVERLAP_PAIRS entry for 'Building 113-116 x Parcel C1' in check_geometry_quality.py since there is no longer a legitimate overlap to exempt.",
        "accuracy_caveat": "Real, surveyed building footprints -- high confidence in each piece's outline and in the group's overall position (confirmed to sit within Figure 6.4.2's own '113-116' box). Individual identification of which piece(s) correspond to Building 113 vs 114 vs 115 vs 116 specifically is NOT possible from the sources checked -- Figure 6.4.2 draws them as one undifferentiated box, and the 2013 HPC packet's textual description ('115 and 116 abut Building 113/114') does not give a precise position. Rather than guess, this feature represents the combined complex, consistent with how it is actually shown in the source diagram. The combined footprint here (~9751 sq m / ~104,957 sqft) is larger than Building 113/114 alone (~86,100 sqft per its documented 492ft x 175ft footprint) and smaller than 113/114 + 115/116's combined documented GSF (~95,000 + ~38,000 = ~133,000 GSF) -- broadly consistent given GSF can include multi-level floor area not captured by a footprint, but not independently verified piece-by-piece.",
        "why_no_real_parcel": "This parcel (blklot 4111004) has no street address in DataSF's Assessor roll. The real Assessor lot groups Buildings 113/114 and 115/116 into one polygon with no further official subdivision -- this feature uses the real building footprints instead, matched to the specific area of the lot that Figure 6.4.2 itself draws as the historic '113-116' complex.",
        "regulatory_context": "Union Iron Works Machine Shop and Foundry, Buildings 113/114, on the south side of 20th Street just east of Illinois Street -- 'one of the most valuable and most vulnerable historic resources on the site' per the 2013 HPC packet (2013.1168E). Two unreinforced brick structures (Machine Shop, built 1885, and Foundry, built 1886) joined in 1914 by a reinforced concrete connector; building-length skylights, rows of high arched windows; ~95,000 GSF, 492ft long by 175ft wide, ~62ft tall. Buildings 115 and 116 abut Building 113/114, constructed 1916-1917, ~38,000 GSF, 57ft tall, with 'unusual windows and monitor skylights.' At review time the complex was red-tagged and subject to an engineer's advisory of imminent collapse. Rehab by Orton Development Inc. (ODI) included demolition/relocation of later metal additions on the west and south facades, a new steel seismic system tied into the brick perimeter, and demolition of two minor eastern appendages (Buildings 23/24, ~1,500 GSF). Proposed for industrial/warehouse/maker-space use (food, tech, life science, biotech, education, arts production) with ancillary office, showroom, and retail, alongside Building 14, framing a shared ~45,000 sf courtyard.",
        "notes": "Split 2026-09-16 from the combined 'Union Iron Works Machine Shop & Foundry' entry; CORRECTED same day to merge back a mistaken 113/114-vs-115/116 sub-split once it was found to conflict with Figure 6.4.2's own undifferentiated box -- see digitization_method.",
        "images": [],
        "source_doc_urls": [
          "https://www.structuremag.org/",
          "https://savingplaces.org/",
          "https://default.sfplanning.org/meetingarchive/planning_dept/commissions.sfplanning.org/hpcpackets/2013.1168E.pdf"
        ]
      },
      "geometry": {
        "type": "MultiPolygon",
        "coordinates": [
          [
            [
              [
                -122.386362177,
                37.759460863
              ],
              [
                -122.386356981,
                37.759461184
              ],
              [
                -122.386370411,
                37.75960611
              ],
              [
                -122.385675962,
                37.759646676
              ],
              [
                -122.385675927,
                37.759646592
              ],
              [
                -122.385662737,
                37.759504105
              ],
              [
                -122.385531883,
                37.759512194
              ],
              [
                -122.385531872,
                37.759512164
              ],
              [
                -122.38553096460697,
                37.75950231556861
              ],
              [
                -122.38636133481138,
                37.75945244494008
              ],
              [
                -122.386362177,
                37.759460863
              ]
            ]
          ],
          [
            [
              [
                -122.385265882,
                37.759540948
              ],
              [
                -122.385237643,
                37.759542094
              ],
              [
                -122.38523622487536,
                37.759520017137845
              ],
              [
                -122.3852644284671,
                37.75951832327788
              ],
              [
                -122.385265882,
                37.759540948
              ]
            ]
          ],
          [
            [
              [
                -122.385216912,
                37.759668221
              ],
              [
                -122.385210705,
                37.759601452
              ],
              [
                -122.385420295,
                37.759589171
              ],
              [
                -122.385426503,
                37.75965594
              ],
              [
                -122.385216912,
                37.759668221
              ]
            ]
          ],
          [
            [
              [
                -122.386372691,
                37.759607855
              ],
              [
                -122.386387938,
                37.759767772
              ],
              [
                -122.386385885,
                37.759767889
              ],
              [
                -122.386402615,
                37.759940445
              ],
              [
                -122.385712846,
                37.759982595
              ],
              [
                -122.385712816,
                37.759982522
              ],
              [
                -122.385695851,
                37.759807307
              ],
              [
                -122.385696053,
                37.759807225
              ],
              [
                -122.385696023,
                37.759807155
              ],
              [
                -122.385680748,
                37.759647177
              ],
              [
                -122.386372668,
                37.759607796
              ],
              [
                -122.386372691,
                37.759607855
              ]
            ]
          ],
          [
            [
              [
                -122.38572049,
                37.760086641
              ],
              [
                -122.385712187,
                37.75999388
              ],
              [
                -122.386403635,
                37.759954877
              ],
              [
                -122.386403652,
                37.75995492
              ],
              [
                -122.386411953,
                37.760047683
              ],
              [
                -122.385720514,
                37.7600867
              ],
              [
                -122.38572049,
                37.760086641
              ]
            ]
          ],
          [
            [
              [
                -122.385393276,
                37.760134362
              ],
              [
                -122.385397591,
                37.7602135
              ],
              [
                -122.385321911,
                37.760216097
              ],
              [
                -122.385317603,
                37.760136966
              ],
              [
                -122.385393276,
                37.760134362
              ]
            ]
          ],
          [
            [
              [
                -122.385515837,
                37.760147168
              ],
              [
                -122.385515853,
                37.760147205
              ],
              [
                -122.385522843,
                37.760209928
              ],
              [
                -122.385732301,
                37.760197402
              ],
              [
                -122.385722284,
                37.760088423
              ],
              [
                -122.386411258,
                37.760048385
              ],
              [
                -122.386411275,
                37.760048428
              ],
              [
                -122.386421878,
                37.760163643
              ],
              [
                -122.386422271,
                37.76016362
              ],
              [
                -122.386422288,
                37.760163665
              ],
              [
                -122.386440872,
                37.760345124
              ],
              [
                -122.386456735,
                37.760526434
              ],
              [
                -122.385773641,
                37.760567455
              ],
              [
                -122.385773867,
                37.760569837
              ],
              [
                -122.385488296,
                37.760586906
              ],
              [
                -122.385488269,
                37.760586842
              ],
              [
                -122.38548774,
                37.760581263
              ],
              [
                -122.385486685,
                37.760581387
              ],
              [
                -122.385471994,
                37.760583127
              ],
              [
                -122.38480396,
                37.760624311
              ],
              [
                -122.384803936,
                37.760624257
              ],
              [
                -122.384768582,
                37.76026222
              ],
              [
                -122.385420283,
                37.760222044
              ],
              [
                -122.385412746,
                37.760154466
              ],
              [
                -122.385412737,
                37.760154429
              ],
              [
                -122.385515837,
                37.760147168
              ]
            ]
          ]
        ]
      }
    }
  ]
}