{
  "type": "FeatureCollection",
  "features": [
    {
      "type": "Feature",
      "properties": {
        "project_name": "Pier 54 -- shuttered/condemned pier and funded partial demolition",
        "site": "Mission Bay South",
        "status": "being_removed",
        "use": "maritime_industrial",
        "geometry_type": "approximate",
        "digitized_from": "No Assessor block/lot exists for this Port pier structure (confirmed: DataSF's 'Parcels - Active and Retired' dataset, acdm-wktn, has no parcels with PIER-numbered street names). No Port GIS shapefile or site-plan figure was available, so this is a coarse locational box centered on the real DataSF street-centerline address range 500-599 Terry A. Francois Blvd, the address range covering the Pier 52/54 area (California State Parks Division of Boating and Waterways lists a combined 'Pier 54 & Pier 52 BLF' boat-launch facility on Terry A. Francois Blvd in this same stretch). CORRECTED 2026-10-10: the outline is now a hand trace of the pier deck's outer edge on Esri World Imagery (zoom 20, imagery captured 2025-08-29 per docs/satellite-imagery.md), read off a latitude/longitude grid and checked by overlay with the owner. The earlier placeholder box lay in open water south of the pier. Still no Assessor parcel, Port GIS layer or site-plan figure to trace from.",
        "accuracy_caveat": "APPROXIMATE -- a hand trace of the pier deck's visible outer edge on satellite imagery (accurate to a few metres at best), not a surveyed footprint and not a Port or Assessor geometry. It covers the deck and shed only, not the pilings or aprons beneath or beside it, and the pier's true outline under the shed roof cannot be seen.",
        "why_no_real_parcel": "Port pier structure; not on the Assessor's secured roll (data.sf.gov acdm-wktn has no PIER-numbered parcels near this site).",
        "regulatory_context": "Condemned and red-tagged in 2024; the Port announced it would permanently close at the end of 2024, displacing the pier's tenant businesses (SFGate, Sept 2024). The Port's draft Five-Year Capital Improvement Program (FY2027-31, Feb 2026) budgets a 'Pier 54 Shed Demolition' line item totaling $2.0M ($500,000 in FY2026-27 and $1,500,000 in FY2027-28); no line item for full substructure removal appears in that document.",
        "notes": "This is a Port maritime/pier facility, not an OCII Mission Bay South development block -- grouped under the Mission Bay South site here because that is the nearest tracked site and because DataSF's official 'Former San Francisco Redevelopment Agency Project Areas' boundary for Mission Bay South extends north along the Terry A. Francois Blvd shoreline to include this stretch. It is materially farther from Mission Rock's own tracked footprint (Pier 48/50, ~470m away) than from Mission Bay South's nearest tracked features (the UCSF Illinois Street Garage/P24 lawn, ~30m away). Recorded as adjacent rather than tracked because it is Port-jurisdiction maritime infrastructure being demolished, not a Mission Bay OCII development parcel like this site's other tracked records. A derelict timber pier stands just north of this footprint, separate from it (probably Pier 52, a separate Port asset; the identification is not confirmed by a source and it is not part of this record).",
        "digitization_method": "2026-09-28 -- CREATED as a coarse locational box (see accuracy_caveat and digitized_from), anchored to the real DataSF street-centerline address range for Terry A. Francois Blvd covering the Pier 52/54 boat-launch/pier area, then shifted east (further into the Bay, consistent with a pier projecting past the shoreline) so it does not overlap Bayfront Park's or 550 Terry A. Francois Blvd's real, already-tracked footprints (check_geometry_quality.py --strict). No owner review yet. 2026-10-02: public-text pass. accuracy_caveat, digitized_from, notes reworded for readers (meaning unchanged; no change to the shape, status, use or geometry_type); previous wording -- accuracy_caveat: 'APPROXIMATE -- a coarse placeholder box, not a traced footprint, for the same reasons as data/manual/pier70_dry_docks.geojson (no parcel, no source figure). The box does not represent the real pier structure's true shape or its full extent into the Bay.'; digitized_from: 'No Assessor block/lot exists for this Port pier structure (confirmed: DataSF's 'Parcels - Active and Retired' Socrata dataset, acdm-wktn, has no PIER-numbered street_name entries). No Port GIS shapefile or site-plan figure was available, so this is a coarse locational box centered on the real DataSF street-centerline address range 500-599 Terry A. Francois Blvd (data/raw/official_street_centerlines.geojson), the address range covering the Pier 52/54 area (California State Parks Division of Boating and Waterways lists a combined 'Pier 54 & Pier 52 BLF' boat-launch facility on Terry A. Francois Blvd in this same stretch).'; notes: 'This is a Port maritime/pier facility, not an OCII Mission Bay South development block -- grouped under the Mission Bay South site here because that is the nearest tracked site and because DataSF's official 'Former San Francisco Redevelopment Agency Project Areas' boundary (data/raw/redevelopment_project_areas.geojson) for Mission Bay South extends north along the Terry A. Francois Blvd shoreline to include this stretch. It is materially farther from Mission Rock's own tracked footprint (Pier 48/50, ~470m away) than from Mission Bay South's nearest tracked features (the UCSF Illinois Street Garage/P24 lawn, ~30m away) -- see the PR body's geometry test for the full distance comparison. Recorded as adjacent rather than tracked because it is Port-jurisdiction maritime infrastructure being demolished, not a Mission Bay OCII development parcel like this site's other tracked records.'. 2026-10-10 -- CORRECTED: the 2026-09-28 box (lon -122.3851 to -122.3843, lat 37.7692 to 37.7700) lay in open water just south of the real pier deck, found on Esri World Imagery (zoom 20, captured 2025-08-29). Replaced with a 5-corner trace of the deck's outer edge: landward corners at the seawall (-122.38561, 37.77066) and (-122.38557, 37.77024), south edge running to a square tip corner (-122.38335, 37.76938), north edge made parallel to the south edge (both ~24.5 deg south of east) per the owner's review of a first trace whose north edge cut into the deck. Corners read off a lat/lon grid, then checked by overlay. geometry_type stays approximate. Previous coordinates: [[[-122.3851, 37.7692], [-122.3851, 37.77], [-122.3843, 37.77], [-122.3843, 37.7692], [-122.3851, 37.7692]]]. The timber pier just north of the deck was deliberately left out. check_geometry_quality.py now flags non-orthogonal corners here: expected, the deck is a long rectangle angled ~24.5 deg off east and its two landward corners (about 61 and 125 deg) follow the real angled seawall, not a misread corner.",
        "source_doc_urls": [
          "https://www.sfport.com/sites/default/files/2026-02/item_10a.5_attachment_v_fy_2027-31_five-year_cip_draft.pdf",
          "https://discoveryink.wordpress.com/2024/09/08/crumbling-sf-pier-closing-down-forcing-iconic-businesses-to-move/"
        ]
      },
      "geometry": {
        "type": "Polygon",
        "coordinates": [[[-122.38561, 37.77066], [-122.38313, 37.769763], [-122.38335, 37.76938], [-122.38501, 37.76998], [-122.38557, 37.77024], [-122.38561, 37.77066]]]
      }
    }
  ]
}
