{
  "type": "FeatureCollection",
  "features": [
    {
      "type": "Feature",
      "properties": {
        "project_name": "Piers 68 & 70 Dry Docks -- emergency stabilization and planned demolition",
        "site": "Pier 70",
        "status": "being_removed",
        "use": "maritime_industrial",
        "geometry_type": "approximate",
        "digitized_from": "No Assessor block/lot exists for this Port tideland/water-lot facility (confirmed: DataSF's 'Parcels - Active and Retired' Socrata dataset, acdm-wktn, has no PIER-numbered street_name entries at all near this site, consistent with pier and dry-dock structures sitting outside the Assessor's secured roll). No Port GIS shapefile or site-plan figure for the Piers 68/70 shipyard footprint was available to digitize from directly, so this is a coarse locational box only, centered near the shipyard's known entrance at 20th and Illinois St (real DataSF street-centerline intersection, data/raw/official_street_centerlines.geojson) and sized to sit between the tracked Pier 70 parcel's own northern edge (Crane Cove Park, data/manual/pier70_crane_cove_park.geojson, max latitude 37.76406) and Mission Bay South's nearest tracked features (the UCSF Illinois Street Garage and the P24 waterfront lawn, data/processed/approximate_projects.geojson, both of which reach south to roughly latitude 37.7644-37.7648) -- the real Piers 68/70 shipyard, described in Port materials as a 13-acre facility at the 'northeast corner' of the complex including Dry Dock No. 2 and the Eureka Dry Dock, occupies this narrow shoreline gap and extends east into the Bay itself, which this box does not attempt to trace.",
        "accuracy_caveat": "APPROXIMATE -- a coarse placeholder box, not a traced footprint. This is a Port tideland facility with no Assessor parcel and no source site plan or GIS shapefile was found to digitize the actual dry-dock basins, cranes and sheds from. The box is anchored to two real points (the 20th/Illinois St intersection, and the narrow real gap between Pier 70's and Mission Bay South's own tracked geometry) but does not represent the true shape or full extent of the 13-acre shipyard, which projects east into the Bay beyond what a land-based box can show. Needs replacement with a real digitized footprint if a Port GIS layer or the Dry Dock Memorandum's own site figure becomes available.",
        "why_no_real_parcel": "Port tideland/water-lot facility; not on the Assessor's secured roll (data.sf.gov acdm-wktn has no PIER-numbered parcels near this site).",
        "regulatory_context": "Dry Dock No. 2 (a ~1940s-era floating dry dock) developed excessive listing after hull tears and uncontrolled ballast-tank flooding in November 2025; the Port Commission President and Executive Director declared an emergency on 2025-12-08 (Port Commission memo, Calendar Item 9A, 2026-01-09). Port staff anticipate advertising a demolition-services contract in summer 2026 for Dry Dock No. 2 and the neighboring Eureka Dry Dock (a second floating dry dock at Piers 68/70, formerly USS Steadfast/AFDM-14 -- not the 1890 ferryboat Eureka at Hyde Street Pier/SF Maritime NHP). Total estimated cost of stabilization and disposal is $61.2M (Capital Planning Committee memo, 2026-02-09); see the record file for the funding breakdown and what remains unfunded.",
        "notes": "Distinct from and outside the boundary of Brookfield's tracked 28-acre Pier 70 D4D redevelopment parcel and the separately-delivered Crane Cove Park, per the Port's own description of the Pier 70 shipyard/dry docks as a separate 13-acre facility (closed 2017) at the complex's northeast corner.",
        "digitization_method": "2026-09-28 -- CREATED as a coarse locational box (see accuracy_caveat and digitized_from), not a traced footprint: no Assessor parcel, Port GIS layer or site-plan figure was available. Anchored between the tracked Pier 70 parcel's real northern edge (Crane Cove Park) and Mission Bay South's nearest tracked features, near the shipyard's documented 20th/Illinois St entrance, then shifted east (further into the Bay, consistent with piers/dry docks projecting past the shoreline) so it does not overlap Crane Cove Park's or the UCSF Illinois Street Garage's real, already-tracked footprints (check_geometry_quality.py --strict). No owner review yet; replace with a real digitized footprint if a Port GIS layer or figure becomes available.",
        "source_doc_urls": [
          "https://www.sfport.com/sites/default/files/2026-01/011326_9a_info_on_dry_dock_and_emergency_declaration_for_stabilization_and_future_demolition.docx.pdf",
          "https://onesanfrancisco.org/sites/default/files/2026-02/Agenda%20Item%204%20-%20CPC%20Memo%20-%20Port%20-%20Dry%20Docks%20Supplemental_Signed.pdf",
          "https://missionlocal.org/2026/02/port-of-san-francisco-dry-dock-pier-68-70/"
        ]
      },
      "geometry": {
        "type": "Polygon",
        "coordinates": [[[-122.3859, 37.7644], [-122.3859, 37.766], [-122.3847, 37.766], [-122.3847, 37.7644], [-122.3859, 37.7644]]]
      }
    }
  ]
}
