{
  "type": "FeatureCollection",
  "features": [
    {
      "type": "Feature",
      "properties": {
        "project_name": "Pier 70 Parcel H1",
        "site": "Pier 70",
        "status": "planned",
        "use": "mixed",
        "geometry_type": "approximate",
        "digitized_from": "Pier 70 Design for Development, Figure 6.4.2 - Maximum Building Height (p.155).",
        "digitization_method": "REDONE 2026-09-14: the previous version of this polygon was traced using a transform fit from 5 street intersections plus Historic Building 12's real footprint as a 6th anchor. A user-flagged visual comparison against satellite imagery showed the resulting blocks were systematically rotated/sheared (~13-14 degrees off, and not even mutually orthogonal) relative to the real street grid -- confirmed by comparing traced block bearings against the real, independently-surveyed Building 14 footprint (DataSF Building Footprints, blklot 4052001), which sits at the real street grid's true orientation (~356/86 degrees, consistent with SF's known ~4-degree grid skew). Root cause: an error in the original corner-correspondence matching, not a diagram-scan distortion. REBUILT using a fresh 6-point affine transform: 5 real street-intersection control points (20th St x Illinois St, 20th St x Michigan St, 21st St x Illinois St, 21st St x Michigan St, 22nd St x Illinois St -- fetched from OpenStreetMap via this project's own src/fetch_streets.py) plus the real, independently-confirmed centroid of Historic Building 12's own Assessor parcel (blklot 4114010) as a 6th, spatially-distant anchor. This fit has a residual error of 1-8m against its own 6 control points (far tighter than the previous transform), AND was validated by checking that it reproduces the correct real-world bearing (independently confirmed via Building 14's footprint) rather than just checking point-position error, which is what let the previous version's shear go undetected. Pixel corners for this block were re-read directly from Figure 6.4.2 with fresh, fine-grained crops. Residual error against the 6 control points is roughly 1-8m; treat vertex positions as accurate to roughly 5-15m given the additional (small) error from reading this specific block's own corners off the diagram. OVERLAP FIX 2026-09-14: a project-wide overlap audit found this block spatially overlapping Potrero Power Station Block 3/4 in real-world coordinates near the two sites' shared border -- a genuine disagreement between Pier 70's and Potrero's independent transforms, not a same-site priority call. Clipped back from Potrero's blocks, since Potrero's transform was independently validated against real building bearings (Sophie Maxwell/UCSF) earlier in this project, while this specific southern edge of Pier 70 has not been satellite-verified. CORRECTED 2026-09-16 (Pier 70 systematic feature-by-feature pass): a batch color-region check found this block's committed shape was roughly 55-85m too far south and somewhat too wide versus the diagram's actual fill. Re-measured programmatically instead of by eye: isolated this legend color (RGB [128,193,219]) across the combined H1/H2 area, split at the real internal divider (the dashed sub-division line at pixel x~1701-1746, using its midpoint x~1723 as the H1/H2 boundary), and extracted a clean rectangular contour (OpenCV) for this block at pixel (1466,1300)-(1723,1462). Converted via the same validated 6-point affine transform. Re-confirmed zero overlap with Potrero Block 3/4 (the cross-site fix above still holds with this new, smaller shape) and zero overlap with H2. CLIPPED 2026-09-17 (street/curb re-anchoring pass, prompted by a user question about validation process consistency): this block's own north edge was directly confirmed, by rendering it against Esri World Imagery, to sit on top of real, currently-paved, actively-used street pavement (visible lane markings and/or vehicles in the satellite image), not a corner-lot sliver -- one of several Pier 70 blocks found this way after this project switched its real-street reference from OSM (community-traced, name-matched ways) to DataSF's own official Street Centerline / Curbs and Islands datasets (src/street_geometry.py), which for the first time gave an accurate enough curb position to see it. Clipped via shapely difference() against the corrected real-street buffer (6.8m centerline half-width, empirically measured against real curb data near Pier 70 -- see street_geometry.py); area 4025 -> 2536 sq m. The clip's result was a MultiPolygon (the street cut disconnected a 114 sq m sliver from the main body); kept only the larger piece, consistent with how this project has handled the same situation elsewhere (Mission Rock Square, Potrero Block 7). This is a targeted correction of this block's street-facing edge, not a re-verified re-trace of its other edges, which still carry this site's usual diagram-transform uncertainty. 2026-09-29 accuracy audit: the Assessor identifiers named in this log (Building 14's footprint as blklot 4052001; Building 12's Assessor parcel as blklot 4114010) come from DataSF (Building Footprints and Assessor parcels; repo copies in data/raw), not from the D4D cited for this file. Blklot 4052001 is a legacy lot: DataSF retired it on 2018-10-02 (Assessor parcels, acdm-wktn), its footprints carry mblr SF4052001, and the footprint layer does not name any of them 'Building 14'. Blklot 4114010 is an active lot at 1070 Maryland St that DataSF does not name 'Building 12'; that identity rests on the address given in tenant sources.",
        "accuracy_caveat": "APPROXIMATE -- this block is not yet built (Port Item 11A, Aug 2026: the developer 'has not exercised an option of any Phase 1 option parcels'), and no source read ties it to a specific Assessor lot: DataSF's Assessor parcels include new lots created for the 28-acre district in 2019, without street addresses, but which lot (if any) is this block's was not established. It currently sits on vacant/graded land, surface parking, or an existing industrial building slated for demolition within Brookfield's 28-acre district. Redone 2026-09-14 with a corrected, shear-free transform (see digitization_method) -- treat vertex positions as accurate to roughly 5-15m, not survey-grade. NOTE: this polygon is NOT clipped against real streets or existing buildings -- unlike Potrero's approximate blocks, several of Pier 70's D4D blocks are sited on existing industrial buildings that will be demolished, so overlap with a currently-real building is often expected, not an error; a boundary that appears to touch or slightly cross a street centerline reflects this transform's 1-8m residual error, not a deliberate encroachment. Street-facing edge re-clipped 2026-09-17 against official curb-referenced street data -- see digitization_method.",
        "why_no_real_parcel": "No source read ties this block to a specific Assessor lot. DataSF's Assessor parcels include lots created for Brookfield's 28-acre district in 2019 (for example, Port Item 12B, Feb 2020, gives Parcel E2 as Block 4116, Lot 008), but this block's own lot was not identified, so this uses hand-traced approximate geometry instead.",
        "regulatory_context": "Flexible commercial-office/residential parcel: D4D Figure 2.1.1 stripes H1 as Commercial-Office and Residential; the baseline (Mid-Point) and Maximum Residential scenarios show it residential and only the Maximum Office scenario shows it commercial. 90 ft max per Figure 6.4.2; six stories for commercial buildings and nine for residential (D4D Section 6.4.2). An earlier note citing Brookfield's leasing brochure (pure office use; a combined ~430,000 RSF for H1-H2) was removed 2026-09-29 because the brochure is not cited or retrieved. No construction-start source found.",
        "notes": "Approximate polygon for a real, D4D-adopted parcel -- see accuracy_caveat. Status planned: Port Item 11A (Aug 2026) says construction of Phase 1 vertical projects and parks has not moved forward.",
        "images": [],
        "source_doc_urls": [
          "https://www.sfport.com/media/8123/download?inline=",
          "https://www.sfport.com/sites/default/files/2026-08/item_11a_p70_project_update_-_term_sheet_overview_-_information.pdf"
        ]
      },
      "geometry": {
        "type": "Polygon",
        "coordinates": [
          [
            [
              -122.3826863,
              37.7579527
            ],
            [
              -122.38348242732751,
              37.757883305419334
            ],
            [
              -122.383514616,
              37.758216657
            ],
            [
              -122.38270693095971,
              37.75826122049542
            ],
            [
              -122.3826863,
              37.7579527
            ]
          ]
        ]
      }
    }
  ]
}