{
  "type": "FeatureCollection",
  "features": [
    {
      "type": "Feature",
      "properties": {
        "project_name": "Pier 70 Building 2 (Warehouse No. 2)",
        "site": "Pier 70",
        "status": "existing",
        "use": "commercial",
        "geometry_type": "approximate",
        "digitized_from": "Pier 70 Design for Development, Figure 6.4.2 - Maximum Building Height (p.155).",
        "digitization_method": "REDONE 2026-09-14: the diagram-transform version of this polygon (described below, kept for history) placed Building 2 entirely on the paved road median of Illinois St -- confirmed wrong against satellite imagery (no structure there at all). User pointed out the real match is not the warehouse building across the street, but the large vacant/graded lot on the WEST side of Illinois St, between roughly 20th and 21st St -- its silhouette (elongated, tilted a few degrees off true north, matching the local curb bearing) is the same shape being traced, just larger. Re-traced directly from that lot's own visible boundary: anchored on two points read off the lot's real east edge (the Illinois St curb, high-contrast and unambiguous), which gave a measured bearing of ~182.3/272.3 degrees. CORRECTED same day: user caught that this made the east edge visibly non-parallel to the real curb -- the two curb points used for that bearing were only ~13m apart (an 80m along-curb baseline but just ~3.5m of east-west offset between them), so a 1-2 pixel misreading at zoom 20 (~0.3-0.6m each) was enough to swing the derived bearing by several degrees -- exactly the 'reading points too close together, small errors don't cancel' failure this project's bearing_trace.py already warns about, repeated instead of heeded. Fixed by using this site's already-established, multiply-validated grid bearing (176.5/356.5 degrees, from Historic Building 14's real surveyed footprint, and consistent with Block B's own independently-confirmed ~175 degrees) instead of re-deriving a fresh one from a short noisy baseline; kept the same real anchor point and the same independently-measured distances (~126m north-south, ~51m east-west). SECOND CORRECTION, same day: user caught that the resulting rectangle still overlapped the street -- the anchor point itself (read near a crosswalk with parked cars and shadow clutter) was actually ~8-9m INSIDE the road, not on the curb, even though the bearing was by then correct. Root cause: misread the sidewalk/asphalt color transition in a cluttered spot. Re-read the curb at two clean, unobstructed points well clear of any crosswalk (via a brightness-transition scan of the sidewalk-to-asphalt boundary at zoom 20, cross-checked against the pixel-to-lonlat math directly rather than by eye), which independently reproduced the same 176.57 degree bearing (confirming the established bearing was never the problem) but placed the curb about 8.5m further west than the previous anchor. Extrapolated the corrected curb line to the same north/south extents and rebuilt the west edge at the same 51m width. Overlay-checked both the north and south corners individually afterward: the east edge now sat on the sidewalk side of the curb along its whole length, not on the asphalt. THIRD CORRECTION, same day: user pointed out the east edge was still at the OUTER (curb) side of the public Illinois St sidewalk, meaning the polygon's area included the whole ~4.5m-wide public sidewalk itself, not just the private lot -- and that the south edge (the cross-street's own sidewalk/crosswalk) had the identical problem, cutting straight through the crosswalk stripe pattern rather than stopping at the back of that sidewalk. Fixed both: re-read the INNER (lot-side/back-of-sidewalk) edge of the Illinois St sidewalk, at the dirt-to-concrete color transition on the lot side rather than the concrete-to-asphalt transition on the street side (found ~4.5m west of the previous curb-line anchor, at the same validated 176.5 degree bearing -- confirms this project's east edges up to now, including PKN/PKS/E1/E2/HDY3 etc., were anchored on curbs; worth re-checking whether any of those also failed to exclude a real sidewalk). Re-read the south edge similarly: found the true back-of-sidewalk transition on the lot side of the cross-street's own sidewalk (north of its crosswalk stripes, not through them) and rebuilt the south edge through that point, perpendicular to the same established bearing, solving for new SE/SW corners as the intersection with the (unchanged) east and west edge lines. Overlay-confirmed the south edge now runs clear of the crosswalk stripes along its whole length. FOURTH CORRECTION (negligible, ~0.17m): when generalizing this fix into a reusable, tested function (bearing_trace.rectangle_from_four_edges, added along with src/test_bearing_trace.py), recomputing NE from the same raw measured anchors gave a corner ~0.17m from the hand-computed one above (accumulated rounding across several manual correction passes) -- adjusted NE to match the function's output exactly, so the file and the tested reconstruction agree bit-for-bit rather than by coincidence. See src/test_bearing_trace.py for the from-scratch reconstruction this geometry must continue to match. NOTE: this lot is visibly larger (~126m x 51m) than Warehouse No. 2's documented 236ft x 76ft (~72m x 23m) footprint, and satellite imagery shows no internal boundary, fence, or foundation distinguishing a smaller building footprint within it -- the lot currently reads as a single, undivided vacant/graded surface, which is actually consistent with this file's own (previously contradictory) accuracy_caveat text describing 'vacant/graded land,' despite regulatory_context describing Warehouse No. 2 as an existing historic structure. This polygon is therefore the best satellite-confirmable placeholder (the real, shared lot the building's documented footprint sits within) but is NOT a precise building footprint -- treat it as an upper bound on Building 2's true location, not the building's actual extent, and treat the 'historic structure, existing' status in this file with caution pending a source that resolves the discrepancy. Overlaps Parcels C1 and C2 (860 m2 and 1035 m2) in this project's own overlap QA -- not clipped, because all three are approximate placeholders competing for the same currently-undivided vacant lot; clipping any of them against another would not make any of them more accurate. See C1/C2's own accuracy_caveat for the matching note. Prior diagram-transform method (for history): traced from the Pier 70 Design for Development's own Figure 6.4.2 (Maximum Building Height, p.155) -- an adopted regulatory diagram with a printed scale bar, north arrow, and real street labels, not an illustrative rendering. Georeferenced using 5 real street-intersection control points (Illinois St and Michigan St, each crossing 20th St and 21st St) fetched from OpenStreetMap via this project's own src/fetch_streets.py, plus the real, independently-confirmed position of Historic Building 12 (blklot 4114010) as a 6th anchor, fit as a least-squares affine transform. Residual error against the fitted control points is roughly 8-25m -- wider than Mission Rock's equivalent transform (which had more, better-distributed real street intersections available). RELOCATED 2026-09-16 (full Pier 70 geometry restart): the west-lot placement above is WRONG, not just imprecise. Root cause: this project's own D4D research had already surfaced that Building 21's sourcing describes 'the historic node of Buildings 2, 12, and 21' (Figure 3.6.1's caption) -- i.e. Building 2 should sit immediately next to the real, confirmed positions of Building 12 (blklot 4114010) and Building 21 (re-traced 2026-09-16), on the EAST side of the site near Maryland St. It does not; Figure 6.4.2 itself confirms this directly, showing a gray 'Historic Building' box labeled plainly '2' immediately next to the 'D' and '12' boxes in that same east cluster -- not anywhere near Illinois St/C1/C2 where the west-lot version was placed. The west-lot placement was a guess made without checking this: it was chosen only because it was the nearest large satellite-visible vacant/graded surface west of Illinois St, without cross-referencing the diagram's own explicit label placement for '2', and without noticing that a 126m x 51m 'whole shared lot' was already flagged in this very file as 4x larger than Warehouse No. 2's documented 236ft x 76ft footprint -- a mismatch that should have been the tell. Re-traced this block's real position directly: isolated the gray 'Historic Building' legend color (RGB [148,150,153]) in the east cluster, extracted a clean rectangular contour (OpenCV) at pixel (1140,737)-(1206,961), and converted via the same validated 6-point affine transform used for Building 21 and the numbered parcels. Resulting area (~15,235 sqft) is a close match (85%) to the documented 236ft x 76ft (~17,936 sqft) footprint -- strong independent confirmation this is the right building, unlike the west-lot version's 4x-oversized mismatch. Confirmed zero overlap with Building 21, Parcel D, or Building 12 Plaza. The former west-lot placement's own extensive correction history (five passes, all satellite-based) is kept below for the record, but none of that work applies to this building's real position -- it was carefully refining the wrong location.",
        "accuracy_caveat": "APPROXIMATE -- RELOCATED 2026-09-16 from an incorrect west-lot placement (see digitization_method) to Figure 6.4.2's own labeled '2' Historic Building box, in the same east-side node as Buildings 12 and 21. Programmatically traced from this legend color, not hand-verified vertex-by-vertex; treat vertex positions as accurate to roughly 5-15m, consistent with this site's other diagram-traced parcels. The close match (85%) between this trace's area and Warehouse No. 2's documented 236ft x 76ft footprint is a good independent sanity check, but this is still a simplified rectangle, not a surveyed building outline.",
        "why_no_real_parcel": "A real Assessor parcel may exist under this block (part of Brookfield's larger, largely unaddressed 28-acre site), but it has not been subdivided per the masterplan's individual named parcels -- this uses hand-traced approximate geometry instead.",
        "regulatory_context": "Officially 'Warehouse No. 2' per the D4D (Section 6.6.1), a historic industrial shop structure, footprint 236 ft x 76 ft. Brookfield's own leasing brochure lists its use as 'Office' (creative office), ~100,000 RSF of leasable space -- roughly double a sometimes-cited '~50,000 GSF, Arts/Maker' description, which understates both its size and its actual designated use. No source found confirms whether rehabilitation has started; absent from the Port's own June 2025 progress update.",
        "notes": "Approximate polygon for a real, D4D-adopted parcel -- see accuracy_caveat.",
        "images": [],
        "source_doc_urls": [
          "https://www.sfport.com/media/8123/download?inline="
        ]
      },
      "geometry": {
        "type": "Polygon",
        "coordinates": [
          [
            [
              -122.3848401,
              37.7598247
            ],
            [
              -122.3847977,
              37.759192
            ],
            [
              -122.3845694,
              37.7592119
            ],
            [
              -122.3846116,
              37.7598418
            ],
            [
              -122.3848401,
              37.7598247
            ]
          ]
        ]
      }
    }
  ]
}