{
  "type": "FeatureCollection",
  "features": [
    {
      "type": "Feature",
      "properties": {
        "project_name": "PG&E Southern Switchyard (outside the project boundary; not part of redevelopment)",
        "site": "Potrero Power Station",
        "status": "existing",
        "use": "commercial",
        "geometry_type": "approximate",
        "digitized_from": "Potrero Power Station Design for Development, Figure 6.2.3 - Building Height Plan (p.245).",
        "digitization_method": "Figure 6.2.3 itself labels a large blank area west of Illinois Street, outside its own dash-dot 'Project Site Boundary' line, as 'SWITCHYARDS (PG&E)' -- explicitly marking it as PG&E-retained land excluded from the D4D redevelopment (consistent with public reporting that PG&E retains an active electrical switchyard here and it was not included in the site sale). This polygon traces the full blank rectangular area shown on the diagram (bounded by 3rd St, Illinois St, 22nd St, and 23rd St), georeferenced using the same 8-point affine transform used for this site's open-space entries (Block 1 and Block 12 corners; residual error 15-24m). OVERLAP FIX 2026-09-14: Clipped against Block 13 -- resolved a 5225 m2 overlap found in a project-wide overlap audit; Block 13 (a numbered D4D block) takes priority over this switchyard marker's own already-acknowledged low-confidence placement. OVERLAP RE-FIX 2026-09-16: Block 13 was rebuilt via GDAL GCP/TPS georeferencing (see that block's own digitization_method) and its west edge shifted, re-creating a small (~143 m2) overlap with this polygon at Block 13's SW corner. Re-clipped against Block 13's new geometry -- same precedence rule as the 2026-09-14 fix (Block 13, a numbered D4D block, takes priority over this switchyard marker's own already-acknowledged low-confidence placement). Removed 0.24% of this polygon's area. REPOSITIONED 2026-09-16: the user flagged that the D4D diagram shows the switchyards directly adjacent to Block 5 (sharing a boundary, not separated by any street), while this polygon's east edge sat roughly 60m west of Block 5's new TPS-derived position -- a real positioning error, not just a scale issue. Went back to the diagram with precise pixel measurement (programmatic black-pixel border detection): the 'SWITCHYARDS (PG&E)' label and its dash-dot Project Site Boundary actually start at the same north-south line as Humboldt Street (aligned with Block 13's south edge), NOT as far north as 22nd Street as the original digitization_method claimed -- that over-extension northward is also why this polygon kept needing to be re-clipped against Block 13 after every Block 13 geometry update. The diagram's true switchyard boundary is a small notched/stepped shape hugging Block 5's own west and south edges; simplified here to a clean rectangle sharing Block 5's exact west edge (so they genuinely touch, matching the diagram) and bounded north by the Humboldt St line, south by 23rd St, west by Illinois St -- dropping a ~15m-wide, minor notch near the NW corner for simplicity. This also shrinks the polygon from the previous ~13-acre box down to roughly the diagram's true footprint (closer to the ~4.8-acre real switchyard size cited in public reporting -- see below), so it should now double as a materially better area estimate too, though it's still a diagram-shaped placeholder, not a surveyed fenceline. RE-RUN 2026-09-16 (fourth pass) after correcting a mis-measured GCP elsewhere on this site (see Block 8/12's digitization_method) -- this polygon shifted a few meters, well within its already-stated low-confidence tolerance; Block 5 shifted by a similar small amount, so they remain in contact. RESHAPED 2026-09-16 (fifth pass): user pointed out the switchyard should stretch to the corner of 23rd Street and Georgia Lane per the diagram -- re-examining the same pixel crop used for the fourth-pass reposition showed the dash-dot Project Site Boundary does NOT stop at Block 5's own south edge (where the prior pass's simplified rectangle stopped); it continues south along Block 5's east edge all the way to 23rd Street, meaning the switchyard also wraps around Block 5's south side, not just its west side. Rebuilt as a 9-vertex polygon: the north and west edges are unchanged, but it now follows Block 5's own west-then-south boundary (reusing Block 5's already-committed vertices directly, so it shares an exact edge and cannot overlap Block 5) out to Block 5's own SE corner, then drops straight down to 23rd Street, then back west to close. Block 5's SE corner lands within real Georgia Lane's own OSM-measured longitude range, confirming this reaches that corner as the user described. This also happens to bring the polygon's area to ~4.6 acres, very close to the ~4.8-acre real switchyard size cited in public reporting -- a good independent sanity check, though still coincidental rather than a survey match. 2026-09-29 accuracy audit: the source_doc_urls entry pointed to the August 22, 2019 public-review draft #2 of the Design for Development (potrero_power_D4D_draft-082219.pdf), which now returns 404 and has no archive snapshot; it has been repointed to the adopted final D4D (February 26, 2020, https://sfplanning.org/sites/default/files/documents/citywide/potreropower_D4D_final.pdf), where Figure 6.2.3 Building Height Plan is on printed p.245 (PDF p.247) and Table 3.1.1 Permitted Uses on printed p.47, and whose footers carry the February 26, 2020 date; the SF Planning project page (https://sfplanning.org/potrero-power-station) is added as the source for status and phasing. Three statements in the log above are corrected. (1) The first sentence says Figure 6.2.3 labels a blank area 'west of Illinois Street': the 'SWITCHYARDS (PG&E)' label sits east of Illinois Street, between Illinois Street and Georgia Lane beside Block 5 (as the later passes in this log already assume). (2) This polygon is the PG&E Southern Switchyard, not the 4.8-acre switchyard at 22nd and Illinois: the final D4D (p.12 and Figure 1.2.1 Site Boundaries and Ownership) shows two PG&E switchyards, the Northern Switchyard (4.8 acres, at 22nd and Illinois, inside the project site boundary, the D4D's 'PG&E Sub-area', which lies under Blocks 13 and 14 in this dataset) and the Southern Switchyard, which is outside the boundary; the October 7, 2020 Phase 1 approval's Figure 22 labels this spot 'PG&E SOUTHERN SWITCHYARD' (as reported by the audit reviewer; that figure is an image not re-read here). (3) The log's remarks that the ~4.6-acre area is close to 'the ~4.8-acre real switchyard size' are therefore not a valid check: the 4.8 acres belongs to the Northern Switchyard, the D4D gives no area for the Southern one, and the near match is a coincidence.",
        "accuracy_caveat": "LOW CONFIDENCE, DIRECTIONAL ONLY -- this is a materially weaker approximation than this site's numbered blocks. This polygon marks the PG&E Southern Switchyard, which the final D4D (p.12, Figure 1.2.1) places outside the project site boundary, between Humboldt and 23rd Streets west of Block 5. The 4.8-acre PG&E parcel at 22nd and Illinois that public reporting and SF Planning describe is the separate Northern Switchyard, which is inside the project boundary and is not what this polygon shows (this dataset represents that area as Blocks 13 and 14). This polygon's reshaped area is ~4.6 acres, but the D4D gives no area for the Southern Switchyard, so that figure is not a check against anything. The D4D diagram does not further subdivide this area (it is entirely outside the project site boundary, so the D4D had no reason to draw its actual fenceline), so the true switchyard footprint may still differ in detail from this trace. Treat this polygon as marking the correct general block and rough shape (including wrapping around Block 5's south side to 23rd St/Georgia Lane), not the switchyard's real surveyed boundary.",
        "why_no_real_parcel": "No DataSF Assessor parcel search (by address, by zoning code, or by proximity) turned up a distinctly-shaped, plausibly-switchyard-sized real parcel here -- parcels.geojson's records in this area are either large undifferentiated placeholder shapes (shared across many of this site's D4D blocks, per this dataset's other Potrero entries) or small unrelated lots. Real ownership and the 'not part of the sale' status are well-documented in secondary sources, but a precise Assessor-parcel-level boundary was not found. (This is our own parcel-search narration, not something the cited Design for Development can establish; the D4D does not address Assessor parcels.) The 2018 draft EIR (Vol. 1, Ch. 2) describes the 4.8-acre PG&E sub-area (the Northern Switchyard) as a portion of Assessor's Block 4175/Lot 018, so an Assessor lot reference exists for that one; none was found for the Southern Switchyard drawn here.",
        "regulatory_context": "The PG&E Southern Switchyard: one of two PG&E switchyards at the western end of the Potrero Power Station site (final D4D p.12, Figure 1.2.1), south of the 4.8-acre Northern Switchyard and north of the Transbay Cable site, outside the project site boundary; labelled 'SWITCHYARDS (PG&E)' on Figure 6.2.3, between Illinois Street and Georgia Lane beside Block 5. The 4.8-acre Northern Switchyard at 22nd and Illinois Streets, 'currently owned and operated by PG&E as an electrical switchyard' (SF Planning project page), is a different feature: it is within the 29-acre master plan and the project boundary, and the D4D sets standards for redevelopment of the entire PG&E Sub-area (this dataset represents that area as Blocks 13 and 14). For the Southern Switchyard drawn here, 'outside the project site boundary' is the D4D's statement; the 1990s CPUC divestiture EIR describes a switchyard in the southwest portion of the plant site along the east side of Illinois Street that 'is not part of the sale, and will be retained by PG&E'. Recorded as status='existing' on the strength of the February 2020 D4D showing it; no more recent source was found. use='commercial' is the nearest category in this map's use list; the feature is an electrical switchyard, a utility use (the D4D's 'Utility and Infrastructure' category), and the map has no utility category.",
        "notes": "Directional placeholder only -- see accuracy_caveat. Do not treat the polygon shape as the switchyard's real fenceline.",
        "images": [],
        "source_doc_urls": [
          "https://sfplanning.org/sites/default/files/documents/citywide/potreropower_D4D_final.pdf",
          "https://sfplanning.org/potrero-power-station",
          "https://ia.cpuc.ca.gov/environment/info/esa/divest-pge-two/eir/chapters/02-projd.htm"
        ]
      },
      "geometry": {
        "type": "Polygon",
        "coordinates": [
          [
            [
              -122.387127,
              37.756686
            ],
            [
              -122.38604,
              37.756772
            ],
            [
              -122.385963,
              37.756091
            ],
            [
              -122.385432,
              37.756128
            ],
            [
              -122.385423,
              37.756024
            ],
            [
              -122.385118,
              37.756043
            ],
            [
              -122.385118,
              37.75545
            ],
            [
              -122.386984,
              37.75545
            ],
            [
              -122.387127,
              37.756686
            ]
          ]
        ]
      }
    }
  ]
}