{
  "type": "FeatureCollection",
  "features": [
    {
      "type": "Feature",
      "properties": {
        "project_name": "Waterfront Park",
        "site": "Potrero Power Station",
        "status": "planned",
        "use": "park",
        "geometry_type": "approximate",
        "digitized_from": "Potrero Power Station Design for Development, Figure 6.2.3 - Building Height Plan (p.245).",
        "digitization_method": "Traced from the Potrero Power Station Design for Development's own Figure 6.2.3 (Building Height Plan, p.245), which labels this feature directly (not inferred). Georeferenced using an affine transform fit from 8 control points -- the 4 real-world corners of Block 1 and the 4 real-world corners of Block 12 (both already independently traced and committed elsewhere in this dataset), matched to their pixel positions in this same diagram. Residual error against those 8 control points is roughly 15-24m, consistent with this site's other entries. This is a DIFFERENT (but equivalent-precision) point set than the 9 street-intersection points used for Blocks 1-15 -- both were derived from the same source diagram. CORRECTED 2026-09-15: user-flagged visual check found this polygon sitting mostly in the water, not on the real shoreline -- confirmed by pixel-sampling the actual water/land color transition along the coast at several latitudes, which showed the traced strip running consistently ~12m east of the true shoreline (the 8-control-point transforms residual error, landing on the water side rather than the land side). Shifted the entire polygon 12m west (bearing 266.5, this site's established grid west direction) as a uniform correction, preserving the traced shape's relative geometry -- overlay-confirmed afterward that the shifted strip now sits on the real paved/rocky shoreline strip for its full length, including through the point/breakwater curve at the south end. Not a full re-trace of the curve's own shape -- see accuracy_caveat. SECOND CORRECTION 2026-09-15: user confirmed the 12m uniform shift still left most of the shape (especially the southern point/breakwater curve) sitting in the water -- a single uniform shift could not fix a curving coastline traced from a diagram. Re-traced from scratch directly off satellite color: classified water vs. land per-pixel (water reads distinctly greener/cyan relative to red -- G-R > 12 -- versus this industrial sites darker, warmer-toned dirt and pavement) at zoom 19, scanned every ~8th row for the first sustained water run to get a raw shoreline point per row, then smoothed with a median filter (window 15, then 9) to cancel wave-texture noise while preserving the real curve including the point at the south end. Built the park as an 8m-wide ribbon (this sites established grid bearing, 266.5 degrees, for the inland offset) along that traced shoreline. Overlay-confirmed the full length, including the point curve, now sits on real land. RE-CLIPPED 2026-09-16: user spotted this feature still visibly cutting into Block 9 on the rendered map -- the earlier same-day fix only avoided reusing this trace's bad segment when building the new Prequel Park (Power Station sub-area) connector, but never corrected this file's own geometry, so the original notch (dipping into Block 9's now-corrected footprint) was still here. Clipped this polygon directly against Block 9's own current geometry via shapely difference() -- Block 9's boundary cuts all the way through this thin ribbon at that point, so the result is a MultiPolygon (the ribbon north of Block 9 and the ribbon south of it, both real portions, now with zero overlap into Block 9 by construction rather than by hand-editing vertices). 2026-09-29 accuracy audit: the source_doc_urls entry pointed to the August 22, 2019 public-review draft #2 of the Design for Development (potrero_power_D4D_draft-082219.pdf), which now returns 404 and has no archive snapshot; it has been repointed to the adopted final D4D (February 26, 2020, https://sfplanning.org/sites/default/files/documents/citywide/potreropower_D4D_final.pdf), where Figure 6.2.3 Building Height Plan is on printed p.245 (PDF p.247) and Table 3.1.1 Permitted Uses on printed p.47, and whose footers carry the February 26, 2020 date; the SF Planning project page (https://sfplanning.org/potrero-power-station) is added as the source for status and phasing. The park's shoreline shape itself was re-traced from satellite imagery as described above, so digitized_from's citation of Figure 6.2.3 covers only the park's name and general location ('WATERFRONT PARK' is labelled vertically along the shoreline east of Block 9 and the Stack in the final figure); the full extent is shown in the final D4D's Figure 4.16.1. 2026-10-02: public-text pass. accuracy_caveat, why_no_real_parcel, notes reworded for readers (meaning unchanged; no change to the shape, status, use or geometry_type); previous wording -- accuracy_caveat: 'APPROXIMATE -- Figure 6.2.3 labels this as a long, curving shoreline strip running the full length of the site's bay frontage (continuing north and south beyond this figure's own page crop in the source PDF). This polygon traces only the portion visible on Figure 6.2.3 itself as a simplified strip (not the full shoreline extent, and not precisely following the actual curving shore/site-boundary line, which was simplified to a handful of vertices). Treat as directionally correct but incomplete and shape-approximate. Same 15-25m positional tolerance as this site's other entries. Position corrected 2026-09-15 (12m uniform shift onto the real shoreline, see digitization_method) -- the strip's own curve/shape still was not independently re-verified vertex-by-vertex against the coastline, only its overall position. Second position correction 2026-09-15: re-traced directly from satellite imagery color (water vs. land pixel classification), not the diagram transform -- now an 8m-wide ribbon on the real shoreline, including the southern point/breakwater curve. Still simplified (does not capture the D4D-labeled strips full north-south extent beyond what is visible here) and the exact width (8m) is an assumption, not measured from any park-design source. NOTE 2026-09-16: this feature's own outer-shoreline trace turned out to substantially overlap the newly-added 'Prequel Park (Power Station sub-area)' -- evidence (a Spring 2026 construction-pipeline listing describing the same corridor as a '2-acre Waterfront Park', which could not be located or checked) suggests both features describe the same physical shoreline strip: this one as the D4D's own long-term planning label, Prequel Park as the interim park (still planned: the Port Commission memo of Nov 14, 2025 says the developer hoped to start construction in the third quarter of 2026, and no source confirms a start). The overlap is expected, not a tracing error -- see Prequel Park (Power Station sub-area)'s own digitization_method. Not merged into one feature since the two have different sourcing/status and either could be independently corrected later.'; notes: 'Simplified partial trace of a long shoreline open space -- see accuracy_caveat; does not capture the strip's full north-south extent.'; why_no_real_parcel: 'Open space with no subdivided Assessor parcel of its own within the largely unaddressed former power-station site. (This is our own parcel-search narration, not something the cited Design for Development can establish; the D4D does not address Assessor parcels.) The Port shoreline premises are Port land under Lease L-16662 (Port Commission memo, Nov 14, 2025); DataSF Parcels (queried 2026-09-29) lists active lots in Assessor blocks 4175 and 4232 added in December 2023 after the Phase 1 Final Map, and whether any of them matches this park was not checked.'.",
        "accuracy_caveat": "APPROXIMATE -- Figure 6.2.3 labels this as a long, curving shoreline strip running the full length of the site's bay frontage (continuing north and south beyond this figure's own page crop in the source PDF). This polygon traces only the portion visible on Figure 6.2.3 itself as a simplified strip (not the full shoreline extent, and not precisely following the actual curving shore/site-boundary line, which was simplified to a handful of vertices). Treat as directionally correct but incomplete and shape-approximate. Same 15-25m positional tolerance as this site's other entries. Position corrected 2026-09-15 (12m uniform shift onto the real shoreline, see the mapping log in the public data repository (https://github.com/pierandpoint/record)) -- the strip's own curve/shape still was not independently re-verified vertex-by-vertex against the coastline, only its overall position. Second position correction 2026-09-15: re-traced directly from satellite imagery color (water vs. land pixel classification), not the diagram transform -- now an 8m-wide ribbon on the real shoreline, including the southern point/breakwater curve. Still simplified (does not capture the D4D-labeled strips full north-south extent beyond what is visible here) and the exact width (8m) is an assumption, not measured from any park-design source. NOTE 2026-09-16: this feature's own outer-shoreline trace turned out to substantially overlap the newly-added 'Prequel Park (Power Station sub-area)' -- evidence (a Spring 2026 construction-pipeline listing describing the same corridor as a '2-acre Waterfront Park', which could not be located or checked) suggests both features describe the same physical shoreline strip: this one as the D4D's own long-term planning label, Prequel Park as the interim park (still planned: the Port Commission memo of Nov 14, 2025 says the developer hoped to start construction in the third quarter of 2026, and no source confirms a start). The overlap is expected, not a tracing error -- see Prequel Park (Power Station sub-area)'s own mapping log. Not merged into one feature since the two have different sourcing/status and either could be independently corrected later.",
        "why_no_real_parcel": "Open space with no subdivided Assessor parcel of its own within the largely unaddressed former power-station site. (This reflects Pier & Point's own parcel search, not something the cited Design for Development can establish; the D4D does not address Assessor parcels.) The Port shoreline premises are Port land under Lease L-16662 (Port Commission memo, Nov 14, 2025); DataSF Parcels (queried 2026-09-29) lists active lots in Assessor blocks 4175 and 4232 added in December 2023 after the Phase 1 Final Map, and whether any of them matches this park was not checked.",
        "regulatory_context": "The site's shoreline public-access open space, per the D4D's own Figure 6.2.3 label, running along the bay side of Blocks 9 and the Stack, connecting toward Warm Water Cove Park to the south (shown on the same figure, outside the project site boundary).",
        "notes": "Simplified partial trace of a long shoreline open space -- see the accuracy caveat; does not capture the strip's full north-south extent.",
        "images": [],
        "source_doc_urls": [
          "https://sfplanning.org/sites/default/files/documents/citywide/potreropower_D4D_final.pdf",
          "https://sfplanning.org/potrero-power-station"
        ]
      },
      "geometry": {
        "type": "MultiPolygon",
        "coordinates": [
          [
            [
              [
                -122.3813250660896,
                37.758119672804156
              ],
              [
                -122.38134384155272,
                37.75805181478993
              ],
              [
                -122.38140821456909,
                37.75798395671346
              ],
              [
                -122.38143235445021,
                37.757916098574746
              ],
              [
                -122.3816442489624,
                37.75784824037379
              ],
              [
                -122.3816442489624,
                37.75778038211058
              ],
              [
                -122.38168448209763,
                37.75771252378514
              ],
              [
                -122.3816442489624,
                37.75764466539744
              ],
              [
                -122.38154232501982,
                37.757576806947505
              ],
              [
                -122.38143235445021,
                37.757508948435316
              ],
              [
                -122.38143235445021,
                37.75744108986089
              ],
              [
                -122.38144308328629,
                37.75737323122423
              ],
              [
                -122.38148599863052,
                37.7573053725253
              ],
              [
                -122.38148599863052,
                37.75723751376414
              ],
              [
                -122.38145381212234,
                37.75716965494073
              ],
              [
                -122.38140553236008,
                37.757101796055075
              ],
              [
                -122.38140016794202,
                37.75703393710718
              ],
              [
                -122.38139480352402,
                37.75696607809704
              ],
              [
                -122.38139480352402,
                37.756898219024656
              ],
              [
                -122.38137066364288,
                37.75683035989002
              ],
              [
                -122.38137066364288,
                37.75676250069315
              ],
              [
                -122.38136529922483,
                37.756694641434024
              ],
              [
                -122.38136798143387,
                37.75662678211266
              ],
              [
                -122.38160114205778,
                37.756591877260995
              ],
              [
                -122.38160199860435,
                37.75660093524104
              ],
              [
                -122.3814587,
                37.7566224
              ],
              [
                -122.381456,
                37.7566903
              ],
              [
                -122.3814614,
                37.7567581
              ],
              [
                -122.3814614,
                37.756826
              ],
              [
                -122.3814855,
                37.7568938
              ],
              [
                -122.3814855,
                37.7569617
              ],
              [
                -122.3814909,
                37.7570295
              ],
              [
                -122.3814963,
                37.7570974
              ],
              [
                -122.3815445,
                37.7571653
              ],
              [
                -122.3815767,
                37.7572331
              ],
              [
                -122.3815767,
                37.757301
              ],
              [
                -122.3815338,
                37.7573688
              ],
              [
                -122.3815231,
                37.7574367
              ],
              [
                -122.3815231,
                37.7575046
              ],
              [
                -122.3816331,
                37.7575724
              ],
              [
                -122.381735,
                37.7576403
              ],
              [
                -122.3817752,
                37.7577081
              ],
              [
                -122.381735,
                37.757776
              ],
              [
                -122.381735,
                37.7578439
              ],
              [
                -122.3815231,
                37.7579117
              ],
              [
                -122.3814989,
                37.7579796
              ],
              [
                -122.3814346,
                37.7580474
              ],
              [
                -122.3814158,
                37.7581153
              ],
              [
                -122.3814024,
                37.7581831
              ],
              [
                -122.38131165504457,
                37.75818753075613
              ],
              [
                -122.3813250660896,
                37.758119672804156
              ]
            ]
          ],
          [
            [
              [
                -122.38136529922483,
                37.75628748457218
              ],
              [
                -122.38136529922483,
                37.756219624877346
              ],
              [
                -122.38134920597075,
                37.756151765120265
              ],
              [
                -122.38134920597075,
                37.756083905300954
              ],
              [
                -122.38134384155272,
                37.75601604541939
              ],
              [
                -122.38132774829865,
                37.75594818547559
              ],
              [
                -122.38129556179045,
                37.75588032546954
              ],
              [
                -122.3812472820282,
                37.75581246540124
              ],
              [
                -122.38116949796677,
                37.7557446052707
              ],
              [
                -122.38116949796677,
                37.75567674507792
              ],
              [
                -122.38139748573302,
                37.75560888482289
              ],
              [
                -122.38139748573302,
                37.75554102450562
              ],
              [
                -122.38094687461854,
                37.75547316412611
              ],
              [
                -122.38091468811035,
                37.75540530368435
              ],
              [
                -122.38095492124557,
                37.75533744318036
              ],
              [
                -122.38099783658981,
                37.75526958261411
              ],
              [
                -122.38134652376174,
                37.75520172198563
              ],
              [
                -122.3814372,
                37.7551973
              ],
              [
                -122.3810886,
                37.7552652
              ],
              [
                -122.3810456,
                37.7553331
              ],
              [
                -122.3810054,
                37.7554009
              ],
              [
                -122.3810376,
                37.7554688
              ],
              [
                -122.3814882,
                37.7555366
              ],
              [
                -122.3814882,
                37.7556045
              ],
              [
                -122.3812602,
                37.7556724
              ],
              [
                -122.3812602,
                37.7557402
              ],
              [
                -122.381338,
                37.7558081
              ],
              [
                -122.3813863,
                37.7558759
              ],
              [
                -122.3814185,
                37.7559438
              ],
              [
                -122.3814346,
                37.7560117
              ],
              [
                -122.3814399,
                37.7560795
              ],
              [
                -122.3814399,
                37.7561474
              ],
              [
                -122.381456,
                37.7562152
              ],
              [
                -122.381456,
                37.7562831
              ],
              [
                -122.38160082613037,
                37.75630259969116
              ],
              [
                -122.38160245651763,
                37.75631939976855
              ],
              [
                -122.38136529922483,
                37.75628748457218
              ]
            ]
          ]
        ]
      }
    }
  ]
}