{
  "type": "FeatureCollection",
  "features": [
    {
      "type": "Feature",
      "properties": {
        "project_name": "Prequel Park (Power Station sub-area)",
        "site": "Potrero Power Station",
        "status": "under_construction",
        "use": "park",
        "geometry_type": "approximate",
        "digitized_from": "Potrero Power Station Design for Development, Figure 6.2.3 (shoreline shown as 'Waterfront Park'); SF Port Commission Nov 2025 memo and Spring 2026 development-forecast listing for 'Potrero Power Station - Prequel Park' (2-acre interim waterfront park).",
        "digitization_method": "NEWLY ADDED 2026-09-16 -- user pointed out that the already-tracked 'Prequel Park (Port sub-area)' polygon (0.4 acres, near the pier's point/breakwater) should connect to Blocks 4 and 9 and to Humboldt Street Plaza, and should not overlap Block 9. That file's own regulatory_context already noted it covers only ~0.4 of a ~2-acre 'Prequel Park' interim open-space project (SF Port Commission Resolution 25-70, Nov 18 2025, amending Lease L-16662) -- the other ~1.6 acres sits on Potrero Power Station's own land (not Port jurisdiction), which had never been separately tracked. A construction-pipeline document (Spring 2026 dev forecast) independently describes this same project as a '2-acre Waterfront Park', strongly suggesting this Power-Station-land portion is the same physical shoreline corridor already traced (less precisely, and for a different purpose) as this dataset's separate 'Waterfront Park' feature (a D4D-diagram-labeled, long-term planning feature, sourced and georeferenced completely differently). Built this connector polygon by combining two already-validated sources rather than re-tracing from scratch: (1) the WEST/inner edge uses Block 4, Humboldt Street Plaza, and Block 9's own already-committed corners directly, so it shares an exact boundary with all three and cannot overlap Block 9 by construction; (2) the EAST/shoreline edge reuses Waterfront Park's own previously satellite-color-validated outer-shoreline trace (see that file's digitization_method for how it was built) between Block 4's latitude and Prequel Park (Port sub-area)'s own northernmost point, where the two pieces meet and touch -- except for a ~20m notch in that trace (its own vertices between the point at lon -122.38137/lat 37.75663 and the point at lon -122.38137/lat 37.75629) that pre-dated Block 9's GDAL/TPS correction and dipped into Block 9's real footprint; dropped those points since the west-edge chain now defines that boundary directly.",
        "accuracy_caveat": "APPROXIMATE -- this polygon combines two different sourcing methods (see digitization_method) and has not been independently re-verified as a whole against satellite imagery. Its west edge is exact (shared vertices with Block 4/Humboldt Street Plaza/Block 9). Its east/shoreline edge inherits whatever accuracy Waterfront Park's own trace has -- treat it as a reasonable but not freshly-verified approximation of the real shoreline. This is the 'Power Station sub-area' complement to 'Prequel Park (Port sub-area)' -- together they approximate the full ~2-acre interim park project, though the true internal boundary between Port and Power-Station land has not been independently confirmed.",
        "why_no_real_parcel": "Open space with no subdivided Assessor parcel of its own within the largely unaddressed former power-station site.",
        "regulatory_context": "The Potrero Power Station-land portion of the ~2-acre Prequel Park interim open-space project (see 'Prequel Park (Port sub-area)' for the Port-jurisdiction portion and its own sourcing). Construction per the Spring 2026 SF development-pipeline forecast (developer: FIFTH SPACE); scope includes demolition/site clearing, earthwork and grading, underground utilities, stormwater treatment, and landscaping.",
        "notes": "Newly added 2026-09-16 to complement 'Prequel Park (Port sub-area)' -- see accuracy_caveat.",
        "images": [],
        "source_doc_urls": []
      },
      "geometry": {
        "type": "Polygon",
        "coordinates": [
          [
            [
              -122.38185,
              37.757771
            ],
            [
              -122.381801,
              37.757235
            ],
            [
              -122.381751,
              37.757038
            ],
            [
              -122.381723,
              37.756744
            ],
            [
              -122.381616,
              37.756749
            ],
            [
              -122.381576,
              37.756326
            ],
            [
              -122.381603,
              37.756325
            ],
            [
              -122.38158,
              37.756088
            ],
            [
              -122.381373,
              37.755812
            ],
            [
              -122.381296,
              37.75588
            ],
            [
              -122.381328,
              37.755948
            ],
            [
              -122.381344,
              37.756016
            ],
            [
              -122.381349,
              37.756084
            ],
            [
              -122.381349,
              37.756152
            ],
            [
              -122.381365,
              37.75622
            ],
            [
              -122.381365,
              37.756287
            ],
            [
              -122.381368,
              37.756627
            ],
            [
              -122.381365,
              37.756695
            ],
            [
              -122.381371,
              37.756763
            ],
            [
              -122.381371,
              37.75683
            ],
            [
              -122.381395,
              37.756898
            ],
            [
              -122.381395,
              37.756966
            ],
            [
              -122.3814,
              37.757034
            ],
            [
              -122.381406,
              37.757102
            ],
            [
              -122.381454,
              37.75717
            ],
            [
              -122.381486,
              37.757238
            ],
            [
              -122.381486,
              37.757305
            ],
            [
              -122.381443,
              37.757373
            ],
            [
              -122.381432,
              37.757441
            ],
            [
              -122.381432,
              37.757509
            ],
            [
              -122.381542,
              37.757577
            ],
            [
              -122.381644,
              37.757645
            ],
            [
              -122.381684,
              37.757713
            ],
            [
              -122.381644,
              37.75778
            ],
            [
              -122.38185,
              37.757771
            ]
          ]
        ]
      }
    }
  ]
}