{
 "type": "FeatureCollection",
 "features": [
  {
   "type": "Feature",
   "properties": {
    "project_name": "Genentech Hall",
    "site": "Mission Bay South",
    "status": "complete",
    "use": "institutional",
    "geometry_type": "real",
    "digitized_from": "OpenStreetMap (way 135103725, 600 16th St)",
    "digitization_method": "ADDED 2026-09-18 for Mission Bay's UCSF campus pass: real OSM building footprint. UCSF's own tax-roll record for this address (blklot 8722003) confirms 600 16th St as a UCSF medical/office parcel. BLOCK NUMBER ADDED 2026-09-22: cross-checking both OCII's own Dec 2019 Land Use Map and UCSF's June 2025 CAC presentation (map updated December 2024) confirmed this building is Block 24A/B -- the project's block_inventory brief had wrongly assigned that number to a different, unrelated building (Exchange on 16th/1700 Owens St) since its earliest pass; see docs/briefs/mission_bay_block_inventory.csv for the full correction. Geometry unchanged.",
    "accuracy_caveat": "REAL -- surveyed OpenStreetMap building footprint, not a hand trace or plan estimate. This is the opposite situation from Mission Bay's condo-mapped residential towers (Avalon, Radiance, etc.): here, ONE large Assessor land parcel spans SEVERAL UCSF buildings (confirmed against data/raw/parcels.geojson and DataSF's Assessor tax roll -- e.g. blklot 8711507 at 675 Nelson Rising Lane alone is ~13 acres, far larger than any single building on it), so using the parcel boundary per building would make multiple records overlap and double-count the same ground. The real building footprint is the only non-overlapping, honest shape for each one.",
    "notes": "OCII plan block 24A/B. UCSF's first Mission Bay building and the first structure completed on the 303-acre campus. ~400,000-435,000 sq ft (sources vary), five stories. Architect SmithGroup (SF office). Opened January 2003 (a Jan 8, 2003 first-researcher-moved-in anecdote and a Feb 2003 trade-press \"now open\" piece support the month; not an official UCSF dedication-date citation).",
    "source_doc_urls": [
     "https://www.openstreetmap.org/way/135103725",
     "https://www.tradelineinc.com/news/2003-2/ucsf-mission-bay-genentech-hall-now-open",
     "https://history.library.ucsf.edu/1990.html"
    ]
   },
   "geometry": {
    "type": "Polygon",
    "coordinates": [
     [
      [
       -122.3915819,
       37.7674402
      ],
      [
       -122.3915684,
       37.7672985
      ],
      [
       -122.3916113,
       37.7670924
      ],
      [
       -122.3915975,
       37.7669701
      ],
      [
       -122.3924208,
       37.7669356
      ],
      [
       -122.3924252,
       37.7669884
      ],
      [
       -122.3925648,
       37.7669838
      ],
      [
       -122.3925665,
       37.7670042
      ],
      [
       -122.3927412,
       37.7669954
      ],
      [
       -122.3927429,
       37.7670269
      ],
      [
       -122.3927813,
       37.767025
      ],
      [
       -122.3927971,
       37.7671488
      ],
      [
       -122.3929315,
       37.7671459
      ],
      [
       -122.3929487,
       37.7672684
      ],
      [
       -122.3930919,
       37.7672638
      ],
      [
       -122.393112,
       37.7675606
      ],
      [
       -122.3920422,
       37.7676371
      ],
      [
       -122.3920362,
       37.7675843
      ],
      [
       -122.3920161,
       37.7674091
      ],
      [
       -122.3916242,
       37.7674372
      ],
      [
       -122.3915819,
       37.7674402
      ]
     ]
    ]
   }
  }
 ]
}