{
 "type": "FeatureCollection",
 "features": [
  {
   "type": "Feature",
   "properties": {
    "project_name": "UCSF Medical Center at Mission Bay",
    "site": "Mission Bay South",
    "status": "complete",
    "use": "institutional",
    "geometry_type": "real",
    "digitized_from": "OpenStreetMap (way 580277612, name=UCSF Medical Center at Mission Bay, amenity=hospital, operator=University of California San Francisco, 1975 4th St)",
    "digitization_method": "ADDED 2026-09-18 for Mission Bay's UCSF campus pass: real OSM building footprint for the main hospital complex, which houses UCSF Benioff Children's Hospital, UCSF Bakar Cancer Hospital and Betty Irene Moore Women's Hospital under one roof. 2026-10-02: public-text pass. accuracy_caveat reworded for readers (meaning unchanged; no change to the shape, status, use or geometry_type); previous wording -- accuracy_caveat: 'REAL -- surveyed OpenStreetMap building footprint, not a hand trace or plan estimate. This is the opposite situation from Mission Bay's condo-mapped residential towers (Avalon, Radiance, etc.): here, ONE large Assessor land parcel spans SEVERAL UCSF buildings (confirmed against data/raw/parcels.geojson and DataSF's Assessor tax roll -- e.g. blklot 8711507 alone is about 12-13 acres: 675 Nelson Rising Ln with a lot area of 572,576 sq ft (13.1 acres) on the Assessor roll, 675 Mission Bay Blvd and 12.2 acres in DataSF's Parcels layer, far larger than any single building on it), so using the parcel boundary per building would make multiple records overlap and double-count the same ground. The real building footprint is the only non-overlapping, honest shape for each one.'.",
    "accuracy_caveat": "REAL -- surveyed OpenStreetMap building footprint, not a hand trace or plan estimate. This is the opposite situation from Mission Bay's condo-mapped residential towers (Avalon, Radiance, etc.): here, ONE large Assessor land parcel spans SEVERAL UCSF buildings (confirmed against DataSF's Assessor parcel data and tax roll -- e.g. blklot 8711507 alone is about 12-13 acres: 675 Nelson Rising Ln with a lot area of 572,576 sq ft (13.1 acres) on the Assessor roll, 675 Mission Bay Blvd and 12.2 acres in DataSF's Parcels layer, far larger than any single building on it), so using the parcel boundary per building would make multiple records overlap and double-count the same ground. The real building footprint is the only non-overlapping, honest shape for each one.",
    "notes": "289-bed hospital complex (183-bed Benioff Children's Hospital, 36-bed Betty Irene Moore Women's Hospital, 70-bed Bakar Cancer Hospital), ~878,000 sq ft, ~$1.52 billion project cost. McDonough's project page credits Stantec (formerly Anshen+Allen) and William McDonough + Partners as architects; DPR's page credits Stantec Architecture. Opened Feb 1, 2015 (DPR) after over a decade of planning, design and construction.",
    "source_doc_urls": [
     "https://www.openstreetmap.org/way/580277612",
     "https://www.ucsfhealth.org/",
     "https://www.ucsf.edu/news/2014/11/121086/ucsf-medical-center-opens-15-billion-next-generation-hospital-complex-mission",
     "https://www.dpr.com/projects/ucsf-medical-center-at-mission-bay",
     "https://mcdonoughpartners.com/projects/ucsf-medical-center-at-mission-bay/"
    ]
   },
   "geometry": {
    "type": "Polygon",
    "coordinates": [
     [
      [
       -122.3907074,
       37.7643772
      ],
      [
       -122.3906699,
       37.7643645
      ],
      [
       -122.3891223,
       37.7644917
      ],
      [
       -122.3890954,
       37.7645256
      ],
      [
       -122.3890793,
       37.7645786
      ],
      [
       -122.3892586,
       37.766337
      ],
      [
       -122.3892993,
       37.7667689
      ],
      [
       -122.3893234,
       37.7667901
      ],
      [
       -122.3905465,
       37.7667159
      ],
      [
       -122.3923597,
       37.7666036
      ],
      [
       -122.392408,
       37.7665908
      ],
      [
       -122.392424,
       37.7665527
      ],
      [
       -122.3923516,
       37.7663279
      ],
      [
       -122.3922817,
       37.7655498
      ],
      [
       -122.3922296,
       37.7650324
      ],
      [
       -122.3908415,
       37.7651151
      ],
      [
       -122.3905358,
       37.7650218
      ],
      [
       -122.3906511,
       37.7648034
      ],
      [
       -122.3907208,
       37.7645807
      ],
      [
       -122.3907074,
       37.7643772
      ]
     ]
    ]
   }
  }
 ]
}