{
  "type": "FeatureCollection",
  "features": [
    {
      "type": "Feature",
      "properties": {
        "project_name": "William J. Rutter Center",
        "site": "Mission Bay South",
        "status": "complete",
        "use": "institutional",
        "geometry_type": "real",
        "digitized_from": "OpenStreetMap (way 84812339: name 'UCSF Community Center', official name 'William J. Rutter Center', address 1675 Owens St). Its own small mid-edge digitizing jog on the west wall was straightened into a clean 4-corner quadrilateral on 2026-09-22. How this shape was traced, including earlier versions, is logged in its data file in the public data repository (https://github.com/pierandpoint/record).",
        "digitization_method": "ADDED 2026-09-18 for Mission Bay's UCSF campus pass: real OSM building footprint. EXTENDED 2026-09-20: the owner directed adding fragments 19, 20, 22 and 25 from the numbered real-gap-fragment map of this area to the building footprint, to encompass the 1625 Owens St parking lot and an adjoining garage structure immediately west (12,932.65 sqm total, up from 6,147 sqm). SPLIT BACK OUT 2026-09-22: cross-checking UCSF's own June 2025 CAC presentation (map updated December 2024) showed this whole west addition is UCSF's own separate 'Block 21A -- Community Center Garage', not part of the Rutter Center block (21B) -- the two are functionally distinct even though physically connected (satellite imagery shows a real, separate rooftop parking deck west of the Rutter Center's pool/courtyard, joined by a walkway). Reverted this record to the original OSM building footprint (21B), with its west edge straightened from a 3-point bend to a clean 2-point straight line (north corner to south corner, dropping the small mid-point jog -- the same real wall, just without the digitizing-noise kink) so it shares one clean boundary with the new 21A record (data/manual/ucsf_community_center_garage.geojson), which takes the rest of the west addition, cut along that same straight line. 2026-09-29 accuracy audit: the address '1625 Owens St' for the west addition (parking lot) is not given by any cited source (OSM, Legorreta, Forell, UCSF's June 2025 CAC deck) and should be treated as unconfirmed; it came from the owner's plan review. project_name changed to 'William J. Rutter Center' (OSM official_name, Forell), since the earlier blend 'William J. Rutter Community Center' appears in no source. 2026-10-02: public-text pass. accuracy_caveat, digitized_from, notes reworded for readers (meaning unchanged; no change to the shape, status, use or geometry_type); previous wording -- accuracy_caveat: 'REAL -- surveyed OpenStreetMap building footprint, not a hand trace or plan estimate; the west edge is idealized to a straight line (2 points instead of the OSM trace's 3, dropping a sub-meter digitizing jog), not a surveyed change. This is the opposite situation from Mission Bay's condo-mapped residential towers (Avalon, Radiance, etc.): here, ONE large Assessor land parcel spans SEVERAL UCSF buildings (confirmed against data/raw/parcels.geojson and DataSF's Assessor tax roll -- e.g. blklot 8711507 (675 Mission Bay Blvd in the repo's DataSF parcels copy) alone is about 12.2 acres, far larger than any single building on it), so using the parcel boundary per building would make multiple records overlap and double-count the same ground. The real building footprint is the only non-overlapping, honest shape for this record.'; digitized_from: 'OpenStreetMap (way 84812339, name=UCSF Community Center, official_name=William J. Rutter Center, addr:housenumber 1675, Owens St). Its own small mid-edge digitizing jog on the west wall was straightened into a clean 4-corner quadrilateral 2026-09-22 (see digitization_method).'; notes: '~150,000-156,600 sq ft (sources vary), four to five stories; houses a fitness center, conference center with an auditorium, gymnasium, swimming pools, food court and offices (Legorreta; Forell). The names 'Bakar Fitness & Recreation Center' and 'Mission Bay Conference Center' are not in any cited source. Architect Legorreta Arquitectos (Ricardo and Victor Legorreta) with MBT Architecture as associate/executive architect. Legorreta's project page lists the year 2005 (opening month not confirmed by a primary source). Per UCSF's own Dec 2024-updated campus map, this is Block 21B; the adjoining Community Center Garage to its west is the separate Block 21A (data/manual/ucsf_community_center_garage.geojson).'.",
        "accuracy_caveat": "REAL -- surveyed OpenStreetMap building footprint, not a hand trace or plan estimate; the west edge is idealized to a straight line (2 points instead of the OSM trace's 3, dropping a sub-meter digitizing jog), not a surveyed change. This is the opposite situation from Mission Bay's condo-mapped residential towers (Avalon, Radiance, etc.): here, ONE large Assessor land parcel spans SEVERAL UCSF buildings (confirmed against DataSF's Assessor parcel data and tax roll -- e.g. block/lot 8711507 (675 Mission Bay Blvd in DataSF's parcel data) alone is about 12.2 acres, far larger than any single building on it), so using the parcel boundary per building would make multiple records overlap and double-count the same ground. The real building footprint is the only non-overlapping, honest shape for this record.",
        "notes": "~150,000-156,600 sq ft (sources vary), four to five stories; houses a fitness center, conference center with an auditorium, gymnasium, swimming pools, food court and offices (Legorreta; Forell). The names 'Bakar Fitness & Recreation Center' and 'Mission Bay Conference Center' are not in any cited source. Architect Legorreta Arquitectos (Ricardo and Victor Legorreta) with MBT Architecture as associate/executive architect. Legorreta's project page lists the year 2005 (opening month not confirmed by a primary source). Per UCSF's own Dec 2024-updated campus map, this is Block 21B; the adjoining Community Center Garage to its west is the separate Block 21A (mapped as its own record).",
        "source_doc_urls": [
          "https://www.openstreetmap.org/way/84812339",
          "https://www.legorreta.mx/en/proyecto-centro-comunitario-campus-mission-bay-ucsf",
          "https://forell.com/projects/ucsf-mission-bay-william-j-rutter-center",
          "https://sfocii.org/sites/default/files/2025-06/Item%202%20-%20UCSF%20Mission%20Bay%20Development%20Overview.pdf"
        ]
      },
      "geometry": {
        "type": "Polygon",
        "coordinates": [
          [
            [
              -122.3935542,
              37.7684847
            ],
            [
              -122.3927839,
              37.768535
            ],
            [
              -122.3927055,
              37.7677832
            ],
            [
              -122.3934758,
              37.767733
            ],
            [
              -122.3935542,
              37.7684847
            ]
          ]
        ]
      }
    }
  ]
}